<?xml version="1.0" encoding="utf-8"?>
<kml xmlns:gx="http://www.google.com/kml/ext/2.2" creator="kml-heatmap" xmlns="http://www.opengis.net/kml/2.2">
  <Document>
    <name>SkyDemon Track Log</name>
    <Style id="skydemonLogStyle">
      <LineStyle>
        <color>7f00ffff</color>
        <width>4</width>
      </LineStyle>
      <PolyStyle>
        <color>7fffa400</color>
      </PolyStyle>
    </Style>
    <Style id="downArrowIcon">
      <IconStyle>
        <href>http://maps.google.com/mapfiles/kml/pal4/icon28.png</href>
      </IconStyle>
    </Style>
    <Placemark>
      <name>Log Start: 2026-01-01</name>
      <styleUrl>#downArrowIcon</styleUrl>
      <Point>
        <altitudeMode>relativeToGround</altitudeMode>
        <coordinates>12.511324,50.979893,20</coordinates>
      </Point>
    </Placemark>
    <Placemark>
      <name>EDAC Leipzig-Altenburg Airport - EDAQ Halle-Oppin</name>
      <styleUrl>#skydemonLogStyle</styleUrl>
      <gx:Track>
        <extrude>1</extrude>
        <altitudeMode>absolute</altitudeMode>
        <when>2026-01-01T00:00:00.1841100Z</when>
        <gx:coord>12.511324 50.979893 196.15965</gx:coord>
        <when>2026-01-01T00:00:05.1851100Z</when>
        <gx:coord>12.511324 50.97989 196.52016</gx:coord>
        <when>2026-01-01T00:00:10.1851100Z</when>
        <gx:coord>12.511324 50.97989 196.52016</gx:coord>
        <when>2026-01-01T00:00:15.1851100Z</when>
        <gx:coord>12.511324 50.97989 196.52016</gx:coord>
        <when>2026-01-01T00:00:20.1851100Z</when>
        <gx:coord>12.511324 50.97989 196.52016</gx:coord>
        <when>2026-01-01T00:00:25.1851100Z</when>
        <gx:coord>12.511324 50.97989 196.52016</gx:coord>
        <when>2026-01-01T00:00:30.1851100Z</when>
        <gx:coord>12.511324 50.97989 196.52016</gx:coord>
        <when>2026-01-01T00:00:35.1851100Z</when>
        <gx:coord>12.511324 50.97989 196.52016</gx:coord>
        <when>2026-01-01T00:00:40.1851100Z</when>
        <gx:coord>12.511324 50.97989 196.52016</gx:coord>
        <when>2026-01-01T00:00:45.1851100Z</when>
        <gx:coord>12.511329 50.97989 198.9047</gx:coord>
        <when>2026-01-01T00:00:50.1851100Z</when>
        <gx:coord>12.511334 50.979897 199.19705</gx:coord>
        <when>2026-01-01T00:00:55.1851100Z</when>
        <gx:coord>12.5113325 50.979897 199.24255</gx:coord>
        <when>2026-01-01T00:01:00.1851100Z</when>
        <gx:coord>12.511328 50.979893 199.0761</gx:coord>
        <when>2026-01-01T00:01:05.1851100Z</when>
        <gx:coord>12.511316 50.979897 198.94102</gx:coord>
        <when>2026-01-01T00:01:10.1851100Z</when>
        <gx:coord>12.511315 50.979893 198.79524</gx:coord>
        <when>2026-01-01T00:01:15.1851100Z</when>
        <gx:coord>12.511303 50.979893 198.54434</gx:coord>
        <when>2026-01-01T00:01:20.1851100Z</when>
        <gx:coord>12.511306 50.979897 198.33675</gx:coord>
        <when>2026-01-01T00:01:25.1851100Z</when>
        <gx:coord>12.511314 50.979893 198.44762</gx:coord>
        <when>2026-01-01T00:01:30.1851100Z</when>
        <gx:coord>12.511318 50.979897 198.70775</gx:coord>
        <when>2026-01-01T00:01:35.1851100Z</when>
        <gx:coord>12.511317 50.979885 198.73517</gx:coord>
        <when>2026-01-01T00:01:40.1851100Z</when>
        <gx:coord>12.511316 50.97989 199.0502</gx:coord>
        <when>2026-01-01T00:01:45.1851100Z</when>
        <gx:coord>12.511309 50.979885 199.35498</gx:coord>
        <when>2026-01-01T00:01:50.1851100Z</when>
        <gx:coord>12.511303 50.97988 199.64574</gx:coord>
        <when>2026-01-01T00:01:55.1851100Z</when>
        <gx:coord>12.51131 50.97989 199.6185</gx:coord>
        <when>2026-01-01T00:02:00.1851100Z</when>
        <gx:coord>12.511309 50.979893 199.5295</gx:coord>
        <when>2026-01-01T00:02:05.1851100Z</when>
        <gx:coord>12.511309 50.979893 199.5295</gx:coord>
        <when>2026-01-01T00:02:10.1851100Z</when>
        <gx:coord>12.511313 50.97989 199.38672</gx:coord>
        <when>2026-01-01T00:02:15.1851100Z</when>
        <gx:coord>12.511315 50.97989 199.17624</gx:coord>
        <when>2026-01-01T00:02:20.1851100Z</when>
        <gx:coord>12.511312 50.97989 199.16707</gx:coord>
        <when>2026-01-01T00:02:25.1851100Z</when>
        <gx:coord>12.511313 50.979885 199.10037</gx:coord>
        <when>2026-01-01T00:02:30.1851100Z</when>
        <gx:coord>12.511313 50.979885 199.10037</gx:coord>
        <when>2026-01-01T00:02:35.1851100Z</when>
        <gx:coord>12.511315 50.979885 199.10037</gx:coord>
        <when>2026-01-01T00:02:40.1851100Z</when>
        <gx:coord>12.511315 50.979885 199.10037</gx:coord>
        <when>2026-01-01T00:02:45.1851100Z</when>
        <gx:coord>12.511315 50.979885 199.10037</gx:coord>
        <when>2026-01-01T00:02:50.1851100Z</when>
        <gx:coord>12.511318 50.979877 199.10037</gx:coord>
        <when>2026-01-01T00:02:55.1851100Z</when>
        <gx:coord>12.511304 50.979904 199.07417</gx:coord>
        <when>2026-01-01T00:02:59.0931100Z</when>
        <gx:coord>12.511278 50.979923 199.05504</gx:coord>
        <when>2026-01-01T00:03:00.1851100Z</when>
        <gx:coord>12.511252 50.97995 199.04323</gx:coord>
        <when>2026-01-01T00:03:01.0871100Z</when>
        <gx:coord>12.511252 50.97995 199.04323</gx:coord>
        <when>2026-01-01T00:03:05.1851100Z</when>
        <gx:coord>12.511159 50.980038 199.03069</gx:coord>
        <when>2026-01-01T00:03:06.0881100Z</when>
        <gx:coord>12.511159 50.980038 199.03069</gx:coord>
        <when>2026-01-01T00:03:09.0891100Z</when>
        <gx:coord>12.511118 50.980125 198.70305</gx:coord>
        <when>2026-01-01T00:03:10.1851100Z</when>
        <gx:coord>12.511106 50.980194 198.4592</gx:coord>
        <when>2026-01-01T00:03:12.0881100Z</when>
        <gx:coord>12.511106 50.98023 198.35486</gx:coord>
        <when>2026-01-01T00:03:14.0881100Z</when>
        <gx:coord>12.511121 50.980297 197.90909</gx:coord>
        <when>2026-01-01T00:03:15.1851100Z</when>
        <gx:coord>12.511159 50.980366 197.48392</gx:coord>
        <when>2026-01-01T00:03:16.0861100Z</when>
        <gx:coord>12.511159 50.980366 197.48392</gx:coord>
        <when>2026-01-01T00:03:19.0881100Z</when>
        <gx:coord>12.511265 50.980473 196.82825</gx:coord>
        <when>2026-01-01T00:03:20.0851100Z</when>
        <gx:coord>12.5113125 50.980507 196.67276</gx:coord>
        <when>2026-01-01T00:03:20.1851100Z</when>
        <gx:coord>12.511364 50.980545 196.44986</gx:coord>
        <when>2026-01-01T00:03:25.1851100Z</when>
        <gx:coord>12.511654 50.980743 195.59839</gx:coord>
        <when>2026-01-01T00:03:30.1851100Z</when>
        <gx:coord>12.51199 50.980965 194.74773</gx:coord>
        <when>2026-01-01T00:03:35.1851100Z</when>
        <gx:coord>12.512364 50.9812 194.25029</gx:coord>
        <when>2026-01-01T00:03:40.1851100Z</when>
        <gx:coord>12.512704 50.981426 193.64351</gx:coord>
        <when>2026-01-01T00:03:45.1851100Z</when>
        <gx:coord>12.513001 50.981625 193.55498</gx:coord>
        <when>2026-01-01T00:03:50.1861100Z</when>
        <gx:coord>12.513277 50.9818 193.28279</gx:coord>
        <when>2026-01-01T00:03:55.0871100Z</when>
        <gx:coord>12.513435 50.98197 193.12901</gx:coord>
        <when>2026-01-01T00:03:55.1851100Z</when>
        <gx:coord>12.513468 50.98202 193.05951</gx:coord>
        <when>2026-01-01T00:03:59.0911100Z</when>
        <gx:coord>12.513543 50.98218 192.72281</gx:coord>
        <when>2026-01-01T00:04:00.1851100Z</when>
        <gx:coord>12.5135765 50.9823 192.57597</gx:coord>
        <when>2026-01-01T00:04:05.1851100Z</when>
        <gx:coord>12.513613 50.982605 192.65503</gx:coord>
        <when>2026-01-01T00:04:10.1851100Z</when>
        <gx:coord>12.513641 50.98291 192.35606</gx:coord>
        <when>2026-01-01T00:04:12.0871100Z</when>
        <gx:coord>12.513647 50.982975 192.26155</gx:coord>
        <when>2026-01-01T00:04:15.1861100Z</when>
        <gx:coord>12.513662 50.983246 191.7205</gx:coord>
        <when>2026-01-01T00:04:20.1851100Z</when>
        <gx:coord>12.513691 50.983597 191.12378</gx:coord>
        <when>2026-01-01T00:04:25.1861100Z</when>
        <gx:coord>12.513726 50.983967 190.52103</gx:coord>
        <when>2026-01-01T00:04:30.1861100Z</when>
        <gx:coord>12.513751 50.984325 189.88058</gx:coord>
        <when>2026-01-01T00:04:35.1851100Z</when>
        <gx:coord>12.513787 50.98469 189.26427</gx:coord>
        <when>2026-01-01T00:04:40.0891100Z</when>
        <gx:coord>12.513821 50.984962 188.97598</gx:coord>
        <when>2026-01-01T00:04:40.1861100Z</when>
        <gx:coord>12.513845 50.98502 189.00662</gx:coord>
        <when>2026-01-01T00:04:42.0871100Z</when>
        <gx:coord>12.51388 50.985073 188.88898</gx:coord>
        <when>2026-01-01T00:04:45.0931100Z</when>
        <gx:coord>12.514024 50.985226 188.89136</gx:coord>
        <when>2026-01-01T00:04:45.1861100Z</when>
        <gx:coord>12.514084 50.985275 188.80275</gx:coord>
        <when>2026-01-01T00:04:50.1861100Z</when>
        <gx:coord>12.514371 50.985554 188.51884</gx:coord>
        <when>2026-01-01T00:04:55.1861100Z</when>
        <gx:coord>12.514692 50.985855 188.29811</gx:coord>
        <when>2026-01-01T00:05:00.1861100Z</when>
        <gx:coord>12.515034 50.98617 187.84421</gx:coord>
        <when>2026-01-01T00:05:05.1861100Z</when>
        <gx:coord>12.515374 50.986496 187.71895</gx:coord>
        <when>2026-01-01T00:05:10.1861100Z</when>
        <gx:coord>12.515668 50.986782 187.36064</gx:coord>
        <when>2026-01-01T00:05:15.1861100Z</when>
        <gx:coord>12.515916 50.98701 186.78</gx:coord>
        <when>2026-01-01T00:05:20.1861100Z</when>
        <gx:coord>12.516055 50.98714 186.6928</gx:coord>
        <when>2026-01-01T00:05:24.0861100Z</when>
        <gx:coord>12.516078 50.98716 186.72047</gx:coord>
        <when>2026-01-01T00:05:25.1861100Z</when>
        <gx:coord>12.516075 50.987156 186.85072</gx:coord>
        <when>2026-01-01T00:05:30.1861100Z</when>
        <gx:coord>12.516075 50.98716 186.9729</gx:coord>
        <when>2026-01-01T00:05:35.1851100Z</when>
        <gx:coord>12.516075 50.98716 186.98457</gx:coord>
        <when>2026-01-01T00:05:40.1861100Z</when>
        <gx:coord>12.516074 50.98716 186.89087</gx:coord>
        <when>2026-01-01T00:05:45.1861100Z</when>
        <gx:coord>12.516074 50.98716 186.85976</gx:coord>
        <when>2026-01-01T00:05:50.1861100Z</when>
        <gx:coord>12.516072 50.98716 186.75363</gx:coord>
        <when>2026-01-01T00:05:55.1861100Z</when>
        <gx:coord>12.516072 50.98716 186.70981</gx:coord>
        <when>2026-01-01T00:06:00.1861100Z</when>
        <gx:coord>12.516072 50.98716 186.69493</gx:coord>
        <when>2026-01-01T00:06:05.1861100Z</when>
        <gx:coord>12.516071 50.98716 186.63538</gx:coord>
        <when>2026-01-01T00:06:10.1861100Z</when>
        <gx:coord>12.51607 50.98716 186.65034</gx:coord>
        <when>2026-01-01T00:06:15.1861100Z</when>
        <gx:coord>12.51607 50.98716 186.60709</gx:coord>
        <when>2026-01-01T00:06:20.1861100Z</when>
        <gx:coord>12.51607 50.98716 186.46732</gx:coord>
        <when>2026-01-01T00:06:25.1871100Z</when>
        <gx:coord>12.516071 50.98716 186.47472</gx:coord>
        <when>2026-01-01T00:06:30.1871100Z</when>
        <gx:coord>12.516071 50.98716 186.46968</gx:coord>
        <when>2026-01-01T00:06:35.1871100Z</when>
        <gx:coord>12.516072 50.987156 186.54453</gx:coord>
        <when>2026-01-01T00:06:40.1871100Z</when>
        <gx:coord>12.516072 50.987156 186.526</gx:coord>
        <when>2026-01-01T00:06:45.1871100Z</when>
        <gx:coord>12.516101 50.987183 186.65344</gx:coord>
        <when>2026-01-01T00:06:50.0841100Z</when>
        <gx:coord>12.5162115 50.987293 186.44115</gx:coord>
        <when>2026-01-01T00:06:50.1861100Z</when>
        <gx:coord>12.516255 50.98733 186.37253</gx:coord>
        <when>2026-01-01T00:06:55.1871100Z</when>
        <gx:coord>12.516512 50.98758 185.9799</gx:coord>
        <when>2026-01-01T00:07:00.1871100Z</when>
        <gx:coord>12.516814 50.987865 185.50354</gx:coord>
        <when>2026-01-01T00:07:05.1871100Z</when>
        <gx:coord>12.517115 50.98814 185.1673</gx:coord>
        <when>2026-01-01T00:07:10.1871100Z</when>
        <gx:coord>12.517334 50.98836 184.92506</gx:coord>
        <when>2026-01-01T00:07:12.0871100Z</when>
        <gx:coord>12.517366 50.9884 184.89609</gx:coord>
        <when>2026-01-01T00:07:14.0891100Z</when>
        <gx:coord>12.517406 50.98849 184.77625</gx:coord>
        <when>2026-01-01T00:07:15.1871100Z</when>
        <gx:coord>12.517409 50.98859 184.65465</gx:coord>
        <when>2026-01-01T00:07:16.0861100Z</when>
        <gx:coord>12.517409 50.98859 184.65465</gx:coord>
        <when>2026-01-01T00:07:18.0861100Z</when>
        <gx:coord>12.51737 50.9887 184.50026</gx:coord>
        <when>2026-01-01T00:07:20.1871100Z</when>
        <gx:coord>12.517271 50.98886 184.3984</gx:coord>
        <when>2026-01-01T00:07:25.1871100Z</when>
        <gx:coord>12.517142 50.989124 184.24245</gx:coord>
        <when>2026-01-01T00:07:30.1871100Z</when>
        <gx:coord>12.517014 50.98937 184.00877</gx:coord>
        <when>2026-01-01T00:07:33.0881100Z</when>
        <gx:coord>12.516955 50.989445 184.01547</gx:coord>
        <when>2026-01-01T00:07:34.0821100Z</when>
        <gx:coord>12.516912 50.989475 183.97011</gx:coord>
        <when>2026-01-01T00:07:35.0911100Z</when>
        <gx:coord>12.516856 50.9895 183.93735</gx:coord>
        <when>2026-01-01T00:07:35.1861100Z</when>
        <gx:coord>12.516794 50.989513 183.88252</gx:coord>
        <when>2026-01-01T00:07:37.0851100Z</when>
        <gx:coord>12.516725 50.98953 183.86142</gx:coord>
        <when>2026-01-01T00:07:38.0871100Z</when>
        <gx:coord>12.516649 50.989532 183.85567</gx:coord>
        <when>2026-01-01T00:07:39.0881100Z</when>
        <gx:coord>12.516573 50.98953 183.9174</gx:coord>
        <when>2026-01-01T00:07:40.0861100Z</when>
        <gx:coord>12.516498 50.989513 183.9407</gx:coord>
        <when>2026-01-01T00:07:40.1871100Z</when>
        <gx:coord>12.516425 50.98949 183.95758</gx:coord>
        <when>2026-01-01T00:07:41.0931100Z</when>
        <gx:coord>12.516425 50.98949 183.95758</gx:coord>
        <when>2026-01-01T00:07:43.0871100Z</when>
        <gx:coord>12.516287 50.989414 184.04314</gx:coord>
        <when>2026-01-01T00:07:45.0831100Z</when>
        <gx:coord>12.516125 50.989292 184.24083</gx:coord>
        <when>2026-01-01T00:07:45.1871100Z</when>
        <gx:coord>12.516026 50.989216 184.37804</gx:coord>
        <when>2026-01-01T00:07:47.0951100Z</when>
        <gx:coord>12.51591 50.98913 184.48973</gx:coord>
        <when>2026-01-01T00:07:49.0871100Z</when>
        <gx:coord>12.515639 50.988926 184.7507</gx:coord>
        <when>2026-01-01T00:07:50.1871100Z</when>
        <gx:coord>12.515326 50.988678 185.0436</gx:coord>
        <when>2026-01-01T00:07:54.0881100Z</when>
        <gx:coord>12.514767 50.98825 185.78215</gx:coord>
        <when>2026-01-01T00:07:55.1871100Z</when>
        <gx:coord>12.514342 50.987923 186.2547</gx:coord>
        <when>2026-01-01T00:08:00.1071100Z</when>
        <gx:coord>12.513375 50.98719 186.86166</gx:coord>
        <when>2026-01-01T00:08:00.1871100Z</when>
        <gx:coord>12.513116 50.986988 187.11577</gx:coord>
        <when>2026-01-01T00:08:05.1871100Z</when>
        <gx:coord>12.511733 50.985912 190.62936</gx:coord>
        <when>2026-01-01T00:08:10.1881100Z</when>
        <gx:coord>12.510261 50.98477 202.18268</gx:coord>
        <when>2026-01-01T00:08:15.1881100Z</when>
        <gx:coord>12.508871 50.98364 221.53561</gx:coord>
        <when>2026-01-01T00:08:17.0861100Z</when>
        <gx:coord>12.50832 50.983196 228.23354</gx:coord>
        <when>2026-01-01T00:08:20.1881100Z</when>
        <gx:coord>12.507489 50.982548 242.15799</gx:coord>
        <when>2026-01-01T00:08:25.1881100Z</when>
        <gx:coord>12.506121 50.981483 258.24344</gx:coord>
        <when>2026-01-01T00:08:26.0891100Z</when>
        <gx:coord>12.505849 50.981266 260.72986</gx:coord>
        <when>2026-01-01T00:08:30.1881100Z</when>
        <gx:coord>12.50478 50.98039 270.58746</gx:coord>
        <when>2026-01-01T00:08:35.1881100Z</when>
        <gx:coord>12.503481 50.979343 286.54138</gx:coord>
        <when>2026-01-01T00:08:37.0841100Z</when>
        <gx:coord>12.502966 50.97894 291.23557</gx:coord>
        <when>2026-01-01T00:08:40.1881100Z</when>
        <gx:coord>12.50222 50.978302 294.40308</gx:coord>
        <when>2026-01-01T00:08:45.1881100Z</when>
        <gx:coord>12.500901 50.977154 303.88397</gx:coord>
        <when>2026-01-01T00:08:50.1881100Z</when>
        <gx:coord>12.499575 50.97605 318.22122</gx:coord>
        <when>2026-01-01T00:08:52.0831100Z</when>
        <gx:coord>12.499071 50.97561 324.39</gx:coord>
        <when>2026-01-01T00:08:55.1891100Z</when>
        <gx:coord>12.498284 50.974953 330.12238</gx:coord>
        <when>2026-01-01T00:09:00.1881100Z</when>
        <gx:coord>12.496945 50.973846 344.53857</gx:coord>
        <when>2026-01-01T00:09:03.0991100Z</when>
        <gx:coord>12.496188 50.973198 357.05878</gx:coord>
        <when>2026-01-01T00:09:05.1881100Z</when>
        <gx:coord>12.495689 50.972782 363.71243</gx:coord>
        <when>2026-01-01T00:09:10.1881100Z</when>
        <gx:coord>12.494444 50.971764 378.21863</gx:coord>
        <when>2026-01-01T00:09:14.0861100Z</when>
        <gx:coord>12.493509 50.970943 390.4348</gx:coord>
        <when>2026-01-01T00:09:15.1871100Z</when>
        <gx:coord>12.493276 50.97074 392.77905</gx:coord>
        <when>2026-01-01T00:09:20.1881100Z</when>
        <gx:coord>12.492021 50.969776 402.33426</gx:coord>
        <when>2026-01-01T00:09:24.0901100Z</when>
        <gx:coord>12.490837 50.969116 406.66025</gx:coord>
        <when>2026-01-01T00:09:25.0881100Z</when>
        <gx:coord>12.490837 50.969116 408.47003</gx:coord>
        <when>2026-01-01T00:09:25.1881100Z</when>
        <gx:coord>12.490502 50.96898 411.6496</gx:coord>
        <when>2026-01-01T00:09:29.0861100Z</when>
        <gx:coord>12.48942 50.968624 415.53052</gx:coord>
        <when>2026-01-01T00:09:30.1881100Z</when>
        <gx:coord>12.488609 50.96847 417.03052</gx:coord>
        <when>2026-01-01T00:09:31.0871100Z</when>
        <gx:coord>12.488609 50.96847 417.03052</gx:coord>
        <when>2026-01-01T00:09:33.0851100Z</when>
        <gx:coord>12.4877205 50.968422 420.59116</gx:coord>
        <when>2026-01-01T00:09:33.0851100Z</when>
        <gx:coord>12.487258 50.96844 423.634</gx:coord>
        <when>2026-01-01T00:09:35.1881100Z</when>
        <gx:coord>12.486326 50.968544 428.4292</gx:coord>
        <when>2026-01-01T00:09:36.0861100Z</when>
        <gx:coord>12.486326 50.968544 428.4292</gx:coord>
        <when>2026-01-01T00:09:37.0861100Z</when>
        <gx:coord>12.485861 50.96863 432.1516</gx:coord>
        <when>2026-01-01T00:09:40.1881100Z</when>
        <gx:coord>12.484004 50.969112 438.73148</gx:coord>
        <when>2026-01-01T00:09:41.0841100Z</when>
        <gx:coord>12.484004 50.969112 438.73148</gx:coord>
        <when>2026-01-01T00:09:45.1871100Z</when>
        <gx:coord>12.481704 50.969982 445.1935</gx:coord>
        <when>2026-01-01T00:09:46.0871100Z</when>
        <gx:coord>12.481704 50.969982 445.1935</gx:coord>
        <when>2026-01-01T00:09:49.0891100Z</when>
        <gx:coord>12.480059 50.970913 454.9242</gx:coord>
        <when>2026-01-01T00:09:50.0831100Z</when>
        <gx:coord>12.480059 50.970913 454.9242</gx:coord>
        <when>2026-01-01T00:09:50.1881100Z</when>
        <gx:coord>12.479687 50.971176 458.2687</gx:coord>
        <when>2026-01-01T00:09:52.0821100Z</when>
        <gx:coord>12.479332 50.97145 461.77014</gx:coord>
        <when>2026-01-01T00:09:55.1891100Z</when>
        <gx:coord>12.478015 50.972645 468.4353</gx:coord>
        <when>2026-01-01T00:09:56.0871100Z</when>
        <gx:coord>12.478015 50.972645 468.4353</gx:coord>
        <when>2026-01-01T00:10:00.1891100Z</when>
        <gx:coord>12.476648 50.974358 476.0195</gx:coord>
        <when>2026-01-01T00:10:03.0861100Z</when>
        <gx:coord>12.475868 50.97541 485.50772</gx:coord>
        <when>2026-01-01T00:10:05.1891100Z</when>
        <gx:coord>12.475322 50.976093 490.94638</gx:coord>
        <when>2026-01-01T00:10:10.1891100Z</when>
        <gx:coord>12.473944 50.977783 507.78256</gx:coord>
        <when>2026-01-01T00:10:14.0831100Z</when>
        <gx:coord>12.472917 50.97917 518.1008</gx:coord>
        <when>2026-01-01T00:10:15.1891100Z</when>
        <gx:coord>12.472671 50.979523 520.78986</gx:coord>
        <when>2026-01-01T00:10:19.0881100Z</when>
        <gx:coord>12.471657 50.980904 531.4321</gx:coord>
        <when>2026-01-01T00:10:20.1891100Z</when>
        <gx:coord>12.471393 50.981236 540.7486</gx:coord>
        <when>2026-01-01T00:10:23.0861100Z</when>
        <gx:coord>12.4706 50.982216 551.926</gx:coord>
        <when>2026-01-01T00:10:25.1891100Z</when>
        <gx:coord>12.470104 50.98288 557.32184</gx:coord>
        <when>2026-01-01T00:10:30.1891100Z</when>
        <gx:coord>12.468978 50.98453 574.61487</gx:coord>
        <when>2026-01-01T00:10:34.0841100Z</when>
        <gx:coord>12.468064 50.985825 583.00073</gx:coord>
        <when>2026-01-01T00:10:35.1891100Z</when>
        <gx:coord>12.46783 50.986156 583.70776</gx:coord>
        <when>2026-01-01T00:10:38.0831100Z</when>
        <gx:coord>12.467388 50.98683 588.42944</gx:coord>
        <when>2026-01-01T00:10:40.1901100Z</when>
        <gx:coord>12.466813 50.987873 596.43994</gx:coord>
        <when>2026-01-01T00:10:45.1901100Z</when>
        <gx:coord>12.465962 50.989635 608.17523</gx:coord>
        <when>2026-01-01T00:10:48.0811100Z</when>
        <gx:coord>12.465494 50.990704 614.4973</gx:coord>
        <when>2026-01-01T00:10:50.1901100Z</when>
        <gx:coord>12.465171 50.991417 618.36816</gx:coord>
        <when>2026-01-01T00:10:55.1901100Z</when>
        <gx:coord>12.464226 50.993248 622.10077</gx:coord>
        <when>2026-01-01T00:10:57.0811100Z</when>
        <gx:coord>12.464014 50.99363 624.6146</gx:coord>
        <when>2026-01-01T00:11:00.1901100Z</when>
        <gx:coord>12.46314 50.995197 625.0496</gx:coord>
        <when>2026-01-01T00:11:04.0871100Z</when>
        <gx:coord>12.462241 50.996845 622.37616</gx:coord>
        <when>2026-01-01T00:11:05.1901100Z</when>
        <gx:coord>12.462011 50.99727 619.2129</gx:coord>
        <when>2026-01-01T00:11:07.0851100Z</when>
        <gx:coord>12.461782 50.997696 617.3922</gx:coord>
        <when>2026-01-01T00:11:10.1901100Z</when>
        <gx:coord>12.460834 50.999447 608.38354</gx:coord>
        <when>2026-01-01T00:11:15.1901100Z</when>
        <gx:coord>12.459568 51.00172 600.69635</gx:coord>
        <when>2026-01-01T00:11:20.1901100Z</when>
        <gx:coord>12.458154 51.004017 595.42535</gx:coord>
        <when>2026-01-01T00:11:22.0881100Z</when>
        <gx:coord>12.457852 51.00448 594.64996</gx:coord>
        <when>2026-01-01T00:11:25.1901100Z</when>
        <gx:coord>12.456633 51.006344 591.4948</gx:coord>
        <when>2026-01-01T00:11:30.1901100Z</when>
        <gx:coord>12.455135 51.008675 589.64246</gx:coord>
        <when>2026-01-01T00:11:35.1891100Z</when>
        <gx:coord>12.453808 51.010975 594.6183</gx:coord>
        <when>2026-01-01T00:11:39.0891100Z</when>
        <gx:coord>12.452884 51.01277 601.0263</gx:coord>
        <when>2026-01-01T00:11:40.1901100Z</when>
        <gx:coord>12.452674 51.01322 604.08997</gx:coord>
        <when>2026-01-01T00:11:45.1901100Z</when>
        <gx:coord>12.4516945 51.015488 620.29895</gx:coord>
        <when>2026-01-01T00:11:50.1891100Z</when>
        <gx:coord>12.450866 51.01772 634.16724</gx:coord>
        <when>2026-01-01T00:11:51.0841100Z</when>
        <gx:coord>12.450866 51.01772 634.16724</gx:coord>
        <when>2026-01-01T00:11:55.1901100Z</when>
        <gx:coord>12.450334 51.019978 642.79486</gx:coord>
        <when>2026-01-01T00:11:56.0871100Z</when>
        <gx:coord>12.450334 51.019978 642.79486</gx:coord>
        <when>2026-01-01T00:11:56.0871100Z</when>
        <gx:coord>12.450223 51.020424 645.8383</gx:coord>
        <when>2026-01-01T00:12:00.1901100Z</when>
        <gx:coord>12.449701 51.02218 651.96295</gx:coord>
        <when>2026-01-01T00:12:05.1901100Z</when>
        <gx:coord>12.44889 51.024326 653.8366</gx:coord>
        <when>2026-01-01T00:12:08.0951100Z</when>
        <gx:coord>12.448433 51.025146 657.1929</gx:coord>
        <when>2026-01-01T00:12:10.1911100Z</when>
        <gx:coord>12.447632 51.02633 659.56226</gx:coord>
        <when>2026-01-01T00:12:15.1911100Z</when>
        <gx:coord>12.446289 51.02829 664.4793</gx:coord>
        <when>2026-01-01T00:12:17.0891100Z</when>
        <gx:coord>12.445827 51.029087 666.089</gx:coord>
        <when>2026-01-01T00:12:20.1911100Z</when>
        <gx:coord>12.445197 51.03028 673.81415</gx:coord>
        <when>2026-01-01T00:12:22.0871100Z</when>
        <gx:coord>12.444822 51.031067 678.3404</gx:coord>
        <when>2026-01-01T00:12:25.1911100Z</when>
        <gx:coord>12.444272 51.032238 681.1472</gx:coord>
        <when>2026-01-01T00:12:27.0831100Z</when>
        <gx:coord>12.444076 51.032623 681.80493</gx:coord>
        <when>2026-01-01T00:12:30.1911100Z</when>
        <gx:coord>12.443139 51.03411 685.3778</gx:coord>
        <when>2026-01-01T00:12:35.1911100Z</when>
        <gx:coord>12.441777 51.03592 683.04065</gx:coord>
        <when>2026-01-01T00:12:40.1911100Z</when>
        <gx:coord>12.440447 51.037823 680.99286</gx:coord>
        <when>2026-01-01T00:12:45.1911100Z</when>
        <gx:coord>12.439086 51.03971 677.08246</gx:coord>
        <when>2026-01-01T00:12:50.1911100Z</when>
        <gx:coord>12.437589 51.041653 672.497</gx:coord>
        <when>2026-01-01T00:12:55.1911100Z</when>
        <gx:coord>12.43602 51.043655 667.9218</gx:coord>
        <when>2026-01-01T00:12:56.0871100Z</when>
        <gx:coord>12.43602 51.043655 667.9218</gx:coord>
        <when>2026-01-01T00:12:57.0911100Z</when>
        <gx:coord>12.435377 51.044464 666.3257</gx:coord>
        <when>2026-01-01T00:13:00.1921100Z</when>
        <gx:coord>12.434526 51.045734 662.4364</gx:coord>
        <when>2026-01-01T00:13:04.0871100Z</when>
        <gx:coord>12.43393 51.0471 659.5487</gx:coord>
        <when>2026-01-01T00:13:05.1981100Z</when>
        <gx:coord>12.433723 51.048065 660.3595</gx:coord>
        <when>2026-01-01T00:13:10.1921100Z</when>
        <gx:coord>12.433506 51.0505 664.84106</gx:coord>
        <when>2026-01-01T00:13:15.1921100Z</when>
        <gx:coord>12.433376 51.052914 668.43115</gx:coord>
        <when>2026-01-01T00:13:20.1911100Z</when>
        <gx:coord>12.433209 51.055317 678.22736</gx:coord>
        <when>2026-01-01T00:13:25.1921100Z</when>
        <gx:coord>12.433082 51.057705 679.8261</gx:coord>
        <when>2026-01-01T00:13:30.1921100Z</when>
        <gx:coord>12.432825 51.060078 678.2596</gx:coord>
        <when>2026-01-01T00:13:32.0951100Z</when>
        <gx:coord>12.432721 51.061024 678.3775</gx:coord>
        <when>2026-01-01T00:13:35.1921100Z</when>
        <gx:coord>12.432518 51.062435 675.0085</gx:coord>
        <when>2026-01-01T00:13:40.1921100Z</when>
        <gx:coord>12.431975 51.06477 664.59894</gx:coord>
        <when>2026-01-01T00:13:45.1921100Z</when>
        <gx:coord>12.43115 51.06707 664.04224</gx:coord>
        <when>2026-01-01T00:13:50.1921100Z</when>
        <gx:coord>12.430146 51.06931 665.2222</gx:coord>
        <when>2026-01-01T00:13:55.1921100Z</when>
        <gx:coord>12.429032 51.07148 670.5753</gx:coord>
        <when>2026-01-01T00:14:00.1921100Z</when>
        <gx:coord>12.427861 51.07361 667.5998</gx:coord>
        <when>2026-01-01T00:14:02.0851100Z</when>
        <gx:coord>12.427614 51.07403 665.3388</gx:coord>
        <when>2026-01-01T00:14:05.1921100Z</when>
        <gx:coord>12.426573 51.07574 661.6881</gx:coord>
        <when>2026-01-01T00:14:09.0881100Z</when>
        <gx:coord>12.425514 51.077473 660.81824</gx:coord>
        <when>2026-01-01T00:14:10.1921100Z</when>
        <gx:coord>12.425246 51.077904 659.8154</gx:coord>
        <when>2026-01-01T00:14:15.1931100Z</when>
        <gx:coord>12.423884 51.080074 658.0845</gx:coord>
        <when>2026-01-01T00:14:20.1931100Z</when>
        <gx:coord>12.422492 51.08227 663.0235</gx:coord>
        <when>2026-01-01T00:14:25.1931100Z</when>
        <gx:coord>12.421076 51.08448 661.2722</gx:coord>
        <when>2026-01-01T00:14:30.1931100Z</when>
        <gx:coord>12.419574 51.086716 660.7957</gx:coord>
        <when>2026-01-01T00:14:35.1931100Z</when>
        <gx:coord>12.418016 51.08897 660.81647</gx:coord>
        <when>2026-01-01T00:14:40.2451100Z</when>
        <gx:coord>12.416347 51.091213 664.4959</gx:coord>
        <when>2026-01-01T00:14:41.0831100Z</when>
        <gx:coord>12.416347 51.091213 664.4959</gx:coord>
        <when>2026-01-01T00:14:44.0911100Z</when>
        <gx:coord>12.414991 51.093002 669.6234</gx:coord>
        <when>2026-01-01T00:14:45.1931100Z</when>
        <gx:coord>12.414663 51.09345 671.86255</gx:coord>
        <when>2026-01-01T00:14:50.1931100Z</when>
        <gx:coord>12.413055 51.09569 669.56824</gx:coord>
        <when>2026-01-01T00:14:55.1931100Z</when>
        <gx:coord>12.411579 51.098026 664.4961</gx:coord>
        <when>2026-01-01T00:15:00.1941100Z</when>
        <gx:coord>12.410007 51.100376 654.268</gx:coord>
        <when>2026-01-01T00:15:05.1941100Z</when>
        <gx:coord>12.408299 51.102688 649.92914</gx:coord>
        <when>2026-01-01T00:15:10.1941100Z</when>
        <gx:coord>12.406421 51.104977 653.56354</gx:coord>
        <when>2026-01-01T00:15:15.1941100Z</when>
        <gx:coord>12.404644 51.107265 661.9491</gx:coord>
        <when>2026-01-01T00:15:17.0921100Z</when>
        <gx:coord>12.403943 51.10818 663.2077</gx:coord>
        <when>2026-01-01T00:15:20.1941100Z</when>
        <gx:coord>12.402819 51.10954 666.2668</gx:coord>
        <when>2026-01-01T00:15:25.1941100Z</when>
        <gx:coord>12.400841 51.111782 661.22253</gx:coord>
        <when>2026-01-01T00:15:30.0881100Z</when>
        <gx:coord>12.39883 51.11404 647.44025</gx:coord>
        <when>2026-01-01T00:15:30.1941100Z</when>
        <gx:coord>12.39883 51.11404 647.44025</gx:coord>
        <when>2026-01-01T00:15:35.1941100Z</when>
        <gx:coord>12.396818 51.116287 638.6783</gx:coord>
        <when>2026-01-01T00:15:37.0871100Z</when>
        <gx:coord>12.39641 51.116726 639.0558</gx:coord>
        <when>2026-01-01T00:15:40.1941100Z</when>
        <gx:coord>12.394754 51.118423 641.43164</gx:coord>
        <when>2026-01-01T00:15:45.1931100Z</when>
        <gx:coord>12.392705 51.12049 648.2667</gx:coord>
        <when>2026-01-01T00:15:50.1941100Z</when>
        <gx:coord>12.390826 51.122578 648.881</gx:coord>
        <when>2026-01-01T00:15:51.0921100Z</when>
        <gx:coord>12.390461 51.122993 648.881</gx:coord>
        <when>2026-01-01T00:15:55.1941100Z</when>
        <gx:coord>12.388994 51.124653 649.9497</gx:coord>
        <when>2026-01-01T00:16:00.1941100Z</when>
        <gx:coord>12.387033 51.12671 656.25085</gx:coord>
        <when>2026-01-01T00:16:05.1941100Z</when>
        <gx:coord>12.384991 51.1288 659.0486</gx:coord>
        <when>2026-01-01T00:16:10.1941100Z</when>
        <gx:coord>12.382908 51.13092 664.67773</gx:coord>
        <when>2026-01-01T00:16:15.1951100Z</when>
        <gx:coord>12.380901 51.133053 672.0096</gx:coord>
        <when>2026-01-01T00:16:20.1941100Z</when>
        <gx:coord>12.378871 51.135242 659.5157</gx:coord>
        <when>2026-01-01T00:16:25.0921100Z</when>
        <gx:coord>12.376679 51.137463 656.817</gx:coord>
        <when>2026-01-01T00:16:25.1941100Z</when>
        <gx:coord>12.376679 51.137463 655.6378</gx:coord>
        <when>2026-01-01T00:16:30.1951100Z</when>
        <gx:coord>12.374534 51.139706 647.52997</gx:coord>
        <when>2026-01-01T00:16:35.1951100Z</when>
        <gx:coord>12.372418 51.14196 643.98334</gx:coord>
        <when>2026-01-01T00:16:40.1951100Z</when>
        <gx:coord>12.370378 51.144215 640.9959</gx:coord>
        <when>2026-01-01T00:16:45.2061100Z</when>
        <gx:coord>12.368482 51.14649 634.5615</gx:coord>
        <when>2026-01-01T00:16:50.1951100Z</when>
        <gx:coord>12.3665905 51.148735 626.76794</gx:coord>
        <when>2026-01-01T00:16:55.1951100Z</when>
        <gx:coord>12.364617 51.150913 621.64886</gx:coord>
        <when>2026-01-01T00:16:58.0961100Z</when>
        <gx:coord>12.363493 51.152218 622.2236</gx:coord>
        <when>2026-01-01T00:17:00.1951100Z</when>
        <gx:coord>12.362837 51.15312 621.64594</gx:coord>
        <when>2026-01-01T00:17:02.0901100Z</when>
        <gx:coord>12.362543 51.153584 620.5699</gx:coord>
        <when>2026-01-01T00:17:05.0891100Z</when>
        <gx:coord>12.361578 51.15549 616.1884</gx:coord>
        <when>2026-01-01T00:17:05.1951100Z</when>
        <gx:coord>12.361578 51.15549 616.1884</gx:coord>
        <when>2026-01-01T00:17:10.1951100Z</when>
        <gx:coord>12.360643 51.157925 605.6053</gx:coord>
        <when>2026-01-01T00:17:15.1961100Z</when>
        <gx:coord>12.35972 51.16035 604.99054</gx:coord>
        <when>2026-01-01T00:17:20.1961100Z</when>
        <gx:coord>12.358698 51.162716 611.83167</gx:coord>
        <when>2026-01-01T00:17:25.1961100Z</when>
        <gx:coord>12.357684 51.165077 612.76245</gx:coord>
        <when>2026-01-01T00:17:30.1961100Z</when>
        <gx:coord>12.3567 51.167393 613.51526</gx:coord>
        <when>2026-01-01T00:17:32.0931100Z</when>
        <gx:coord>12.356356 51.168312 615.08215</gx:coord>
        <when>2026-01-01T00:17:35.2051100Z</when>
        <gx:coord>12.355892 51.169674 618.5891</gx:coord>
        <when>2026-01-01T00:17:40.1961100Z</when>
        <gx:coord>12.355196 51.17193 619.9111</gx:coord>
        <when>2026-01-01T00:17:45.1961100Z</when>
        <gx:coord>12.354469 51.174175 615.7654</gx:coord>
        <when>2026-01-01T00:17:50.1961100Z</when>
        <gx:coord>12.353681 51.176395 611.78455</gx:coord>
        <when>2026-01-01T00:17:55.1961100Z</when>
        <gx:coord>12.352896 51.178635 613.086</gx:coord>
        <when>2026-01-01T00:17:58.0861100Z</when>
        <gx:coord>12.352616 51.17955 612.2499</gx:coord>
        <when>2026-01-01T00:18:00.1961100Z</when>
        <gx:coord>12.352258 51.180943 608.6861</gx:coord>
        <when>2026-01-01T00:18:05.1961100Z</when>
        <gx:coord>12.351725 51.183292 621.2184</gx:coord>
        <when>2026-01-01T00:18:08.0971100Z</when>
        <gx:coord>12.351397 51.1847 624.4213</gx:coord>
        <when>2026-01-01T00:18:10.1961100Z</when>
        <gx:coord>12.351159 51.18563 627.60724</gx:coord>
        <when>2026-01-01T00:18:15.1961100Z</when>
        <gx:coord>12.350624 51.18795 630.1716</gx:coord>
        <when>2026-01-01T00:18:20.1961100Z</when>
        <gx:coord>12.350188 51.190247 629.9689</gx:coord>
        <when>2026-01-01T00:18:25.1961100Z</when>
        <gx:coord>12.349607 51.19254 638.1704</gx:coord>
        <when>2026-01-01T00:18:30.1961100Z</when>
        <gx:coord>12.348917 51.194775 645.5843</gx:coord>
        <when>2026-01-01T00:18:31.0901100Z</when>
        <gx:coord>12.3487625 51.195217 647.768</gx:coord>
        <when>2026-01-01T00:18:34.0911100Z</when>
        <gx:coord>12.348456 51.196102 650.0356</gx:coord>
        <when>2026-01-01T00:18:35.1961100Z</when>
        <gx:coord>12.348126 51.196976 653.6446</gx:coord>
        <when>2026-01-01T00:18:40.1961100Z</when>
        <gx:coord>12.347268 51.199135 659.77386</gx:coord>
        <when>2026-01-01T00:18:45.0941100Z</when>
        <gx:coord>12.34653 51.201374 655.163</gx:coord>
        <when>2026-01-01T00:18:45.1971100Z</when>
        <gx:coord>12.34653 51.201374 654.32733</gx:coord>
        <when>2026-01-01T00:18:50.1971100Z</when>
        <gx:coord>12.346084 51.20371 651.24805</gx:coord>
        <when>2026-01-01T00:18:55.1971100Z</when>
        <gx:coord>12.345755 51.206097 648.16876</gx:coord>
        <when>2026-01-01T00:19:00.1971100Z</when>
        <gx:coord>12.345458 51.2085 641.6078</gx:coord>
        <when>2026-01-01T00:19:05.0871100Z</when>
        <gx:coord>12.34519 51.210453 630.56854</gx:coord>
        <when>2026-01-01T00:19:05.1971100Z</when>
        <gx:coord>12.3451395 51.210953 629.13654</gx:coord>
        <when>2026-01-01T00:19:10.1971100Z</when>
        <gx:coord>12.344894 51.213474 630.9868</gx:coord>
        <when>2026-01-01T00:19:15.1971100Z</when>
        <gx:coord>12.344629 51.216026 624.9655</gx:coord>
        <when>2026-01-01T00:19:19.0961100Z</when>
        <gx:coord>12.344473 51.218105 622.1494</gx:coord>
        <when>2026-01-01T00:19:20.1971100Z</when>
        <gx:coord>12.344429 51.21862 624.25714</gx:coord>
        <when>2026-01-01T00:19:25.1971100Z</when>
        <gx:coord>12.344237 51.22113 628.3751</gx:coord>
        <when>2026-01-01T00:19:30.1961100Z</when>
        <gx:coord>12.344108 51.22363 621.04297</gx:coord>
        <when>2026-01-01T00:19:35.1971100Z</when>
        <gx:coord>12.344038 51.226112 617.3923</gx:coord>
        <when>2026-01-01T00:19:36.0911100Z</when>
        <gx:coord>12.344024 51.22661 616.0232</gx:coord>
        <when>2026-01-01T00:19:40.1971100Z</when>
        <gx:coord>12.343952 51.228584 616.2431</gx:coord>
        <when>2026-01-01T00:19:45.1971100Z</when>
        <gx:coord>12.343869 51.231014 639.03345</gx:coord>
        <when>2026-01-01T00:19:47.0901100Z</when>
        <gx:coord>12.343832 51.231956 646.60236</gx:coord>
        <when>2026-01-01T00:19:50.1971100Z</when>
        <gx:coord>12.343706 51.23335 650.55914</gx:coord>
        <when>2026-01-01T00:19:53.0951100Z</when>
        <gx:coord>12.343534 51.234753 649.9729</gx:coord>
        <when>2026-01-01T00:19:55.1981100Z</when>
        <gx:coord>12.343377 51.235695 647.4443</gx:coord>
        <when>2026-01-01T00:20:00.1981100Z</when>
        <gx:coord>12.342918 51.23806 644.3881</gx:coord>
        <when>2026-01-01T00:20:05.1981100Z</when>
        <gx:coord>12.342516 51.24045 638.4451</gx:coord>
        <when>2026-01-01T00:20:10.1981100Z</when>
        <gx:coord>12.342261 51.242863 635.99603</gx:coord>
        <when>2026-01-01T00:20:15.1971100Z</when>
        <gx:coord>12.342098 51.24526 631.8218</gx:coord>
        <when>2026-01-01T00:20:20.1981100Z</when>
        <gx:coord>12.341929 51.24766 626.39355</gx:coord>
        <when>2026-01-01T00:20:25.1981100Z</when>
        <gx:coord>12.341761 51.250095 628.8677</gx:coord>
        <when>2026-01-01T00:20:28.0961100Z</when>
        <gx:coord>12.34169 51.25157 630.0952</gx:coord>
        <when>2026-01-01T00:20:30.1981100Z</when>
        <gx:coord>12.341673 51.252563 628.0761</gx:coord>
        <when>2026-01-01T00:20:35.0901100Z</when>
        <gx:coord>12.341623 51.25507 614.8805</gx:coord>
        <when>2026-01-01T00:20:35.1971100Z</when>
        <gx:coord>12.341623 51.25507 614.8805</gx:coord>
        <when>2026-01-01T00:20:40.1981100Z</when>
        <gx:coord>12.341506 51.257595 606.1915</gx:coord>
        <when>2026-01-01T00:20:45.1971100Z</when>
        <gx:coord>12.341419 51.26012 602.4065</gx:coord>
        <when>2026-01-01T00:20:47.0911100Z</when>
        <gx:coord>12.341419 51.260624 602.95026</gx:coord>
        <when>2026-01-01T00:20:50.1981100Z</when>
        <gx:coord>12.3415 51.262627 603.7331</gx:coord>
        <when>2026-01-01T00:20:55.1981100Z</when>
        <gx:coord>12.341596 51.26513 603.89905</gx:coord>
        <when>2026-01-01T00:21:00.1981100Z</when>
        <gx:coord>12.341668 51.267635 605.0644</gx:coord>
        <when>2026-01-01T00:21:02.0941100Z</when>
        <gx:coord>12.341667 51.268135 606.30536</gx:coord>
        <when>2026-01-01T00:21:02.1011100Z</when>
        <gx:coord>12.34166 51.26863 606.30536</gx:coord>
        <when>2026-01-01T00:21:05.1981100Z</when>
        <gx:coord>12.341617 51.270103 610.68066</gx:coord>
        <when>2026-01-01T00:21:10.0871100Z</when>
        <gx:coord>12.341585 51.27204 613.83234</gx:coord>
        <when>2026-01-01T00:21:10.1981100Z</when>
        <gx:coord>12.34159 51.27252 615.2538</gx:coord>
        <when>2026-01-01T00:21:15.1981100Z</when>
        <gx:coord>12.341628 51.27489 619.9549</gx:coord>
        <when>2026-01-01T00:21:20.1981100Z</when>
        <gx:coord>12.341762 51.277233 627.47485</gx:coord>
        <when>2026-01-01T00:21:25.1981100Z</when>
        <gx:coord>12.341943 51.279556 630.33246</gx:coord>
        <when>2026-01-01T00:21:30.1981100Z</when>
        <gx:coord>12.342209 51.2819 627.4268</gx:coord>
        <when>2026-01-01T00:21:35.1981100Z</when>
        <gx:coord>12.34245 51.284267 627.92914</gx:coord>
        <when>2026-01-01T00:21:38.0961100Z</when>
        <gx:coord>12.342597 51.285698 629.58606</gx:coord>
        <when>2026-01-01T00:21:40.1991100Z</when>
        <gx:coord>12.342699 51.28665 631.4056</gx:coord>
        <when>2026-01-01T00:21:45.1991100Z</when>
        <gx:coord>12.342937 51.289024 636.88745</gx:coord>
        <when>2026-01-01T00:21:50.1991100Z</when>
        <gx:coord>12.3431 51.29137 642.9966</gx:coord>
        <when>2026-01-01T00:21:51.0911100Z</when>
        <gx:coord>12.3431 51.29137 642.9966</gx:coord>
        <when>2026-01-01T00:21:54.0881100Z</when>
        <gx:coord>12.342976 51.293327 646.7394</gx:coord>
        <when>2026-01-01T00:21:55.1991100Z</when>
        <gx:coord>12.342932 51.29383 647.79443</gx:coord>
        <when>2026-01-01T00:22:00.1991100Z</when>
        <gx:coord>12.3427515 51.2964 646.01215</gx:coord>
        <when>2026-01-01T00:22:05.1991100Z</when>
        <gx:coord>12.342677 51.298985 646.4171</gx:coord>
        <when>2026-01-01T00:22:10.1991100Z</when>
        <gx:coord>12.342459 51.30157 640.965</gx:coord>
        <when>2026-01-01T00:22:12.0991100Z</when>
        <gx:coord>12.342313 51.302605 640.7948</gx:coord>
        <when>2026-01-01T00:22:15.1991100Z</when>
        <gx:coord>12.341971 51.304127 639.61536</gx:coord>
        <when>2026-01-01T00:22:20.1991100Z</when>
        <gx:coord>12.341303 51.306618 636.39526</gx:coord>
        <when>2026-01-01T00:22:25.1991100Z</when>
        <gx:coord>12.340782 51.309116 628.98065</gx:coord>
        <when>2026-01-01T00:22:28.0881100Z</when>
        <gx:coord>12.340717 51.31014 627.90936</gx:coord>
        <when>2026-01-01T00:22:30.1991100Z</when>
        <gx:coord>12.340966 51.311684 628.8069</gx:coord>
        <when>2026-01-01T00:22:31.0861100Z</when>
        <gx:coord>12.340966 51.311684 628.8069</gx:coord>
        <when>2026-01-01T00:22:34.0931100Z</when>
        <gx:coord>12.341742 51.313183 628.9289</gx:coord>
        <when>2026-01-01T00:22:35.1991100Z</when>
        <gx:coord>12.342526 51.31412 625.11804</gx:coord>
        <when>2026-01-01T00:22:37.0891100Z</when>
        <gx:coord>12.342995 51.314568 621.99854</gx:coord>
        <when>2026-01-01T00:22:39.0871100Z</when>
        <gx:coord>12.3446455 51.315807 614.1695</gx:coord>
        <when>2026-01-01T00:22:40.1991100Z</when>
        <gx:coord>12.345252 51.316185 610.7752</gx:coord>
        <when>2026-01-01T00:22:41.0861100Z</when>
        <gx:coord>12.345252 51.316185 610.7752</gx:coord>
        <when>2026-01-01T00:22:46.0901100Z</when>
        <gx:coord>12.348672 51.317818 599.8977</gx:coord>
        <when>2026-01-01T00:22:48.0881100Z</when>
        <gx:coord>12.350909 51.318596 597.999</gx:coord>
        <when>2026-01-01T00:22:52.0831100Z</when>
        <gx:coord>12.353236 51.319214 597.71796</gx:coord>
        <when>2026-01-01T00:23:20.6811100Z</when>
        <gx:coord>12.376157 51.323788 612.1146</gx:coord>
        <when>2026-01-01T00:23:21.0871100Z</when>
        <gx:coord>12.376938 51.32395 612.1146</gx:coord>
        <when>2026-01-01T00:23:25.6821100Z</when>
        <gx:coord>12.380025 51.32458 620.0741</gx:coord>
        <when>2026-01-01T00:23:30.6821100Z</when>
        <gx:coord>12.383893 51.325367 613.5352</gx:coord>
        <when>2026-01-01T00:23:35.0861100Z</when>
        <gx:coord>12.386855 51.326187 621.59937</gx:coord>
        <when>2026-01-01T00:23:38.0981100Z</when>
        <gx:coord>12.388755 51.327053 634.09985</gx:coord>
        <when>2026-01-01T00:23:41.0841100Z</when>
        <gx:coord>12.390359 51.32809 635.75604</gx:coord>
        <when>2026-01-01T00:23:44.0811100Z</when>
        <gx:coord>12.391617 51.329315 633.4402</gx:coord>
        <when>2026-01-01T00:23:47.0901100Z</when>
        <gx:coord>12.392485 51.33067 630.0796</gx:coord>
        <when>2026-01-01T00:23:51.0861100Z</when>
        <gx:coord>12.393034 51.33258 627.2979</gx:coord>
        <when>2026-01-01T00:23:52.0991100Z</when>
        <gx:coord>12.393063 51.33306 626.97266</gx:coord>
        <when>2026-01-01T00:23:56.0901100Z</when>
        <gx:coord>12.392778 51.334965 625.1933</gx:coord>
        <when>2026-01-01T00:23:59.2341100Z</when>
        <gx:coord>12.39206 51.336815 619.62354</gx:coord>
        <when>2026-01-01T00:24:02.1021100Z</when>
        <gx:coord>12.391306 51.33817 615.0712</gx:coord>
        <when>2026-01-01T00:24:03.0951100Z</when>
        <gx:coord>12.391306 51.33817 612.9055</gx:coord>
        <when>2026-01-01T00:24:06.0951100Z</when>
        <gx:coord>12.390267 51.33944 611.6524</gx:coord>
        <when>2026-01-01T00:24:08.0891100Z</when>
        <gx:coord>12.389379 51.340176 617.10284</gx:coord>
        <when>2026-01-01T00:24:09.0821100Z</when>
        <gx:coord>12.38888 51.34049 620.74347</gx:coord>
        <when>2026-01-01T00:24:12.0961100Z</when>
        <gx:coord>12.387227 51.341244 625.6104</gx:coord>
        <when>2026-01-01T00:24:14.0851100Z</when>
        <gx:coord>12.386012 51.34158 623.39856</gx:coord>
        <when>2026-01-01T00:24:15.0501100Z</when>
        <gx:coord>12.385376 51.34169 621.6985</gx:coord>
        <when>2026-01-01T00:24:16.0891100Z</when>
        <gx:coord>12.38472 51.341755 621.2141</gx:coord>
        <when>2026-01-01T00:24:19.0951100Z</when>
        <gx:coord>12.382776 51.341797 619.71234</gx:coord>
        <when>2026-01-01T00:24:20.0511100Z</when>
        <gx:coord>12.382126 51.341766 619.8533</gx:coord>
        <when>2026-01-01T00:24:25.0511100Z</when>
        <gx:coord>12.378936 51.341442 615.6734</gx:coord>
        <when>2026-01-01T00:24:30.0511100Z</when>
        <gx:coord>12.375682 51.340992 612.62335</gx:coord>
        <when>2026-01-01T00:24:31.0971100Z</when>
        <gx:coord>12.375019 51.340893 612.3618</gx:coord>
        <when>2026-01-01T00:24:35.0511100Z</when>
        <gx:coord>12.372363 51.34049 609.5855</gx:coord>
        <when>2026-01-01T00:24:40.0511100Z</when>
        <gx:coord>12.368988 51.340115 612.5548</gx:coord>
        <when>2026-01-01T00:24:45.0511100Z</when>
        <gx:coord>12.36564 51.33988 615.1679</gx:coord>
        <when>2026-01-01T00:24:46.0961100Z</when>
        <gx:coord>12.364293 51.339817 616.2444</gx:coord>
        <when>2026-01-01T00:24:47.0981100Z</when>
        <gx:coord>12.364293 51.339817 615.7924</gx:coord>
        <when>2026-01-01T00:24:50.0521100Z</when>
        <gx:coord>12.3622675 51.33977 615.2829</gx:coord>
        <when>2026-01-01T00:24:55.0511100Z</when>
        <gx:coord>12.358883 51.339764 615.9127</gx:coord>
        <when>2026-01-01T00:25:00.0511100Z</when>
        <gx:coord>12.35547 51.339836 622.1683</gx:coord>
        <when>2026-01-01T00:25:05.0521100Z</when>
        <gx:coord>12.352035 51.33994 622.6029</gx:coord>
        <when>2026-01-01T00:25:10.0521100Z</when>
        <gx:coord>12.348621 51.340115 630.3597</gx:coord>
        <when>2026-01-01T00:25:10.0831100Z</when>
        <gx:coord>12.348621 51.340115 630.3597</gx:coord>
        <when>2026-01-01T00:25:14.0801100Z</when>
        <gx:coord>12.346003 51.340477 640.91785</gx:coord>
        <when>2026-01-01T00:25:15.0811100Z</when>
        <gx:coord>12.345393 51.34064 644.46515</gx:coord>
        <when>2026-01-01T00:25:15.0831100Z</when>
        <gx:coord>12.3448105 51.340843 648.37054</gx:coord>
        <when>2026-01-01T00:25:17.0861100Z</when>
        <gx:coord>12.3442545 51.341072 652.7432</gx:coord>
        <when>2026-01-01T00:25:20.0521100Z</when>
        <gx:coord>12.342776 51.341904 662.31714</gx:coord>
        <when>2026-01-01T00:25:20.0821100Z</when>
        <gx:coord>12.342776 51.341904 662.31714</gx:coord>
        <when>2026-01-01T00:25:25.0521100Z</when>
        <gx:coord>12.340652 51.343582 650.23865</gx:coord>
        <when>2026-01-01T00:25:28.0901100Z</when>
        <gx:coord>12.338766 51.34493 642.4882</gx:coord>
        <when>2026-01-01T00:25:30.0521100Z</when>
        <gx:coord>12.338278 51.34527 636.4896</gx:coord>
        <when>2026-01-01T00:25:35.0521100Z</when>
        <gx:coord>12.335749 51.346973 626.5376</gx:coord>
        <when>2026-01-01T00:25:40.0531100Z</when>
        <gx:coord>12.333197 51.34871 626.69464</gx:coord>
        <when>2026-01-01T00:25:45.0521100Z</when>
        <gx:coord>12.330593 51.350437 622.1394</gx:coord>
        <when>2026-01-01T00:25:50.0531100Z</when>
        <gx:coord>12.327822 51.351967 620.7947</gx:coord>
        <when>2026-01-01T00:25:55.0521100Z</when>
        <gx:coord>12.325067 51.353497 620.5329</gx:coord>
        <when>2026-01-01T00:26:00.0531100Z</when>
        <gx:coord>12.322396 51.35511 625.53534</gx:coord>
        <when>2026-01-01T00:26:04.0891100Z</when>
        <gx:coord>12.31975 51.35667 626.98126</gx:coord>
        <when>2026-01-01T00:26:05.0521100Z</when>
        <gx:coord>12.31975 51.35667 627.88654</gx:coord>
        <when>2026-01-01T00:26:10.0531100Z</when>
        <gx:coord>12.317266 51.35829 633.2486</gx:coord>
        <when>2026-01-01T00:26:15.1061100Z</when>
        <gx:coord>12.314897 51.359978 631.4066</gx:coord>
        <when>2026-01-01T00:26:20.0531100Z</when>
        <gx:coord>12.312551 51.36174 628.7335</gx:coord>
        <when>2026-01-01T00:26:25.0531100Z</when>
        <gx:coord>12.310206 51.36355 626.46893</gx:coord>
        <when>2026-01-01T00:26:30.0531100Z</when>
        <gx:coord>12.307933 51.36534 622.6574</gx:coord>
        <when>2026-01-01T00:26:35.0531100Z</when>
        <gx:coord>12.305717 51.36712 620.0162</gx:coord>
        <when>2026-01-01T00:26:37.0821100Z</when>
        <gx:coord>12.304417 51.36818 617.3168</gx:coord>
        <when>2026-01-01T00:26:40.0531100Z</when>
        <gx:coord>12.303537 51.36888 615.84534</gx:coord>
        <when>2026-01-01T00:26:41.0881100Z</when>
        <gx:coord>12.302657 51.36957 616.1092</gx:coord>
        <when>2026-01-01T00:26:45.0531100Z</when>
        <gx:coord>12.301362 51.370594 619.0701</gx:coord>
        <when>2026-01-01T00:26:50.0541100Z</when>
        <gx:coord>12.299192 51.372272 617.7546</gx:coord>
        <when>2026-01-01T00:26:55.0531100Z</when>
        <gx:coord>12.296918 51.373863 624.4819</gx:coord>
        <when>2026-01-01T00:27:00.0541100Z</when>
        <gx:coord>12.294559 51.375423 628.80096</gx:coord>
        <when>2026-01-01T00:27:05.0541100Z</when>
        <gx:coord>12.292163 51.37697 632.0472</gx:coord>
        <when>2026-01-01T00:27:10.0541100Z</when>
        <gx:coord>12.289804 51.378555 637.4809</gx:coord>
        <when>2026-01-01T00:27:14.0851100Z</when>
        <gx:coord>12.28755 51.380196 648.5198</gx:coord>
        <when>2026-01-01T00:27:15.0871100Z</when>
        <gx:coord>12.28755 51.380196 648.5198</gx:coord>
        <when>2026-01-01T00:27:20.0541100Z</when>
        <gx:coord>12.285291 51.381798 657.7598</gx:coord>
        <when>2026-01-01T00:27:20.0881100Z</when>
        <gx:coord>12.284832 51.382114 657.7598</gx:coord>
        <when>2026-01-01T00:27:25.0721100Z</when>
        <gx:coord>12.282954 51.383358 656.32074</gx:coord>
        <when>2026-01-01T00:27:30.0541100Z</when>
        <gx:coord>12.280497 51.384922 640.8153</gx:coord>
        <when>2026-01-01T00:27:35.0541100Z</when>
        <gx:coord>12.277906 51.38646 637.66626</gx:coord>
        <when>2026-01-01T00:27:37.0821100Z</when>
        <gx:coord>12.27683 51.38706 638.9998</gx:coord>
        <when>2026-01-01T00:27:40.0541100Z</when>
        <gx:coord>12.275033 51.38775 646.7994</gx:coord>
        <when>2026-01-01T00:27:40.0841100Z</when>
        <gx:coord>12.275033 51.38775 646.7994</gx:coord>
        <when>2026-01-01T00:27:43.0831100Z</when>
        <gx:coord>12.273122 51.388195 650.9233</gx:coord>
        <when>2026-01-01T00:27:45.0541100Z</when>
        <gx:coord>12.27181 51.388382 647.5846</gx:coord>
        <when>2026-01-01T00:27:50.0541100Z</when>
        <gx:coord>12.268359 51.38868 638.6214</gx:coord>
        <when>2026-01-01T00:27:51.0801100Z</when>
        <gx:coord>12.26766 51.38872 641.029</gx:coord>
        <when>2026-01-01T00:27:55.0541100Z</when>
        <gx:coord>12.264919 51.388844 646.11066</gx:coord>
        <when>2026-01-01T00:28:00.0551100Z</when>
        <gx:coord>12.261472 51.38904 640.32</gx:coord>
        <when>2026-01-01T00:28:01.0911100Z</when>
        <gx:coord>12.260063 51.38913 638.70044</gx:coord>
        <when>2026-01-01T00:28:05.0551100Z</when>
        <gx:coord>12.257935 51.38926 629.87744</gx:coord>
        <when>2026-01-01T00:28:10.0551100Z</when>
        <gx:coord>12.254417 51.38937 628.5289</gx:coord>
        <when>2026-01-01T00:28:15.0771100Z</when>
        <gx:coord>12.250948 51.38943 632.75995</gx:coord>
        <when>2026-01-01T00:28:20.0551100Z</when>
        <gx:coord>12.247546 51.389538 632.6994</gx:coord>
        <when>2026-01-01T00:28:25.0551100Z</when>
        <gx:coord>12.244194 51.389687 630.6624</gx:coord>
        <when>2026-01-01T00:28:30.0551100Z</when>
        <gx:coord>12.240842 51.38983 625.0113</gx:coord>
        <when>2026-01-01T00:28:35.0551100Z</when>
        <gx:coord>12.237476 51.389984 618.80005</gx:coord>
        <when>2026-01-01T00:28:40.0551100Z</when>
        <gx:coord>12.2341175 51.390057 619.3787</gx:coord>
        <when>2026-01-01T00:28:41.0891100Z</when>
        <gx:coord>12.232784 51.390034 619.6814</gx:coord>
        <when>2026-01-01T00:28:45.0551100Z</when>
        <gx:coord>12.230801 51.389954 619.2054</gx:coord>
        <when>2026-01-01T00:28:47.0861100Z</when>
        <gx:coord>12.22949 51.38989 619.5409</gx:coord>
        <when>2026-01-01T00:28:50.0551100Z</when>
        <gx:coord>12.227558 51.389755 622.62885</gx:coord>
        <when>2026-01-01T00:28:51.0851100Z</when>
        <gx:coord>12.226921 51.38971 623.30493</gx:coord>
        <when>2026-01-01T00:28:55.0551100Z</when>
        <gx:coord>12.224389 51.389572 626.1114</gx:coord>
        <when>2026-01-01T00:29:00.0551100Z</when>
        <gx:coord>12.221285 51.38942 630.87396</gx:coord>
        <when>2026-01-01T00:29:05.0551100Z</when>
        <gx:coord>12.218252 51.38927 633.24774</gx:coord>
        <when>2026-01-01T00:29:10.0551100Z</when>
        <gx:coord>12.215215 51.38914 635.5966</gx:coord>
        <when>2026-01-01T00:29:15.0771100Z</when>
        <gx:coord>12.21215 51.388954 644.139</gx:coord>
        <when>2026-01-01T00:29:20.0561100Z</when>
        <gx:coord>12.209037 51.388775 654.8628</gx:coord>
        <when>2026-01-01T00:29:24.0931100Z</when>
        <gx:coord>12.206019 51.388725 668.38086</gx:coord>
        <when>2026-01-01T00:29:25.0551100Z</when>
        <gx:coord>12.206019 51.388725 671.5554</gx:coord>
        <when>2026-01-01T00:29:30.0551100Z</when>
        <gx:coord>12.203044 51.388832 664.78613</gx:coord>
        <when>2026-01-01T00:29:35.0551100Z</when>
        <gx:coord>12.199862 51.388912 653.4355</gx:coord>
        <when>2026-01-01T00:29:40.0561100Z</when>
        <gx:coord>12.1965 51.388878 646.3269</gx:coord>
        <when>2026-01-01T00:29:45.0551100Z</when>
        <gx:coord>12.193093 51.38879 644.3188</gx:coord>
        <when>2026-01-01T00:29:50.0561100Z</when>
        <gx:coord>12.189645 51.388687 648.0191</gx:coord>
        <when>2026-01-01T00:29:55.0551100Z</when>
        <gx:coord>12.186223 51.38857 654.8627</gx:coord>
        <when>2026-01-01T00:30:00.0561100Z</when>
        <gx:coord>12.182801 51.3885 655.0867</gx:coord>
        <when>2026-01-01T00:30:04.0911100Z</when>
        <gx:coord>12.179346 51.388454 652.5416</gx:coord>
        <when>2026-01-01T00:30:05.0561100Z</when>
        <gx:coord>12.179346 51.388454 652.78455</gx:coord>
        <when>2026-01-01T00:30:10.0561100Z</when>
        <gx:coord>12.175932 51.388348 656.8272</gx:coord>
        <when>2026-01-01T00:30:13.0871100Z</when>
        <gx:coord>12.173933 51.388306 662.9346</gx:coord>
        <when>2026-01-01T00:30:15.0771100Z</when>
        <gx:coord>12.17262 51.388447 669.95465</gx:coord>
        <when>2026-01-01T00:30:15.0871100Z</when>
        <gx:coord>12.17262 51.388447 669.95465</gx:coord>
        <when>2026-01-01T00:30:17.0841100Z</when>
        <gx:coord>12.171378 51.388763 675.51953</gx:coord>
        <when>2026-01-01T00:30:19.0871100Z</when>
        <gx:coord>12.170235 51.389233 672.9011</gx:coord>
        <when>2026-01-01T00:30:20.0561100Z</when>
        <gx:coord>12.16971 51.38953 670.58234</gx:coord>
        <when>2026-01-01T00:30:20.0791100Z</when>
        <gx:coord>12.16971 51.38953 670.58234</gx:coord>
        <when>2026-01-01T00:30:21.0881100Z</when>
        <gx:coord>12.169237 51.38988 668.2389</gx:coord>
        <when>2026-01-01T00:30:25.0561100Z</when>
        <gx:coord>12.167641 51.391506 653.42413</gx:coord>
        <when>2026-01-01T00:30:25.0881100Z</when>
        <gx:coord>12.167641 51.391506 653.42413</gx:coord>
        <when>2026-01-01T00:30:25.0881100Z</when>
        <gx:coord>12.167641 51.391506 653.42413</gx:coord>
        <when>2026-01-01T00:30:30.0561100Z</when>
        <gx:coord>12.166053 51.39389 646.32385</gx:coord>
        <when>2026-01-01T00:30:35.0561100Z</when>
        <gx:coord>12.164665 51.396328 646.51526</gx:coord>
        <when>2026-01-01T00:30:40.0571100Z</when>
        <gx:coord>12.163142 51.398724 650.81024</gx:coord>
        <when>2026-01-01T00:30:44.0931100Z</when>
        <gx:coord>12.161579 51.401062 649.30554</gx:coord>
        <when>2026-01-01T00:30:45.0561100Z</when>
        <gx:coord>12.161579 51.401062 646.7156</gx:coord>
        <when>2026-01-01T00:30:50.0571100Z</when>
        <gx:coord>12.159844 51.403378 641.8101</gx:coord>
        <when>2026-01-01T00:30:55.0561100Z</when>
        <gx:coord>12.158138 51.405666 639.0909</gx:coord>
        <when>2026-01-01T00:31:00.0561100Z</when>
        <gx:coord>12.156452 51.407913 634.9223</gx:coord>
        <when>2026-01-01T00:31:05.0561100Z</when>
        <gx:coord>12.154753 51.410103 631.0257</gx:coord>
        <when>2026-01-01T00:31:10.0571100Z</when>
        <gx:coord>12.153052 51.41228 630.3516</gx:coord>
        <when>2026-01-01T00:31:15.1111100Z</when>
        <gx:coord>12.1513 51.41442 626.87164</gx:coord>
        <when>2026-01-01T00:31:18.0921100Z</when>
        <gx:coord>12.149918 51.416157 622.87476</gx:coord>
        <when>2026-01-01T00:31:20.0571100Z</when>
        <gx:coord>12.149574 51.416595 624.8424</gx:coord>
        <when>2026-01-01T00:31:25.0571100Z</when>
        <gx:coord>12.147812 51.41882 626.40753</gx:coord>
        <when>2026-01-01T00:31:30.0571100Z</when>
        <gx:coord>12.146018 51.421062 624.87195</gx:coord>
        <when>2026-01-01T00:31:35.0561100Z</when>
        <gx:coord>12.14421 51.423286 621.99976</gx:coord>
        <when>2026-01-01T00:31:37.0831100Z</when>
        <gx:coord>12.14313 51.42462 616.1186</gx:coord>
        <when>2026-01-01T00:31:40.0561100Z</when>
        <gx:coord>12.142425 51.42553 611.3667</gx:coord>
        <when>2026-01-01T00:31:45.0561100Z</when>
        <gx:coord>12.140691 51.427834 602.1407</gx:coord>
        <when>2026-01-01T00:31:50.0571100Z</when>
        <gx:coord>12.13901 51.430126 608.0595</gx:coord>
        <when>2026-01-01T00:31:52.0901100Z</when>
        <gx:coord>12.137996 51.43145 611.0817</gx:coord>
        <when>2026-01-01T00:31:55.0561100Z</when>
        <gx:coord>12.137326 51.43232 616.5693</gx:coord>
        <when>2026-01-01T00:32:00.0571100Z</when>
        <gx:coord>12.135718 51.434505 619.4028</gx:coord>
        <when>2026-01-01T00:32:05.0571100Z</when>
        <gx:coord>12.134222 51.43672 615.3687</gx:coord>
        <when>2026-01-01T00:32:10.0571100Z</when>
        <gx:coord>12.132858 51.438972 616.88214</gx:coord>
        <when>2026-01-01T00:32:15.0851100Z</when>
        <gx:coord>12.131428 51.4412 608.9673</gx:coord>
        <when>2026-01-01T00:32:20.0571100Z</when>
        <gx:coord>12.129826 51.443394 607.65</gx:coord>
        <when>2026-01-01T00:32:25.0571100Z</when>
        <gx:coord>12.128056 51.445557 610.11115</gx:coord>
        <when>2026-01-01T00:32:27.0891100Z</when>
        <gx:coord>12.126975 51.44686 611.9767</gx:coord>
        <when>2026-01-01T00:32:30.0571100Z</when>
        <gx:coord>12.126242 51.44774 606.03986</gx:coord>
        <when>2026-01-01T00:32:35.0571100Z</when>
        <gx:coord>12.124406 51.44991 614.0686</gx:coord>
        <when>2026-01-01T00:32:40.0581100Z</when>
        <gx:coord>12.122694 51.452106 614.4598</gx:coord>
        <when>2026-01-01T00:32:45.0571100Z</when>
        <gx:coord>12.121072 51.454323 619.4568</gx:coord>
        <when>2026-01-01T00:32:50.0571100Z</when>
        <gx:coord>12.119502 51.45649 626.70026</gx:coord>
        <when>2026-01-01T00:32:55.0571100Z</when>
        <gx:coord>12.117964 51.458652 626.2568</gx:coord>
        <when>2026-01-01T00:33:00.0581100Z</when>
        <gx:coord>12.116379 51.4608 623.58093</gx:coord>
        <when>2026-01-01T00:33:02.0901100Z</when>
        <gx:coord>12.115416 51.46207 623.44434</gx:coord>
        <when>2026-01-01T00:33:05.0581100Z</when>
        <gx:coord>12.114766 51.46291 620.78766</gx:coord>
        <when>2026-01-01T00:33:10.0581100Z</when>
        <gx:coord>12.113096 51.465 615.0409</gx:coord>
        <when>2026-01-01T00:33:15.0791100Z</when>
        <gx:coord>12.111509 51.467148 608.84015</gx:coord>
        <when>2026-01-01T00:33:20.0571100Z</when>
        <gx:coord>12.109984 51.469334 598.18744</gx:coord>
        <when>2026-01-01T00:33:25.0571100Z</when>
        <gx:coord>12.108487 51.471516 596.3821</gx:coord>
        <when>2026-01-01T00:33:30.0571100Z</when>
        <gx:coord>12.10697 51.473633 600.1092</gx:coord>
        <when>2026-01-01T00:33:35.0571100Z</when>
        <gx:coord>12.10553 51.47579 600.35565</gx:coord>
        <when>2026-01-01T00:33:38.0951100Z</when>
        <gx:coord>12.104383 51.477543 601.31464</gx:coord>
        <when>2026-01-01T00:33:40.0571100Z</when>
        <gx:coord>12.104082 51.477978 603.5988</gx:coord>
        <when>2026-01-01T00:33:45.0571100Z</when>
        <gx:coord>12.102497 51.48015 601.6955</gx:coord>
        <when>2026-01-01T00:33:50.0581100Z</when>
        <gx:coord>12.100909 51.48232 604.2213</gx:coord>
        <when>2026-01-01T00:33:55.0571100Z</when>
        <gx:coord>12.099373 51.484432 613.6154</gx:coord>
        <when>2026-01-01T00:33:57.0901100Z</when>
        <gx:coord>12.098775 51.48526 613.5562</gx:coord>
        <when>2026-01-01T00:34:00.0571100Z</when>
        <gx:coord>12.097797 51.486458 609.0638</gx:coord>
        <when>2026-01-01T00:34:02.0881100Z</when>
        <gx:coord>12.097015 51.487186 606.3831</gx:coord>
        <when>2026-01-01T00:34:05.0571100Z</when>
        <gx:coord>12.095633 51.488144 602.7525</gx:coord>
        <when>2026-01-01T00:34:06.0811100Z</when>
        <gx:coord>12.095132 51.48843 599.99414</gx:coord>
        <when>2026-01-01T00:34:10.0571100Z</when>
        <gx:coord>12.092919 51.48941 591.80646</gx:coord>
        <when>2026-01-01T00:34:10.0781100Z</when>
        <gx:coord>12.092919 51.48941 591.80646</gx:coord>
        <when>2026-01-01T00:34:11.0781100Z</when>
        <gx:coord>12.091703 51.48981 585.0511</gx:coord>
        <when>2026-01-01T00:34:15.0861100Z</when>
        <gx:coord>12.089824 51.49036 573.7858</gx:coord>
        <when>2026-01-01T00:34:17.0901100Z</when>
        <gx:coord>12.087928 51.490906 570.35236</gx:coord>
        <when>2026-01-01T00:34:20.0571100Z</when>
        <gx:coord>12.0866585 51.491238 568.17413</gx:coord>
        <when>2026-01-01T00:34:25.0581100Z</when>
        <gx:coord>12.083473 51.49203 558.6781</gx:coord>
        <when>2026-01-01T00:34:28.0871100Z</when>
        <gx:coord>12.080906 51.492626 553.46466</gx:coord>
        <when>2026-01-01T00:34:30.0581100Z</when>
        <gx:coord>12.080268 51.492775 553.03516</gx:coord>
        <when>2026-01-01T00:34:35.0571100Z</when>
        <gx:coord>12.077171 51.493576 552.1848</gx:coord>
        <when>2026-01-01T00:34:40.0581100Z</when>
        <gx:coord>12.074172 51.494465 542.4329</gx:coord>
        <when>2026-01-01T00:34:45.0731100Z</when>
        <gx:coord>12.071213 51.495457 538.6815</gx:coord>
        <when>2026-01-01T00:34:50.0581100Z</when>
        <gx:coord>12.068331 51.496437 527.86646</gx:coord>
        <when>2026-01-01T00:34:50.0811100Z</when>
        <gx:coord>12.067753 51.49664 522.8245</gx:coord>
        <when>2026-01-01T00:34:55.0581100Z</when>
        <gx:coord>12.065371 51.497444 506.9091</gx:coord>
        <when>2026-01-01T00:34:57.0921100Z</when>
        <gx:coord>12.063489 51.497986 506.1528</gx:coord>
        <when>2026-01-01T00:35:00.0581100Z</when>
        <gx:coord>12.062231 51.49835 499.1253</gx:coord>
        <when>2026-01-01T00:35:02.0861100Z</when>
        <gx:coord>12.060385 51.498943 490.41766</gx:coord>
        <when>2026-01-01T00:35:05.0581100Z</when>
        <gx:coord>12.059162 51.49935 482.36942</gx:coord>
        <when>2026-01-01T00:35:10.0581100Z</when>
        <gx:coord>12.056119 51.500374 478.35336</gx:coord>
        <when>2026-01-01T00:35:15.0791100Z</when>
        <gx:coord>12.053181 51.50139 476.10284</gx:coord>
        <when>2026-01-01T00:35:20.0581100Z</when>
        <gx:coord>12.050291 51.50237 467.7708</gx:coord>
        <when>2026-01-01T00:35:22.0851100Z</when>
        <gx:coord>12.048579 51.503025 457.9586</gx:coord>
        <when>2026-01-01T00:35:25.0571100Z</when>
        <gx:coord>12.047446 51.503506 453.56253</gx:coord>
        <when>2026-01-01T00:35:30.0571100Z</when>
        <gx:coord>12.044624 51.50479 449.29343</gx:coord>
        <when>2026-01-01T00:35:34.0841100Z</when>
        <gx:coord>12.042406 51.505898 442.07718</gx:coord>
        <when>2026-01-01T00:35:35.0571100Z</when>
        <gx:coord>12.041879 51.50619 442.96747</gx:coord>
        <when>2026-01-01T00:35:37.0921100Z</when>
        <gx:coord>12.04037 51.507107 444.70883</gx:coord>
        <when>2026-01-01T00:35:40.0581100Z</when>
        <gx:coord>12.039437 51.507744 446.66434</gx:coord>
        <when>2026-01-01T00:35:41.0831100Z</when>
        <gx:coord>12.039 51.508076 444.9154</gx:coord>
        <when>2026-01-01T00:35:45.0571100Z</when>
        <gx:coord>12.037421 51.509518 435.61047</gx:coord>
        <when>2026-01-01T00:35:47.0811100Z</when>
        <gx:coord>12.036747 51.51029 435.2239</gx:coord>
        <when>2026-01-01T00:35:50.0581100Z</when>
        <gx:coord>12.035809 51.51146 433.78763</gx:coord>
        <when>2026-01-01T00:35:55.0581100Z</when>
        <gx:coord>12.034378 51.513405 427.733</gx:coord>
        <when>2026-01-01T00:35:55.0801100Z</when>
        <gx:coord>12.034117 51.5138 425.21442</gx:coord>
        <when>2026-01-01T00:36:00.0581100Z</when>
        <gx:coord>12.033204 51.51541 419.24088</gx:coord>
        <when>2026-01-01T00:36:00.0841100Z</when>
        <gx:coord>12.033204 51.51541 419.24088</gx:coord>
        <when>2026-01-01T00:36:03.0851100Z</when>
        <gx:coord>12.0328045 51.516693 415.5483</gx:coord>
        <when>2026-01-01T00:36:04.0831100Z</when>
        <gx:coord>12.032772 51.517136 413.8657</gx:coord>
        <when>2026-01-01T00:36:05.0581100Z</when>
        <gx:coord>12.032794 51.517586 411.31317</gx:coord>
        <when>2026-01-01T00:36:07.0851100Z</when>
        <gx:coord>12.033011 51.51849 408.20047</gx:coord>
        <when>2026-01-01T00:36:10.0581100Z</when>
        <gx:coord>12.033702 51.51982 404.00272</gx:coord>
        <when>2026-01-01T00:36:10.0861100Z</when>
        <gx:coord>12.033702 51.51982 404.00272</gx:coord>
        <when>2026-01-01T00:36:15.1101100Z</when>
        <gx:coord>12.035513 51.521904 402.2535</gx:coord>
        <when>2026-01-01T00:36:19.0941100Z</when>
        <gx:coord>12.037214 51.524006 409.55234</gx:coord>
        <when>2026-01-01T00:36:20.0581100Z</when>
        <gx:coord>12.037214 51.524006 413.67868</gx:coord>
        <when>2026-01-01T00:36:25.0581100Z</when>
        <gx:coord>12.03903 51.52603 415.8549</gx:coord>
        <when>2026-01-01T00:36:25.0821100Z</when>
        <gx:coord>12.03903 51.52603 415.8549</gx:coord>
        <when>2026-01-01T00:36:29.0861100Z</when>
        <gx:coord>12.040923 51.527443 420.75104</gx:coord>
        <when>2026-01-01T00:36:30.0581100Z</when>
        <gx:coord>12.041475 51.52774 421.63446</gx:coord>
        <when>2026-01-01T00:36:32.0841100Z</when>
        <gx:coord>12.04268 51.528236 423.66455</gx:coord>
        <when>2026-01-01T00:36:35.0581100Z</when>
        <gx:coord>12.044595 51.52874 430.7092</gx:coord>
        <when>2026-01-01T00:36:37.0831100Z</when>
        <gx:coord>12.045843 51.52899 432.00797</gx:coord>
        <when>2026-01-01T00:36:37.0831100Z</when>
        <gx:coord>12.045843 51.52899 432.00797</gx:coord>
        <when>2026-01-01T00:36:40.0581100Z</when>
        <gx:coord>12.047692 51.52933 423.78128</gx:coord>
        <when>2026-01-01T00:36:45.0581100Z</when>
        <gx:coord>12.050776 51.529774 413.9428</gx:coord>
        <when>2026-01-01T00:36:47.0811100Z</when>
        <gx:coord>12.051999 51.529892 410.9385</gx:coord>
        <when>2026-01-01T00:36:50.0581100Z</when>
        <gx:coord>12.0538225 51.52998 400.80676</gx:coord>
        <when>2026-01-01T00:36:51.0831100Z</when>
        <gx:coord>12.055046 51.52997 393.14017</gx:coord>
        <when>2026-01-01T00:36:52.0851100Z</when>
        <gx:coord>12.055046 51.52997 393.14017</gx:coord>
        <when>2026-01-01T00:36:55.0581100Z</when>
        <gx:coord>12.056881 51.529827 387.19022</gx:coord>
        <when>2026-01-01T00:36:56.0911100Z</when>
        <gx:coord>12.057475 51.52974 386.0695</gx:coord>
        <when>2026-01-01T00:37:00.0591100Z</when>
        <gx:coord>12.059676 51.529217 374.74716</gx:coord>
        <when>2026-01-01T00:37:00.0831100Z</when>
        <gx:coord>12.059676 51.529217 374.74716</gx:coord>
        <when>2026-01-01T00:37:02.0801100Z</when>
        <gx:coord>12.061209 51.528694 361.89847</gx:coord>
        <when>2026-01-01T00:37:05.0591100Z</when>
        <gx:coord>12.062225 51.528328 355.9776</gx:coord>
        <when>2026-01-01T00:37:06.0881100Z</when>
        <gx:coord>12.063261 51.52798 352.86267</gx:coord>
        <when>2026-01-01T00:37:10.0591100Z</when>
        <gx:coord>12.064866 51.52751 343.5784</gx:coord>
        <when>2026-01-01T00:37:13.0861100Z</when>
        <gx:coord>12.067092 51.52698 330.1502</gx:coord>
        <when>2026-01-01T00:37:15.0801100Z</when>
        <gx:coord>12.067662 51.526863 326.34073</gx:coord>
        <when>2026-01-01T00:37:20.0591100Z</when>
        <gx:coord>12.070461 51.526264 312.51477</gx:coord>
        <when>2026-01-01T00:37:20.0831100Z</when>
        <gx:coord>12.070461 51.526264 312.51477</gx:coord>
        <when>2026-01-01T00:37:22.0781100Z</when>
        <gx:coord>12.071637 51.526108 305.76736</gx:coord>
        <when>2026-01-01T00:37:23.0821100Z</when>
        <gx:coord>12.072897 51.526104 299.25104</gx:coord>
        <when>2026-01-01T00:37:24.0831100Z</when>
        <gx:coord>12.072897 51.526104 299.25104</gx:coord>
        <when>2026-01-01T00:37:25.0581100Z</when>
        <gx:coord>12.07354 51.52617 296.60532</gx:coord>
        <when>2026-01-01T00:37:26.0801100Z</when>
        <gx:coord>12.07417 51.526287 296.10742</gx:coord>
        <when>2026-01-01T00:37:28.0841100Z</when>
        <gx:coord>12.075358 51.526634 295.47134</gx:coord>
        <when>2026-01-01T00:37:30.0591100Z</when>
        <gx:coord>12.076438 51.52712 292.21213</gx:coord>
        <when>2026-01-01T00:37:31.0831100Z</when>
        <gx:coord>12.076937 51.527405 288.86725</gx:coord>
        <when>2026-01-01T00:37:35.0581100Z</when>
        <gx:coord>12.07863 51.52877 283.41287</gx:coord>
        <when>2026-01-01T00:37:35.0861100Z</when>
        <gx:coord>12.07863 51.52877 283.41287</gx:coord>
        <when>2026-01-01T00:37:40.0581100Z</when>
        <gx:coord>12.080304 51.53065 284.38452</gx:coord>
        <when>2026-01-01T00:37:45.0581100Z</when>
        <gx:coord>12.081902 51.532455 285.0737</gx:coord>
        <when>2026-01-01T00:37:50.0591100Z</when>
        <gx:coord>12.083431 51.534206 284.38318</gx:coord>
        <when>2026-01-01T00:37:55.0581100Z</when>
        <gx:coord>12.084898 51.536003 274.8637</gx:coord>
        <when>2026-01-01T00:37:57.0881100Z</when>
        <gx:coord>12.085901 51.537083 275.73206</gx:coord>
        <when>2026-01-01T00:38:00.0591100Z</when>
        <gx:coord>12.08646 51.537834 279.52042</gx:coord>
        <when>2026-01-01T00:38:00.0801100Z</when>
        <gx:coord>12.08646 51.537834 279.52042</gx:coord>
        <when>2026-01-01T00:38:03.0831100Z</when>
        <gx:coord>12.086984 51.539017 273.9984</gx:coord>
        <when>2026-01-01T00:38:05.0591100Z</when>
        <gx:coord>12.08713 51.53983 270.65393</gx:coord>
        <when>2026-01-01T00:38:05.0891100Z</when>
        <gx:coord>12.08714 51.540234 268.02878</gx:coord>
        <when>2026-01-01T00:38:06.0811100Z</when>
        <gx:coord>12.08714 51.540234 268.02878</gx:coord>
        <when>2026-01-01T00:38:09.0831100Z</when>
        <gx:coord>12.08689 51.541435 262.19867</gx:coord>
        <when>2026-01-01T00:38:10.0591100Z</when>
        <gx:coord>12.086737 51.541824 260.4703</gx:coord>
        <when>2026-01-01T00:38:12.0821100Z</when>
        <gx:coord>12.086305 51.542557 256.34085</gx:coord>
        <when>2026-01-01T00:38:14.0841100Z</when>
        <gx:coord>12.085686 51.54321 252.19771</gx:coord>
        <when>2026-01-01T00:38:15.0681100Z</when>
        <gx:coord>12.0853195 51.543495 250.34602</gx:coord>
        <when>2026-01-01T00:38:16.0831100Z</when>
        <gx:coord>12.08493 51.543755 248.71828</gx:coord>
        <when>2026-01-01T00:38:17.0851100Z</when>
        <gx:coord>12.084514 51.543987 246.30223</gx:coord>
        <when>2026-01-01T00:38:19.0871100Z</when>
        <gx:coord>12.083608 51.54435 238.57275</gx:coord>
        <when>2026-01-01T00:38:19.0871100Z</when>
        <gx:coord>12.08313 51.544487 235.13354</gx:coord>
        <when>2026-01-01T00:38:20.0581100Z</when>
        <gx:coord>12.08313 51.544487 235.13354</gx:coord>
        <when>2026-01-01T00:38:25.0591100Z</when>
        <gx:coord>12.080709 51.545017 224.17917</gx:coord>
        <when>2026-01-01T00:38:30.0591100Z</when>
        <gx:coord>12.078358 51.545593 216.04358</gx:coord>
        <when>2026-01-01T00:38:34.0851100Z</when>
        <gx:coord>12.075988 51.546196 203.58354</gx:coord>
        <when>2026-01-01T00:38:35.0581100Z</when>
        <gx:coord>12.075988 51.546196 203.58354</gx:coord>
        <when>2026-01-01T00:38:40.0581100Z</when>
        <gx:coord>12.073634 51.546833 192.52982</gx:coord>
        <when>2026-01-01T00:38:45.0581100Z</when>
        <gx:coord>12.071309 51.547478 179.64264</gx:coord>
        <when>2026-01-01T00:38:47.0821100Z</when>
        <gx:coord>12.069864 51.547855 171.60942</gx:coord>
        <when>2026-01-01T00:38:50.0591100Z</when>
        <gx:coord>12.068883 51.548122 163.5984</gx:coord>
        <when>2026-01-01T00:38:54.0911100Z</when>
        <gx:coord>12.066433 51.548805 152.53416</gx:coord>
        <when>2026-01-01T00:38:55.0581100Z</when>
        <gx:coord>12.066433 51.548805 149.89928</gx:coord>
        <when>2026-01-01T00:38:57.0841100Z</when>
        <gx:coord>12.064977 51.549225 140.25856</gx:coord>
        <when>2026-01-01T00:39:00.0591100Z</when>
        <gx:coord>12.064014 51.54948 134.17688</gx:coord>
        <when>2026-01-01T00:39:05.0591100Z</when>
        <gx:coord>12.061723 51.55015 117.22201</gx:coord>
        <when>2026-01-01T00:39:07.0871100Z</when>
        <gx:coord>12.060836 51.550407 110.953545</gx:coord>
        <when>2026-01-01T00:39:07.0871100Z</when>
        <gx:coord>12.060403 51.550533 109.22143</gx:coord>
        <when>2026-01-01T00:39:10.0591100Z</when>
        <gx:coord>12.05957 51.550766 109.40161</gx:coord>
        <when>2026-01-01T00:39:13.0761100Z</when>
        <gx:coord>12.058426 51.551086 109.02617</gx:coord>
        <when>2026-01-01T00:39:15.0761100Z</when>
        <gx:coord>12.057722 51.55129 108.16059</gx:coord>
        <when>2026-01-01T00:39:20.0591100Z</when>
        <gx:coord>12.056124 51.55171 108.165276</gx:coord>
        <when>2026-01-01T00:39:20.0831100Z</when>
        <gx:coord>12.056124 51.55171 108.165276</gx:coord>
        <when>2026-01-01T00:39:25.0591100Z</when>
        <gx:coord>12.054771 51.55209 108.18528</gx:coord>
        <when>2026-01-01T00:39:26.0841100Z</when>
        <gx:coord>12.0545435 51.552155 108.25217</gx:coord>
        <when>2026-01-01T00:39:30.0591100Z</when>
        <gx:coord>12.053844 51.55233 108.46187</gx:coord>
        <when>2026-01-01T00:39:30.0831100Z</when>
        <gx:coord>12.053844 51.55233 108.46187</gx:coord>
        <when>2026-01-01T00:39:33.0851100Z</when>
        <gx:coord>12.053533 51.552402 108.52616</gx:coord>
        <when>2026-01-01T00:39:35.0591100Z</when>
        <gx:coord>12.053454 51.552433 108.55563</gx:coord>
        <when>2026-01-01T00:39:35.0831100Z</when>
        <gx:coord>12.053454 51.552433 108.55563</gx:coord>
        <when>2026-01-01T00:39:36.0851100Z</when>
        <gx:coord>12.053446 51.55245 108.569046</gx:coord>
        <when>2026-01-01T00:39:37.0851100Z</when>
        <gx:coord>12.053444 51.552464 108.64076</gx:coord>
        <when>2026-01-01T00:39:38.0781100Z</when>
        <gx:coord>12.053455 51.552483 108.6794</gx:coord>
        <when>2026-01-01T00:39:38.0881100Z</when>
        <gx:coord>12.053476 51.55249 108.69467</gx:coord>
        <when>2026-01-01T00:39:39.0861100Z</when>
        <gx:coord>12.053476 51.55249 108.69467</gx:coord>
        <when>2026-01-01T00:39:40.0591100Z</when>
        <gx:coord>12.053511 51.5525 108.70643</gx:coord>
        <when>2026-01-01T00:39:40.1021100Z</when>
        <gx:coord>12.053511 51.5525 108.70643</gx:coord>
        <when>2026-01-01T00:39:41.0811100Z</when>
        <gx:coord>12.053558 51.5525 108.659</gx:coord>
        <when>2026-01-01T00:39:42.0841100Z</when>
        <gx:coord>12.0536175 51.552486 108.606606</gx:coord>
        <when>2026-01-01T00:39:45.0591100Z</when>
        <gx:coord>12.053814 51.552418 108.49749</gx:coord>
        <when>2026-01-01T00:39:50.0591100Z</when>
        <gx:coord>12.054268 51.552273 108.250786</gx:coord>
        <when>2026-01-01T00:39:55.0591100Z</when>
        <gx:coord>12.054794 51.55213 108.06972</gx:coord>
        <when>2026-01-01T00:40:00.0591100Z</when>
        <gx:coord>12.055257 51.55199 107.98051</gx:coord>
        <when>2026-01-01T00:40:05.0591100Z</when>
        <gx:coord>12.055628 51.551872 107.88638</gx:coord>
        <when>2026-01-01T00:40:05.0841100Z</when>
        <gx:coord>12.055628 51.551872 107.88638</gx:coord>
        <when>2026-01-01T00:40:06.0841100Z</when>
        <gx:coord>12.055689 51.551846 107.84179</gx:coord>
        <when>2026-01-01T00:40:07.0861100Z</when>
        <gx:coord>12.055734 51.551807 107.81656</gx:coord>
        <when>2026-01-01T00:40:08.0851100Z</when>
        <gx:coord>12.055768 51.55177 107.79238</gx:coord>
        <when>2026-01-01T00:40:09.0881100Z</when>
        <gx:coord>12.055788 51.551723 107.710884</gx:coord>
        <when>2026-01-01T00:40:10.0591100Z</when>
        <gx:coord>12.055795 51.551678 107.61131</gx:coord>
        <when>2026-01-01T00:40:11.1011100Z</when>
        <gx:coord>12.055789 51.55163 107.57818</gx:coord>
        <when>2026-01-01T00:40:13.1011100Z</when>
        <gx:coord>12.055744 51.55153 107.59473</gx:coord>
        <when>2026-01-01T00:40:15.0781100Z</when>
        <gx:coord>12.055677 51.55144 107.547424</gx:coord>
        <when>2026-01-01T00:40:20.0591100Z</when>
        <gx:coord>12.055515 51.55124 107.35852</gx:coord>
        <when>2026-01-01T00:40:25.0591100Z</when>
        <gx:coord>12.055368 51.551025 107.237076</gx:coord>
        <when>2026-01-01T00:40:29.0881100Z</when>
        <gx:coord>12.055307 51.55089 107.22452</gx:coord>
        <when>2026-01-01T00:40:30.0591100Z</when>
        <gx:coord>12.055312 51.550865 107.269264</gx:coord>
        <when>2026-01-01T00:40:30.0871100Z</when>
        <gx:coord>12.055312 51.550865 107.269264</gx:coord>
        <when>2026-01-01T00:40:31.0851100Z</when>
        <gx:coord>12.055327 51.55083 107.226425</gx:coord>
        <when>2026-01-01T00:40:32.0861100Z</when>
        <gx:coord>12.055354 51.5508 107.20466</gx:coord>
        <when>2026-01-01T00:40:33.0881100Z</when>
        <gx:coord>12.055396 51.55077 107.1859</gx:coord>
        <when>2026-01-01T00:40:35.0591100Z</when>
        <gx:coord>12.055509 51.550713 106.989136</gx:coord>
        <when>2026-01-01T00:40:35.1041100Z</when>
        <gx:coord>12.055509 51.550713 106.989136</gx:coord>
        <when>2026-01-01T00:40:38.0881100Z</when>
        <gx:coord>12.055718 51.550655 107.002365</gx:coord>
        <when>2026-01-01T00:40:40.0591100Z</when>
        <gx:coord>12.0558605 51.55062 106.98906</gx:coord>
        <when>2026-01-01T00:40:45.0591100Z</when>
        <gx:coord>12.056276 51.550503 107.03046</gx:coord>
        <when>2026-01-01T00:40:50.0591100Z</when>
        <gx:coord>12.056726 51.550377 106.92251</gx:coord>
        <when>2026-01-01T00:40:55.0591100Z</when>
        <gx:coord>12.057188 51.550243 106.98234</gx:coord>
        <when>2026-01-01T00:41:00.0591100Z</when>
        <gx:coord>12.057629 51.55013 106.98973</gx:coord>
        <when>2026-01-01T00:41:05.0591100Z</when>
        <gx:coord>12.057972 51.550034 106.96979</gx:coord>
        <when>2026-01-01T00:41:06.0871100Z</when>
        <gx:coord>12.0580225 51.55001 106.91743</gx:coord>
        <when>2026-01-01T00:41:08.0841100Z</when>
        <gx:coord>12.058101 51.549957 106.907524</gx:coord>
        <when>2026-01-01T00:41:10.0601100Z</when>
        <gx:coord>12.058136 51.549896 107.05979</gx:coord>
        <when>2026-01-01T00:41:10.0981100Z</when>
        <gx:coord>12.058136 51.549896 107.05979</gx:coord>
        <when>2026-01-01T00:41:12.0851100Z</when>
        <gx:coord>12.058145 51.54983 107.11946</gx:coord>
        <when>2026-01-01T00:41:14.0851100Z</when>
        <gx:coord>12.058116 51.549763 107.16404</gx:coord>
        <when>2026-01-01T00:41:15.1101100Z</when>
        <gx:coord>12.058097 51.549732 107.157265</gx:coord>
        <when>2026-01-01T00:41:20.0591100Z</when>
        <gx:coord>12.058012 51.54954 107.03708</gx:coord>
        <when>2026-01-01T00:41:25.0601100Z</when>
        <gx:coord>12.0579195 51.54933 107.02635</gx:coord>
        <when>2026-01-01T00:41:29.0871100Z</when>
        <gx:coord>12.05786 51.549187 106.86107</gx:coord>
        <when>2026-01-01T00:41:30.0601100Z</when>
        <gx:coord>12.057871 51.549156 106.86085</gx:coord>
        <when>2026-01-01T00:41:30.0851100Z</when>
        <gx:coord>12.057871 51.549156 106.86085</gx:coord>
        <when>2026-01-01T00:41:31.0851100Z</when>
        <gx:coord>12.057895 51.54912 106.82461</gx:coord>
        <when>2026-01-01T00:41:32.0861100Z</when>
        <gx:coord>12.057932 51.5491 106.86523</gx:coord>
        <when>2026-01-01T00:41:33.0841100Z</when>
        <gx:coord>12.057979 51.549076 106.87338</gx:coord>
        <when>2026-01-01T00:41:34.1051100Z</when>
        <gx:coord>12.0580435 51.549065 106.85151</gx:coord>
        <when>2026-01-01T00:41:35.0591100Z</when>
        <gx:coord>12.058109 51.54906 106.940895</gx:coord>
        <when>2026-01-01T00:41:40.0601100Z</when>
        <gx:coord>12.058442 51.549007 107.176445</gx:coord>
        <when>2026-01-01T00:41:45.0591100Z</when>
        <gx:coord>12.058867 51.548946 107.150925</gx:coord>
        <when>2026-01-01T00:41:50.0601100Z</when>
        <gx:coord>12.0592985 51.54888 107.40385</gx:coord>
        <when>2026-01-01T00:41:55.0591100Z</when>
        <gx:coord>12.059718 51.548817 107.47233</gx:coord>
        <when>2026-01-01T00:42:00.0601100Z</when>
        <gx:coord>12.060141 51.54875 107.45485</gx:coord>
        <when>2026-01-01T00:42:05.0601100Z</when>
        <gx:coord>12.060539 51.54869 107.51818</gx:coord>
        <when>2026-01-01T00:42:10.0601100Z</when>
        <gx:coord>12.060908 51.54863 107.4742</gx:coord>
        <when>2026-01-01T00:42:15.0801100Z</when>
        <gx:coord>12.061234 51.548576 107.51332</gx:coord>
        <when>2026-01-01T00:42:17.0841100Z</when>
        <gx:coord>12.061335 51.54856 107.587585</gx:coord>
        <when>2026-01-01T00:42:18.0881100Z</when>
        <gx:coord>12.061364 51.54855 107.60868</gx:coord>
        <when>2026-01-01T00:42:19.0861100Z</when>
        <gx:coord>12.061388 51.54853 107.64398</gx:coord>
        <when>2026-01-01T00:42:20.0591100Z</when>
        <gx:coord>12.061406 51.548508 107.637405</gx:coord>
        <when>2026-01-01T00:42:20.0901100Z</when>
        <gx:coord>12.061406 51.548508 107.637405</gx:coord>
        <when>2026-01-01T00:42:21.0831100Z</when>
        <gx:coord>12.061417 51.548485 107.670006</gx:coord>
        <when>2026-01-01T00:42:23.0851100Z</when>
        <gx:coord>12.0614195 51.54843 107.762955</gx:coord>
        <when>2026-01-01T00:42:25.0601100Z</when>
        <gx:coord>12.061402 51.548374 107.88654</gx:coord>
        <when>2026-01-01T00:42:30.0601100Z</when>
        <gx:coord>12.061359 51.5482 108.08005</gx:coord>
        <when>2026-01-01T00:42:35.0591100Z</when>
        <gx:coord>12.061323 51.54801 108.28008</gx:coord>
        <when>2026-01-01T00:42:37.0871100Z</when>
        <gx:coord>12.061312 51.547955 108.35574</gx:coord>
        <when>2026-01-01T00:42:38.0891100Z</when>
        <gx:coord>12.061301 51.547935 108.42377</gx:coord>
        <when>2026-01-01T00:42:39.0891100Z</when>
        <gx:coord>12.061284 51.547924 108.51046</gx:coord>
        <when>2026-01-01T00:42:40.0601100Z</when>
        <gx:coord>12.061263 51.547916 108.65165</gx:coord>
        <when>2026-01-01T00:42:40.0851100Z</when>
        <gx:coord>12.061263 51.547916 108.65165</gx:coord>
        <when>2026-01-01T00:42:41.0881100Z</when>
        <gx:coord>12.061236 51.547905 108.71233</gx:coord>
        <when>2026-01-01T00:42:42.0881100Z</when>
        <gx:coord>12.061206 51.5479 108.71283</gx:coord>
        <when>2026-01-01T00:42:43.0841100Z</when>
        <gx:coord>12.061173 51.5479 108.74068</gx:coord>
        <when>2026-01-01T00:42:45.0591100Z</when>
        <gx:coord>12.061096 51.547913 108.77536</gx:coord>
        <when>2026-01-01T00:42:45.0841100Z</when>
        <gx:coord>12.061096 51.547913 108.77536</gx:coord>
        <when>2026-01-01T00:42:50.0601100Z</when>
        <gx:coord>12.06087 51.547955 108.97175</gx:coord>
        <when>2026-01-01T00:42:55.0591100Z</when>
        <gx:coord>12.060615 51.547993 109.28622</gx:coord>
        <when>2026-01-01T00:42:59.9871100Z</when>
        <gx:coord>12.060491 51.547997 109.40209</gx:coord>
        <when>2026-01-01T00:43:00.0601100Z</when>
        <gx:coord>12.060491 51.547997 109.40209</gx:coord>
        <when>2026-01-01T00:43:03.6901100Z</when>
        <gx:coord>12.060465 51.548 109.5853</gx:coord>
        <when>2026-01-01T00:43:04.4681100Z</when>
        <gx:coord>12.060463 51.548 109.57575</gx:coord>
        <coordinates />
      </gx:Track>
    </Placemark>
    <Placemark>
      <name>Takeoff: 2026-01-01</name>
      <styleUrl>#downArrowIcon</styleUrl>
      <Point>
        <altitudeMode>relativeToGround</altitudeMode>
        <coordinates>12.51591,50.98913,20</coordinates>
      </Point>
    </Placemark>
    <Placemark>
      <name>Landing: 2026-01-01</name>
      <styleUrl>#downArrowIcon</styleUrl>
      <Point>
        <altitudeMode>relativeToGround</altitudeMode>
        <coordinates>12.053476,51.55249,20</coordinates>
      </Point>
    </Placemark>
    <Placemark>
      <name>Log Stop: 2026-01-01</name>
      <styleUrl>#downArrowIcon</styleUrl>
      <Point>
        <altitudeMode>relativeToGround</altitudeMode>
        <coordinates>12.060463,51.548,20</coordinates>
      </Point>
    </Placemark>
  </Document>
</kml>