<?xml version="1.0" encoding="utf-8"?>
<kml xmlns:gx="http://www.google.com/kml/ext/2.2" creator="kml-heatmap" xmlns="http://www.opengis.net/kml/2.2">
  <Document>
    <name>SkyDemon Track Log</name>
    <Style id="skydemonLogStyle">
      <LineStyle>
        <color>7f00ffff</color>
        <width>4</width>
      </LineStyle>
      <PolyStyle>
        <color>7fffa400</color>
      </PolyStyle>
    </Style>
    <Style id="downArrowIcon">
      <IconStyle>
        <href>http://maps.google.com/mapfiles/kml/pal4/icon28.png</href>
      </IconStyle>
    </Style>
    <Placemark>
      <name>Log Start: 2025-01-01</name>
      <styleUrl>#downArrowIcon</styleUrl>
      <Point>
        <altitudeMode>relativeToGround</altitudeMode>
        <coordinates>12.058225,51.548454,20</coordinates>
      </Point>
    </Placemark>
    <Placemark>
      <name>EDAQ Halle-Oppin - EDAZ Schoenhagen</name>
      <styleUrl>#skydemonLogStyle</styleUrl>
      <gx:Track>
        <extrude>1</extrude>
        <altitudeMode>absolute</altitudeMode>
        <when>2025-01-01T00:00:00.6798030Z</when>
        <gx:coord>12.058225 51.548454 112.332</gx:coord>
        <when>2025-01-01T00:00:05.6808030Z</when>
        <gx:coord>12.058225 51.548454 112.332</gx:coord>
        <when>2025-01-01T00:00:10.6808030Z</when>
        <gx:coord>12.058225 51.548454 112.332</gx:coord>
        <when>2025-01-01T00:00:15.6808030Z</when>
        <gx:coord>12.058225 51.548454 112.332</gx:coord>
        <when>2025-01-01T00:00:20.6808030Z</when>
        <gx:coord>12.058225 51.548454 112.332</gx:coord>
        <when>2025-01-01T00:00:25.6808030Z</when>
        <gx:coord>12.058225 51.548454 112.332</gx:coord>
        <when>2025-01-01T00:00:30.6808030Z</when>
        <gx:coord>12.058225 51.548454 112.332</gx:coord>
        <when>2025-01-01T00:00:35.6808030Z</when>
        <gx:coord>12.058225 51.548454 112.332</gx:coord>
        <when>2025-01-01T00:00:40.6808030Z</when>
        <gx:coord>12.058225 51.548454 112.332</gx:coord>
        <when>2025-01-01T00:00:45.6798030Z</when>
        <gx:coord>12.058225 51.548454 112.332</gx:coord>
        <when>2025-01-01T00:00:50.6808030Z</when>
        <gx:coord>12.058225 51.548454 110.808</gx:coord>
        <when>2025-01-01T00:00:55.6808030Z</when>
        <gx:coord>12.058225 51.548454 110.808</gx:coord>
        <when>2025-01-01T00:01:00.6808030Z</when>
        <gx:coord>12.058225 51.548454 112.332</gx:coord>
        <when>2025-01-01T00:01:05.6808030Z</when>
        <gx:coord>12.058225 51.548454 112.332</gx:coord>
        <when>2025-01-01T00:01:10.6808030Z</when>
        <gx:coord>12.058225 51.548454 112.332</gx:coord>
        <when>2025-01-01T00:01:15.6808030Z</when>
        <gx:coord>12.058225 51.548454 112.332</gx:coord>
        <when>2025-01-01T00:01:20.6808030Z</when>
        <gx:coord>12.058225 51.548454 112.332</gx:coord>
        <when>2025-01-01T00:01:25.6808030Z</when>
        <gx:coord>12.058225 51.548454 112.332</gx:coord>
        <when>2025-01-01T00:01:27.1198030Z</when>
        <gx:coord>12.058203 51.548454 112.332</gx:coord>
        <when>2025-01-01T00:01:28.1048030Z</when>
        <gx:coord>12.058203 51.548454 112.332</gx:coord>
        <when>2025-01-01T00:01:29.1108030Z</when>
        <gx:coord>12.058182 51.548473 112.332</gx:coord>
        <when>2025-01-01T00:01:30.1008030Z</when>
        <gx:coord>12.058161 51.548473 112.332</gx:coord>
        <when>2025-01-01T00:01:30.1018030Z</when>
        <gx:coord>12.058161 51.548473 112.332</gx:coord>
        <when>2025-01-01T00:01:30.6808030Z</when>
        <gx:coord>12.058139 51.548496 112.332</gx:coord>
        <when>2025-01-01T00:01:31.1098030Z</when>
        <gx:coord>12.058139 51.548496 112.332</gx:coord>
        <when>2025-01-01T00:01:33.1248030Z</when>
        <gx:coord>12.058117 51.54854 112.332</gx:coord>
        <when>2025-01-01T00:01:35.6808030Z</when>
        <gx:coord>12.058139 51.548622 112.332</gx:coord>
        <when>2025-01-01T00:01:36.1298030Z</when>
        <gx:coord>12.058139 51.548622 112.332</gx:coord>
        <when>2025-01-01T00:01:40.6808030Z</when>
        <gx:coord>12.058203 51.548817 112.332</gx:coord>
        <when>2025-01-01T00:01:45.6798030Z</when>
        <gx:coord>12.058268 51.548965 112.332</gx:coord>
        <when>2025-01-01T00:01:46.1038030Z</when>
        <gx:coord>12.058268 51.548965 112.332</gx:coord>
        <when>2025-01-01T00:01:47.1188030Z</when>
        <gx:coord>12.058268 51.54899 112.332</gx:coord>
        <when>2025-01-01T00:01:48.1318030Z</when>
        <gx:coord>12.058247 51.54901 112.332</gx:coord>
        <when>2025-01-01T00:01:49.1218030Z</when>
        <gx:coord>12.058225 51.54903 112.332</gx:coord>
        <when>2025-01-01T00:01:50.1108030Z</when>
        <gx:coord>12.058182 51.54903 112.332</gx:coord>
        <when>2025-01-01T00:01:50.6808030Z</when>
        <gx:coord>12.058139 51.549053 112.332</gx:coord>
        <when>2025-01-01T00:01:51.1278030Z</when>
        <gx:coord>12.058139 51.549053 112.332</gx:coord>
        <when>2025-01-01T00:01:52.1228030Z</when>
        <gx:coord>12.058096 51.549053 112.332</gx:coord>
        <when>2025-01-01T00:01:55.1318030Z</when>
        <gx:coord>12.057967 51.549076 112.332</gx:coord>
        <when>2025-01-01T00:01:55.6798030Z</when>
        <gx:coord>12.057945 51.549095 112.332</gx:coord>
        <when>2025-01-01T00:01:57.1268030Z</when>
        <gx:coord>12.057903 51.549118 112.332</gx:coord>
        <when>2025-01-01T00:01:58.1288030Z</when>
        <gx:coord>12.057881 51.54914 112.332</gx:coord>
        <when>2025-01-01T00:02:00.1328030Z</when>
        <gx:coord>12.057859 51.549202 112.332</gx:coord>
        <when>2025-01-01T00:02:00.6798030Z</when>
        <gx:coord>12.057859 51.549225 112.332</gx:coord>
        <when>2025-01-01T00:02:02.1328030Z</when>
        <gx:coord>12.057881 51.549267 112.332</gx:coord>
        <when>2025-01-01T00:02:05.6798030Z</when>
        <gx:coord>12.057945 51.54942 112.332</gx:coord>
        <when>2025-01-01T00:02:09.1258030Z</when>
        <gx:coord>12.057989 51.54957 112.332</gx:coord>
        <when>2025-01-01T00:02:10.6798030Z</when>
        <gx:coord>12.058031 51.549652 112.332</gx:coord>
        <when>2025-01-01T00:02:15.6798030Z</when>
        <gx:coord>12.058139 51.54987 112.332</gx:coord>
        <when>2025-01-01T00:02:16.1188030Z</when>
        <gx:coord>12.058139 51.54987 112.332</gx:coord>
        <when>2025-01-01T00:02:18.1058030Z</when>
        <gx:coord>12.058117 51.549934 112.332</gx:coord>
        <when>2025-01-01T00:02:19.1168030Z</when>
        <gx:coord>12.058075 51.549976 112.332</gx:coord>
        <when>2025-01-01T00:02:20.1338030Z</when>
        <gx:coord>12.058031 51.549995 112.332</gx:coord>
        <when>2025-01-01T00:02:20.6798030Z</when>
        <gx:coord>12.057989 51.55002 112.332</gx:coord>
        <when>2025-01-01T00:02:25.6798030Z</when>
        <gx:coord>12.057602 51.550125 112.332</gx:coord>
        <when>2025-01-01T00:02:30.6798030Z</when>
        <gx:coord>12.057152 51.550255 112.332</gx:coord>
        <when>2025-01-01T00:02:35.6798030Z</when>
        <gx:coord>12.05668 51.550385 112.332</gx:coord>
        <when>2025-01-01T00:02:40.6798030Z</when>
        <gx:coord>12.056187 51.550533 112.332</gx:coord>
        <when>2025-01-01T00:02:45.6798030Z</when>
        <gx:coord>12.05565 51.550682 112.332</gx:coord>
        <when>2025-01-01T00:02:50.6798030Z</when>
        <gx:coord>12.055135 51.55081 112.332</gx:coord>
        <when>2025-01-01T00:02:55.6798030Z</when>
        <gx:coord>12.054577 51.550964 112.332</gx:coord>
        <when>2025-01-01T00:03:00.6788030Z</when>
        <gx:coord>12.054019 51.551136 112.332</gx:coord>
        <when>2025-01-01T00:03:05.6798030Z</when>
        <gx:coord>12.053396 51.551308 112.332</gx:coord>
        <when>2025-01-01T00:03:10.6798030Z</when>
        <gx:coord>12.052774 51.55148 112.332</gx:coord>
        <when>2025-01-01T00:03:15.6798030Z</when>
        <gx:coord>12.052174 51.55165 113.856</gx:coord>
        <when>2025-01-01T00:03:20.6808030Z</when>
        <gx:coord>12.051616 51.5518 113.856</gx:coord>
        <when>2025-01-01T00:03:25.6808030Z</when>
        <gx:coord>12.051058 51.55197 113.856</gx:coord>
        <when>2025-01-01T00:03:30.6808030Z</when>
        <gx:coord>12.050543 51.55212 113.856</gx:coord>
        <when>2025-01-01T00:03:35.6808030Z</when>
        <gx:coord>12.050007 51.55225 115.38001</gx:coord>
        <when>2025-01-01T00:03:40.6798030Z</when>
        <gx:coord>12.049513 51.5524 115.38001</gx:coord>
        <when>2025-01-01T00:03:45.6798030Z</when>
        <gx:coord>12.048998 51.55255 115.38001</gx:coord>
        <when>2025-01-01T00:03:50.6798030Z</when>
        <gx:coord>12.048526 51.55268 115.38001</gx:coord>
        <when>2025-01-01T00:03:55.6808030Z</when>
        <gx:coord>12.048033 51.552807 116.90401</gx:coord>
        <when>2025-01-01T00:04:00.6798030Z</when>
        <gx:coord>12.04756 51.552937 116.90401</gx:coord>
        <when>2025-01-01T00:04:05.6798030Z</when>
        <gx:coord>12.047131 51.553066 116.90401</gx:coord>
        <when>2025-01-01T00:04:10.6798030Z</when>
        <gx:coord>12.046809 51.553173 116.90401</gx:coord>
        <when>2025-01-01T00:04:12.1288030Z</when>
        <gx:coord>12.046766 51.553196 116.90401</gx:coord>
        <when>2025-01-01T00:04:14.1308030Z</when>
        <gx:coord>12.046701 51.55326 116.90401</gx:coord>
        <when>2025-01-01T00:04:15.6798030Z</when>
        <gx:coord>12.04668 51.553303 116.90401</gx:coord>
        <when>2025-01-01T00:04:16.1318030Z</when>
        <gx:coord>12.04668 51.553303 116.90401</gx:coord>
        <when>2025-01-01T00:04:18.1288030Z</when>
        <gx:coord>12.046659 51.553387 118.428</gx:coord>
        <when>2025-01-01T00:04:20.6798030Z</when>
        <gx:coord>12.046659 51.553493 118.428</gx:coord>
        <when>2025-01-01T00:04:24.1298030Z</when>
        <gx:coord>12.04668 51.553646 118.428</gx:coord>
        <when>2025-01-01T00:04:25.6798030Z</when>
        <gx:coord>12.04668 51.55373 118.428</gx:coord>
        <when>2025-01-01T00:04:29.1298030Z</when>
        <gx:coord>12.046659 51.553837 118.428</gx:coord>
        <when>2025-01-01T00:04:30.6798030Z</when>
        <gx:coord>12.046659 51.5539 118.428</gx:coord>
        <when>2025-01-01T00:04:32.1268030Z</when>
        <gx:coord>12.046659 51.553947 118.428</gx:coord>
        <when>2025-01-01T00:04:35.1208030Z</when>
        <gx:coord>12.046659 51.553967 118.428</gx:coord>
        <when>2025-01-01T00:04:35.6798030Z</when>
        <gx:coord>12.046659 51.553967 118.428</gx:coord>
        <when>2025-01-01T00:04:40.6798030Z</when>
        <gx:coord>12.046659 51.553967 118.428</gx:coord>
        <when>2025-01-01T00:04:45.6798030Z</when>
        <gx:coord>12.046659 51.553967 118.428</gx:coord>
        <when>2025-01-01T00:04:50.6798030Z</when>
        <gx:coord>12.046659 51.553967 118.428</gx:coord>
        <when>2025-01-01T00:04:55.6798030Z</when>
        <gx:coord>12.046659 51.553967 118.428</gx:coord>
        <when>2025-01-01T00:05:00.6798030Z</when>
        <gx:coord>12.046659 51.553967 118.428</gx:coord>
        <when>2025-01-01T00:05:05.6798030Z</when>
        <gx:coord>12.046659 51.553967 118.428</gx:coord>
        <when>2025-01-01T00:05:10.6798030Z</when>
        <gx:coord>12.046659 51.553967 118.428</gx:coord>
        <when>2025-01-01T00:05:15.6808030Z</when>
        <gx:coord>12.046659 51.553967 118.428</gx:coord>
        <when>2025-01-01T00:05:20.6808030Z</when>
        <gx:coord>12.046659 51.553967 118.428</gx:coord>
        <when>2025-01-01T00:05:25.6808030Z</when>
        <gx:coord>12.046659 51.553967 118.428</gx:coord>
        <when>2025-01-01T00:05:30.6808030Z</when>
        <gx:coord>12.046659 51.553967 118.428</gx:coord>
        <when>2025-01-01T00:05:35.6808030Z</when>
        <gx:coord>12.046659 51.553967 118.428</gx:coord>
        <when>2025-01-01T00:05:40.6798030Z</when>
        <gx:coord>12.046659 51.553967 118.428</gx:coord>
        <when>2025-01-01T00:05:45.6808030Z</when>
        <gx:coord>12.046659 51.553967 118.428</gx:coord>
        <when>2025-01-01T00:05:50.6808030Z</when>
        <gx:coord>12.046659 51.553967 118.428</gx:coord>
        <when>2025-01-01T00:05:55.6808030Z</when>
        <gx:coord>12.046659 51.553967 118.428</gx:coord>
        <when>2025-01-01T00:06:00.6808030Z</when>
        <gx:coord>12.046659 51.553967 118.428</gx:coord>
        <when>2025-01-01T00:06:06.8588030Z</when>
        <gx:coord>12.046659 51.553967 118.428</gx:coord>
        <when>2025-01-01T00:06:11.8598030Z</when>
        <gx:coord>12.046659 51.553967 118.428</gx:coord>
        <when>2025-01-01T00:06:13.1178030Z</when>
        <gx:coord>12.046659 51.55399 118.428</gx:coord>
        <when>2025-01-01T00:06:16.8588030Z</when>
        <gx:coord>12.046659 51.554054 118.428</gx:coord>
        <when>2025-01-01T00:06:21.1118030Z</when>
        <gx:coord>12.04668 51.55416 118.428</gx:coord>
        <when>2025-01-01T00:06:21.8598030Z</when>
        <gx:coord>12.04668 51.55418 118.428</gx:coord>
        <when>2025-01-01T00:06:23.1138030Z</when>
        <gx:coord>12.046701 51.554203 118.428</gx:coord>
        <when>2025-01-01T00:06:24.1228030Z</when>
        <gx:coord>12.046723 51.554245 118.428</gx:coord>
        <when>2025-01-01T00:06:25.1068030Z</when>
        <gx:coord>12.046766 51.554268 118.428</gx:coord>
        <when>2025-01-01T00:06:26.1228030Z</when>
        <gx:coord>12.046831 51.55429 118.428</gx:coord>
        <when>2025-01-01T00:06:26.8598030Z</when>
        <gx:coord>12.046895 51.55431 118.428</gx:coord>
        <when>2025-01-01T00:06:28.1178030Z</when>
        <gx:coord>12.046959 51.55431 118.428</gx:coord>
        <when>2025-01-01T00:06:29.1228030Z</when>
        <gx:coord>12.047045 51.55431 118.428</gx:coord>
        <when>2025-01-01T00:06:30.1288030Z</when>
        <gx:coord>12.047131 51.55429 118.428</gx:coord>
        <when>2025-01-01T00:06:31.8598030Z</when>
        <gx:coord>12.047302 51.554268 118.428</gx:coord>
        <when>2025-01-01T00:06:34.6118030Z</when>
        <gx:coord>12.04756 51.55418 118.428</gx:coord>
        <when>2025-01-01T00:06:36.8588030Z</when>
        <gx:coord>12.048097 51.55403 118.428</gx:coord>
        <when>2025-01-01T00:06:37.1398030Z</when>
        <gx:coord>12.048097 51.55403 118.428</gx:coord>
        <when>2025-01-01T00:06:38.1328030Z</when>
        <gx:coord>12.048332 51.553967 116.90401</gx:coord>
        <when>2025-01-01T00:06:41.8598030Z</when>
        <gx:coord>12.049406 51.553665 116.90401</gx:coord>
        <when>2025-01-01T00:06:42.1258030Z</when>
        <gx:coord>12.049406 51.553665 116.90401</gx:coord>
        <when>2025-01-01T00:06:46.1288030Z</when>
        <gx:coord>12.050779 51.55326 115.38001</gx:coord>
        <when>2025-01-01T00:06:46.8598030Z</when>
        <gx:coord>12.051165 51.553173 115.38001</gx:coord>
        <when>2025-01-01T00:06:51.8598030Z</when>
        <gx:coord>12.053161 51.552593 126.04801</gx:coord>
        <when>2025-01-01T00:06:56.8588030Z</when>
        <gx:coord>12.055178 51.552036 142.812</gx:coord>
        <when>2025-01-01T00:07:01.8598030Z</when>
        <gx:coord>12.057217 51.5515 158.05202</gx:coord>
        <when>2025-01-01T00:07:04.1278030Z</when>
        <gx:coord>12.058418 51.5512 170.244</gx:coord>
        <when>2025-01-01T00:07:06.8678030Z</when>
        <gx:coord>12.059191 51.551006 177.86401</gx:coord>
        <when>2025-01-01T00:07:11.8598030Z</when>
        <gx:coord>12.061057 51.550556 194.628</gx:coord>
        <when>2025-01-01T00:07:13.1438030Z</when>
        <gx:coord>12.06183 51.550385 202.24802</gx:coord>
        <when>2025-01-01T00:07:16.8598030Z</when>
        <gx:coord>12.062988 51.550125 212.91602</gx:coord>
        <when>2025-01-01T00:07:21.8598030Z</when>
        <gx:coord>12.064962 51.549652 228.15599</gx:coord>
        <when>2025-01-01T00:07:24.1408030Z</when>
        <gx:coord>12.066143 51.54933 234.25201</gx:coord>
        <when>2025-01-01T00:07:26.8598030Z</when>
        <gx:coord>12.0669155 51.549118 241.872</gx:coord>
        <when>2025-01-01T00:07:31.8588030Z</when>
        <gx:coord>12.068804 51.54858 258.636</gx:coord>
        <when>2025-01-01T00:07:33.1278030Z</when>
        <gx:coord>12.069554 51.54839 266.25598</gx:coord>
        <when>2025-01-01T00:07:36.8598030Z</when>
        <gx:coord>12.07067 51.548088 272.352</gx:coord>
        <when>2025-01-01T00:07:41.8598030Z</when>
        <gx:coord>12.07258 51.547573 283.02002</gx:coord>
        <when>2025-01-01T00:07:46.8598030Z</when>
        <gx:coord>12.074575 51.54706 290.64</gx:coord>
        <when>2025-01-01T00:07:50.1278030Z</when>
        <gx:coord>12.076249 51.546673 298.26</gx:coord>
        <when>2025-01-01T00:07:51.8598030Z</when>
        <gx:coord>12.076678 51.546562 301.30798</gx:coord>
        <when>2025-01-01T00:07:56.8598030Z</when>
        <gx:coord>12.078867 51.546005 315.024</gx:coord>
        <when>2025-01-01T00:08:00.1258030Z</when>
        <gx:coord>12.080605 51.545597 330.26398</gx:coord>
        <when>2025-01-01T00:08:01.8598030Z</when>
        <gx:coord>12.081034 51.545513 334.836</gx:coord>
        <when>2025-01-01T00:08:06.1408030Z</when>
        <gx:coord>12.083094 51.54502 360.74402</gx:coord>
        <when>2025-01-01T00:08:06.8658030Z</when>
        <gx:coord>12.083094 51.54502 360.74402</gx:coord>
        <when>2025-01-01T00:08:09.1378030Z</when>
        <gx:coord>12.084295 51.54474 375.984</gx:coord>
        <when>2025-01-01T00:08:11.8598030Z</when>
        <gx:coord>12.08509 51.544548 383.604</gx:coord>
        <when>2025-01-01T00:08:15.1248030Z</when>
        <gx:coord>12.086742 51.544247 391.224</gx:coord>
        <when>2025-01-01T00:08:16.1068030Z</when>
        <gx:coord>12.086742 51.544247 391.224</gx:coord>
        <when>2025-01-01T00:08:16.8598030Z</when>
        <gx:coord>12.087172 51.544224 392.748</gx:coord>
        <when>2025-01-01T00:08:19.1268030Z</when>
        <gx:coord>12.088072 51.544247 398.84402</gx:coord>
        <when>2025-01-01T00:08:20.2118030Z</when>
        <gx:coord>12.088523 51.54429 400.36798</gx:coord>
        <when>2025-01-01T00:08:21.8598030Z</when>
        <gx:coord>12.089424 51.54442 403.41602</gx:coord>
        <when>2025-01-01T00:08:23.1288030Z</when>
        <gx:coord>12.089874 51.544502 406.46402</gx:coord>
        <when>2025-01-01T00:08:25.1528030Z</when>
        <gx:coord>12.090776 51.54474 409.51202</gx:coord>
        <when>2025-01-01T00:08:26.8598030Z</when>
        <gx:coord>12.091699 51.545 414.08398</gx:coord>
        <when>2025-01-01T00:08:29.1168030Z</when>
        <gx:coord>12.092579 51.5453 421.70398</gx:coord>
        <when>2025-01-01T00:08:29.1178030Z</when>
        <gx:coord>12.093008 51.54547 426.276</gx:coord>
        <when>2025-01-01T00:08:31.8608030Z</when>
        <gx:coord>12.0937805 51.545876 433.89603</gx:coord>
        <when>2025-01-01T00:08:33.1258030Z</when>
        <gx:coord>12.094145 51.546112 436.94397</gx:coord>
        <when>2025-01-01T00:08:36.8598030Z</when>
        <gx:coord>12.095583 51.547035 444.56406</gx:coord>
        <when>2025-01-01T00:08:41.1278030Z</when>
        <gx:coord>12.097427 51.54826 461.328</gx:coord>
        <when>2025-01-01T00:08:41.8598030Z</when>
        <gx:coord>12.097427 51.54826 461.328</gx:coord>
        <when>2025-01-01T00:08:44.1248030Z</when>
        <gx:coord>12.098093 51.548733 473.52</gx:coord>
        <when>2025-01-01T00:08:46.1258030Z</when>
        <gx:coord>12.098543 51.549248 482.664</gx:coord>
        <when>2025-01-01T00:08:46.8608030Z</when>
        <gx:coord>12.098587 51.549545 485.71198</gx:coord>
        <when>2025-01-01T00:08:47.1278030Z</when>
        <gx:coord>12.098587 51.549545 485.71198</gx:coord>
        <when>2025-01-01T00:08:49.1258030Z</when>
        <gx:coord>12.09893 51.55006 491.80798</gx:coord>
        <when>2025-01-01T00:08:49.1258030Z</when>
        <gx:coord>12.099916 51.550404 493.33197</gx:coord>
        <when>2025-01-01T00:08:50.1278030Z</when>
        <gx:coord>12.099916 51.550404 493.33197</gx:coord>
        <when>2025-01-01T00:08:51.8608030Z</when>
        <gx:coord>12.100668 51.550514 497.90402</gx:coord>
        <when>2025-01-01T00:08:55.1418030Z</when>
        <gx:coord>12.101784 51.550747 505.52402</gx:coord>
        <when>2025-01-01T00:08:56.1288030Z</when>
        <gx:coord>12.1019125 51.55148 508.572</gx:coord>
        <when>2025-01-01T00:08:56.8608030Z</when>
        <gx:coord>12.102234 51.551693 511.62003</gx:coord>
        <when>2025-01-01T00:09:00.1278030Z</when>
        <gx:coord>12.103479 51.552593 523.81195</gx:coord>
        <when>2025-01-01T00:09:01.8608030Z</when>
        <gx:coord>12.103779 51.55283 525.336</gx:coord>
        <when>2025-01-01T00:09:06.8708030Z</when>
        <gx:coord>12.105368 51.553947 539.052</gx:coord>
        <when>2025-01-01T00:09:09.1348030Z</when>
        <gx:coord>12.106419 51.55457 545.148</gx:coord>
        <when>2025-01-01T00:09:11.1108030Z</when>
        <gx:coord>12.107148 51.554977 554.292</gx:coord>
        <when>2025-01-01T00:09:11.8608030Z</when>
        <gx:coord>12.107148 51.554977 554.292</gx:coord>
        <when>2025-01-01T00:09:16.8608030Z</when>
        <gx:coord>12.1090145 51.556007 572.57996</gx:coord>
        <when>2025-01-01T00:09:19.1238030Z</when>
        <gx:coord>12.110088 51.55665 586.29596</gx:coord>
        <when>2025-01-01T00:09:21.8608030Z</when>
        <gx:coord>12.110796 51.55708 593.91595</gx:coord>
        <when>2025-01-01T00:09:26.8608030Z</when>
        <gx:coord>12.112577 51.55813 606.108</gx:coord>
        <when>2025-01-01T00:09:31.1078030Z</when>
        <gx:coord>12.114401 51.55916 618.3</gx:coord>
        <when>2025-01-01T00:09:31.8608030Z</when>
        <gx:coord>12.114401 51.55916 618.3</gx:coord>
        <when>2025-01-01T00:09:36.8928030Z</when>
        <gx:coord>12.116224 51.56017 628.96796</gx:coord>
        <when>2025-01-01T00:09:41.8608030Z</when>
        <gx:coord>12.118092 51.561176 636.58795</gx:coord>
        <when>2025-01-01T00:09:45.1308030Z</when>
        <gx:coord>12.119551 51.56195 650.30396</gx:coord>
        <when>2025-01-01T00:09:46.8608030Z</when>
        <gx:coord>12.119915 51.562122 653.352</gx:coord>
        <when>2025-01-01T00:09:51.8618030Z</when>
        <gx:coord>12.121782 51.56317 651.828</gx:coord>
        <when>2025-01-01T00:09:55.1248030Z</when>
        <gx:coord>12.122984 51.56388 651.828</gx:coord>
        <when>2025-01-01T00:09:56.8618030Z</when>
        <gx:coord>12.123799 51.564373 654.876</gx:coord>
        <when>2025-01-01T00:10:01.8608030Z</when>
        <gx:coord>12.125881 51.56562 665.54407</gx:coord>
        <when>2025-01-01T00:10:02.1358030Z</when>
        <gx:coord>12.126288 51.565876 665.54407</gx:coord>
        <when>2025-01-01T00:10:06.8678030Z</when>
        <gx:coord>12.128005 51.566906 667.068</gx:coord>
        <when>2025-01-01T00:10:11.8618030Z</when>
        <gx:coord>12.130237 51.568214 667.068</gx:coord>
        <when>2025-01-01T00:10:16.1248030Z</when>
        <gx:coord>12.132082 51.569286 667.068</gx:coord>
        <when>2025-01-01T00:10:16.8618030Z</when>
        <gx:coord>12.132554 51.569565 665.54407</gx:coord>
        <when>2025-01-01T00:10:21.8618030Z</when>
        <gx:coord>12.134957 51.57096 665.54407</gx:coord>
        <when>2025-01-01T00:10:26.8618030Z</when>
        <gx:coord>12.137361 51.572334 673.164</gx:coord>
        <when>2025-01-01T00:10:31.8618030Z</when>
        <gx:coord>12.139786 51.573708 679.2601</gx:coord>
        <when>2025-01-01T00:10:32.1298030Z</when>
        <gx:coord>12.140257 51.573986 680.784</gx:coord>
        <when>2025-01-01T00:10:36.8608030Z</when>
        <gx:coord>12.142189 51.575104 680.784</gx:coord>
        <when>2025-01-01T00:10:41.8618030Z</when>
        <gx:coord>12.144592 51.57652 680.784</gx:coord>
        <when>2025-01-01T00:10:44.1398030Z</when>
        <gx:coord>12.146072 51.577354 679.2601</gx:coord>
        <when>2025-01-01T00:10:46.8618030Z</when>
        <gx:coord>12.147059 51.577934 677.73596</gx:coord>
        <when>2025-01-01T00:10:51.8618030Z</when>
        <gx:coord>12.149634 51.579353 673.164</gx:coord>
        <when>2025-01-01T00:10:56.8618030Z</when>
        <gx:coord>12.152273 51.58077 674.688</gx:coord>
        <when>2025-01-01T00:11:01.8618030Z</when>
        <gx:coord>12.15487 51.58216 674.688</gx:coord>
        <when>2025-01-01T00:11:06.8898030Z</when>
        <gx:coord>12.157509 51.583557 665.54407</gx:coord>
        <when>2025-01-01T00:11:09.1228030Z</when>
        <gx:coord>12.158583 51.584114 667.068</gx:coord>
        <when>2025-01-01T00:11:11.8618030Z</when>
        <gx:coord>12.160213 51.584908 670.11597</gx:coord>
        <when>2025-01-01T00:11:16.8618030Z</when>
        <gx:coord>12.16283 51.58626 674.688</gx:coord>
        <when>2025-01-01T00:11:21.8618030Z</when>
        <gx:coord>12.165363 51.587635 676.212</gx:coord>
        <when>2025-01-01T00:11:24.1378030Z</when>
        <gx:coord>12.166864 51.588448 676.212</gx:coord>
        <when>2025-01-01T00:11:26.8618030Z</when>
        <gx:coord>12.167873 51.588985 683.832</gx:coord>
        <when>2025-01-01T00:11:31.8618030Z</when>
        <gx:coord>12.170427 51.590317 683.832</gx:coord>
        <when>2025-01-01T00:11:36.8618030Z</when>
        <gx:coord>12.172937 51.591625 686.88007</gx:coord>
        <when>2025-01-01T00:11:41.8618030Z</when>
        <gx:coord>12.175447 51.592934 683.832</gx:coord>
        <when>2025-01-01T00:11:46.8628030Z</when>
        <gx:coord>12.177937 51.594284 680.784</gx:coord>
        <when>2025-01-01T00:11:51.8628030Z</when>
        <gx:coord>12.1804695 51.59568 674.688</gx:coord>
        <when>2025-01-01T00:11:56.8628030Z</when>
        <gx:coord>12.182959 51.597076 677.73596</gx:coord>
        <when>2025-01-01T00:12:01.8628030Z</when>
        <gx:coord>12.185426 51.598385 682.308</gx:coord>
        <when>2025-01-01T00:12:05.1348030Z</when>
        <gx:coord>12.187357 51.599373 686.88007</gx:coord>
        <when>2025-01-01T00:12:06.8688030Z</when>
        <gx:coord>12.187851 51.59961 686.88007</gx:coord>
        <when>2025-01-01T00:12:11.8958030Z</when>
        <gx:coord>12.19021 51.60083 688.404</gx:coord>
        <when>2025-01-01T00:12:16.8628030Z</when>
        <gx:coord>12.19255 51.602013 692.97595</gx:coord>
        <when>2025-01-01T00:12:22.1728030Z</when>
        <gx:coord>12.195318 51.603386 700.59607</gx:coord>
        <when>2025-01-01T00:12:26.8628030Z</when>
        <gx:coord>12.1972065 51.604263 700.59607</gx:coord>
        <when>2025-01-01T00:12:31.8628030Z</when>
        <gx:coord>12.199631 51.6054 700.59607</gx:coord>
        <when>2025-01-01T00:12:36.8628030Z</when>
        <gx:coord>12.202141 51.606583 702.12</gx:coord>
        <when>2025-01-01T00:12:41.8628030Z</when>
        <gx:coord>12.204588 51.60785 709.74</gx:coord>
        <when>2025-01-01T00:12:42.1318030Z</when>
        <gx:coord>12.205081 51.608105 712.78796</gx:coord>
        <when>2025-01-01T00:12:46.8628030Z</when>
        <gx:coord>12.206947 51.60911 724.98</gx:coord>
        <when>2025-01-01T00:12:49.1328030Z</when>
        <gx:coord>12.2083 51.609886 731.076</gx:coord>
        <when>2025-01-01T00:12:52.1198030Z</when>
        <gx:coord>12.209201 51.61038 738.696</gx:coord>
        <when>2025-01-01T00:12:56.8628030Z</when>
        <gx:coord>12.21154 51.611626 741.74396</gx:coord>
        <when>2025-01-01T00:12:57.1278030Z</when>
        <gx:coord>12.212011 51.61188 743.26807</gx:coord>
        <when>2025-01-01T00:13:01.8628030Z</when>
        <gx:coord>12.2139435 51.612934 735.648</gx:coord>
        <when>2025-01-01T00:13:06.8668030Z</when>
        <gx:coord>12.216411 51.614326 728.02795</gx:coord>
        <when>2025-01-01T00:13:11.8628030Z</when>
        <gx:coord>12.218878 51.615746 729.552</gx:coord>
        <when>2025-01-01T00:13:16.8628030Z</when>
        <gx:coord>12.22126 51.617138 732.6</gx:coord>
        <when>2025-01-01T00:13:21.8628030Z</when>
        <gx:coord>12.223663 51.618553 729.552</gx:coord>
        <when>2025-01-01T00:13:26.8628030Z</when>
        <gx:coord>12.2261095 51.619972 724.98</gx:coord>
        <when>2025-01-01T00:13:30.1368030Z</when>
        <gx:coord>12.228106 51.62111 721.93207</gx:coord>
        <when>2025-01-01T00:13:31.8628030Z</when>
        <gx:coord>12.228621 51.621387 720.40796</gx:coord>
        <when>2025-01-01T00:13:36.1258030Z</when>
        <gx:coord>12.2311735 51.622826 712.78796</gx:coord>
        <when>2025-01-01T00:13:36.8618030Z</when>
        <gx:coord>12.2311735 51.622826 712.78796</gx:coord>
        <when>2025-01-01T00:13:41.1338030Z</when>
        <gx:coord>12.233276 51.623985 705.16797</gx:coord>
        <when>2025-01-01T00:13:41.8628030Z</when>
        <gx:coord>12.233791 51.624283 703.644</gx:coord>
        <when>2025-01-01T00:13:46.8628030Z</when>
        <gx:coord>12.236452 51.625786 699.07196</gx:coord>
        <when>2025-01-01T00:13:51.8638030Z</when>
        <gx:coord>12.23907 51.62729 699.07196</gx:coord>
        <when>2025-01-01T00:13:56.8638030Z</when>
        <gx:coord>12.241688 51.62881 696.024</gx:coord>
        <when>2025-01-01T00:14:01.8638030Z</when>
        <gx:coord>12.244349 51.63029 697.548</gx:coord>
        <when>2025-01-01T00:14:06.8718030Z</when>
        <gx:coord>12.247009 51.631752 702.12</gx:coord>
        <when>2025-01-01T00:14:08.1398030Z</when>
        <gx:coord>12.24806 51.63231 702.12</gx:coord>
        <when>2025-01-01T00:14:11.8638030Z</when>
        <gx:coord>12.24967 51.633167 705.16797</gx:coord>
        <when>2025-01-01T00:14:16.8638030Z</when>
        <gx:coord>12.252352 51.634605 702.9001</gx:coord>
        <when>2025-01-01T00:14:21.8628030Z</when>
        <gx:coord>12.255077 51.636063 696.8041</gx:coord>
        <when>2025-01-01T00:14:26.8638030Z</when>
        <gx:coord>12.257824 51.637566 693.756</gx:coord>
        <when>2025-01-01T00:14:31.8628030Z</when>
        <gx:coord>12.260506 51.63911 689.1841</gx:coord>
        <when>2025-01-01T00:14:35.1258030Z</when>
        <gx:coord>12.262695 51.640354 681.5641</gx:coord>
        <when>2025-01-01T00:14:36.8638030Z</when>
        <gx:coord>12.263252 51.640656 680.04004</gx:coord>
        <when>2025-01-01T00:14:41.8638030Z</when>
        <gx:coord>12.266021 51.642242 675.4681</gx:coord>
        <when>2025-01-01T00:14:45.1458030Z</when>
        <gx:coord>12.268188 51.64349 683.0881</gx:coord>
        <when>2025-01-01T00:14:46.8638030Z</when>
        <gx:coord>12.268724 51.64381 686.136</gx:coord>
        <when>2025-01-01T00:14:51.8638030Z</when>
        <gx:coord>12.271342 51.645332 698.328</gx:coord>
        <when>2025-01-01T00:14:56.8638030Z</when>
        <gx:coord>12.27396 51.646812 708.99603</gx:coord>
        <when>2025-01-01T00:15:01.8638030Z</when>
        <gx:coord>12.2766 51.648296 708.99603</gx:coord>
        <when>2025-01-01T00:15:06.8718030Z</when>
        <gx:coord>12.279325 51.649754 707.472</gx:coord>
        <when>2025-01-01T00:15:11.8638030Z</when>
        <gx:coord>12.282157 51.651215 702.9001</gx:coord>
        <when>2025-01-01T00:15:16.8638030Z</when>
        <gx:coord>12.284882 51.65267 708.99603</gx:coord>
        <when>2025-01-01T00:15:21.8638030Z</when>
        <gx:coord>12.287542 51.654133 707.472</gx:coord>
        <when>2025-01-01T00:15:23.1378030Z</when>
        <gx:coord>12.288616 51.65471 707.472</gx:coord>
        <when>2025-01-01T00:15:26.8638030Z</when>
        <gx:coord>12.290247 51.65557 705.948</gx:coord>
        <when>2025-01-01T00:15:31.8638030Z</when>
        <gx:coord>12.293015 51.657005 705.948</gx:coord>
        <when>2025-01-01T00:15:36.8638030Z</when>
        <gx:coord>12.295761 51.658424 704.424</gx:coord>
        <when>2025-01-01T00:15:41.8638030Z</when>
        <gx:coord>12.298487 51.659904 705.948</gx:coord>
        <when>2025-01-01T00:15:46.8638030Z</when>
        <gx:coord>12.301147 51.661407 707.472</gx:coord>
        <when>2025-01-01T00:15:51.8638030Z</when>
        <gx:coord>12.303872 51.66284 701.37604</gx:coord>
        <when>2025-01-01T00:15:56.8638030Z</when>
        <gx:coord>12.306662 51.66432 692.232</gx:coord>
        <when>2025-01-01T00:16:01.1428030Z</when>
        <gx:coord>12.309387 51.66593 689.1841</gx:coord>
        <when>2025-01-01T00:16:01.8638030Z</when>
        <gx:coord>12.309387 51.66593 689.1841</gx:coord>
        <when>2025-01-01T00:16:06.8918030Z</when>
        <gx:coord>12.312069 51.667587 681.5641</gx:coord>
        <when>2025-01-01T00:16:11.8638030Z</when>
        <gx:coord>12.314795 51.66926 672.42</gx:coord>
        <when>2025-01-01T00:16:16.8638030Z</when>
        <gx:coord>12.317669 51.67089 664.8</gx:coord>
        <when>2025-01-01T00:16:21.8648030Z</when>
        <gx:coord>12.320501 51.6725 672.42</gx:coord>
        <when>2025-01-01T00:16:26.8648030Z</when>
        <gx:coord>12.32312 51.674065 687.66003</gx:coord>
        <when>2025-01-01T00:16:31.8648030Z</when>
        <gx:coord>12.325759 51.675568 689.1841</gx:coord>
        <when>2025-01-01T00:16:36.8638030Z</when>
        <gx:coord>12.328356 51.67709 689.1841</gx:coord>
        <when>2025-01-01T00:16:37.1388030Z</when>
        <gx:coord>12.328871 51.677414 689.1841</gx:coord>
        <when>2025-01-01T00:16:41.8638030Z</when>
        <gx:coord>12.330931 51.678616 692.232</gx:coord>
        <when>2025-01-01T00:16:46.8648030Z</when>
        <gx:coord>12.333548 51.680115 696.8041</gx:coord>
        <when>2025-01-01T00:16:51.8648030Z</when>
        <gx:coord>12.336187 51.6816 692.232</gx:coord>
        <when>2025-01-01T00:16:56.8648030Z</when>
        <gx:coord>12.338869 51.68312 684.612</gx:coord>
        <when>2025-01-01T00:17:01.8648030Z</when>
        <gx:coord>12.341595 51.684624 675.4681</gx:coord>
        <when>2025-01-01T00:17:06.8668030Z</when>
        <gx:coord>12.344384 51.686127 673.9441</gx:coord>
        <when>2025-01-01T00:17:11.8648030Z</when>
        <gx:coord>12.347153 51.687584 672.42</gx:coord>
        <when>2025-01-01T00:17:15.1398030Z</when>
        <gx:coord>12.349362 51.688763 670.896</gx:coord>
        <when>2025-01-01T00:17:16.8648030Z</when>
        <gx:coord>12.34992 51.68904 670.896</gx:coord>
        <when>2025-01-01T00:17:21.8648030Z</when>
        <gx:coord>12.352646 51.690544 666.32404</gx:coord>
        <when>2025-01-01T00:17:26.8648030Z</when>
        <gx:coord>12.355307 51.692112 660.2281</gx:coord>
        <when>2025-01-01T00:17:31.1278030Z</when>
        <gx:coord>12.358074 51.69372 651.084</gx:coord>
        <when>2025-01-01T00:17:31.8648030Z</when>
        <gx:coord>12.358074 51.69372 651.084</gx:coord>
        <when>2025-01-01T00:17:36.8648030Z</when>
        <gx:coord>12.360821 51.69531 654.1321</gx:coord>
        <when>2025-01-01T00:17:41.8648030Z</when>
        <gx:coord>12.363546 51.696854 661.7521</gx:coord>
        <when>2025-01-01T00:17:46.8648030Z</when>
        <gx:coord>12.366249 51.69829 664.8</gx:coord>
        <when>2025-01-01T00:17:51.8648030Z</when>
        <gx:coord>12.368889 51.69975 664.8</gx:coord>
        <when>2025-01-01T00:17:52.1478030Z</when>
        <gx:coord>12.369404 51.70005 664.8</gx:coord>
        <when>2025-01-01T00:17:56.8648030Z</when>
        <gx:coord>12.371529 51.701233 660.2281</gx:coord>
        <when>2025-01-01T00:18:01.8638030Z</when>
        <gx:coord>12.374189 51.702713 655.656</gx:coord>
        <when>2025-01-01T00:18:06.8678030Z</when>
        <gx:coord>12.376806 51.704212 658.704</gx:coord>
        <when>2025-01-01T00:18:11.8648030Z</when>
        <gx:coord>12.379403 51.705696 660.2281</gx:coord>
        <when>2025-01-01T00:18:16.8648030Z</when>
        <gx:coord>12.382021 51.707176 654.1321</gx:coord>
        <when>2025-01-01T00:18:21.8648030Z</when>
        <gx:coord>12.384682 51.708675 649.56</gx:coord>
        <when>2025-01-01T00:18:26.8648030Z</when>
        <gx:coord>12.387321 51.7102 648.036</gx:coord>
        <when>2025-01-01T00:18:30.1408030Z</when>
        <gx:coord>12.389423 51.711445 646.5121</gx:coord>
        <when>2025-01-01T00:18:31.8648030Z</when>
        <gx:coord>12.389938 51.711765 644.98804</gx:coord>
        <when>2025-01-01T00:18:36.8648030Z</when>
        <gx:coord>12.392557 51.71331 638.8921</gx:coord>
        <when>2025-01-01T00:18:41.8648030Z</when>
        <gx:coord>12.39526 51.714836 634.32</gx:coord>
        <when>2025-01-01T00:18:46.8648030Z</when>
        <gx:coord>12.398006 51.716274 638.8921</gx:coord>
        <when>2025-01-01T00:18:51.8648030Z</when>
        <gx:coord>12.400667 51.717648 646.5121</gx:coord>
        <when>2025-01-01T00:18:56.8648030Z</when>
        <gx:coord>12.403372 51.718933 643.464</gx:coord>
        <when>2025-01-01T00:19:01.8648030Z</when>
        <gx:coord>12.406054 51.72024 641.94</gx:coord>
        <when>2025-01-01T00:19:06.8758030Z</when>
        <gx:coord>12.408628 51.721596 644.98804</gx:coord>
        <when>2025-01-01T00:19:09.1418030Z</when>
        <gx:coord>12.410152 51.72241 648.036</gx:coord>
        <when>2025-01-01T00:19:11.8648030Z</when>
        <gx:coord>12.411182 51.72297 652.60803</gx:coord>
        <when>2025-01-01T00:19:16.8648030Z</when>
        <gx:coord>12.41365 51.724384 658.704</gx:coord>
        <when>2025-01-01T00:19:21.8648030Z</when>
        <gx:coord>12.416161 51.725735 660.2281</gx:coord>
        <when>2025-01-01T00:19:26.8648030Z</when>
        <gx:coord>12.4187355 51.72713 652.60803</gx:coord>
        <when>2025-01-01T00:19:31.8648030Z</when>
        <gx:coord>12.4212885 51.728546 655.656</gx:coord>
        <when>2025-01-01T00:19:36.8648030Z</when>
        <gx:coord>12.423692 51.72996 663.276</gx:coord>
        <when>2025-01-01T00:19:41.8658030Z</when>
        <gx:coord>12.426117 51.731316 660.2281</gx:coord>
        <when>2025-01-01T00:19:46.8658030Z</when>
        <gx:coord>12.428713 51.7326 663.276</gx:coord>
        <when>2025-01-01T00:19:50.1448030Z</when>
        <gx:coord>12.430794 51.733612 664.8</gx:coord>
        <when>2025-01-01T00:19:51.8658030Z</when>
        <gx:coord>12.431309 51.73389 666.32404</gx:coord>
        <when>2025-01-01T00:19:56.8648030Z</when>
        <gx:coord>12.433863 51.73524 672.42</gx:coord>
        <when>2025-01-01T00:20:01.8648030Z</when>
        <gx:coord>12.436266 51.736614 675.4681</gx:coord>
        <when>2025-01-01T00:20:06.8668030Z</when>
        <gx:coord>12.438648 51.73803 672.42</gx:coord>
        <when>2025-01-01T00:20:11.8648030Z</when>
        <gx:coord>12.44103 51.73951 672.42</gx:coord>
        <when>2025-01-01T00:20:16.8648030Z</when>
        <gx:coord>12.443411 51.74097 673.9441</gx:coord>
        <when>2025-01-01T00:20:21.8648030Z</when>
        <gx:coord>12.445728 51.74245 669.372</gx:coord>
        <when>2025-01-01T00:20:26.8648030Z</when>
        <gx:coord>12.44809 51.74402 664.8</gx:coord>
        <when>2025-01-01T00:20:30.1338030Z</when>
        <gx:coord>12.449999 51.745285 663.276</gx:coord>
        <when>2025-01-01T00:20:31.8648030Z</when>
        <gx:coord>12.450493 51.745583 661.7521</gx:coord>
        <when>2025-01-01T00:20:36.8648030Z</when>
        <gx:coord>12.452896 51.74715 660.2281</gx:coord>
        <when>2025-01-01T00:20:41.8658030Z</when>
        <gx:coord>12.455406 51.74863 661.7521</gx:coord>
        <when>2025-01-01T00:20:46.8658030Z</when>
        <gx:coord>12.457938 51.749985 663.276</gx:coord>
        <when>2025-01-01T00:20:51.8658030Z</when>
        <gx:coord>12.460621 51.751247 663.35205</gx:coord>
        <when>2025-01-01T00:20:56.8658030Z</when>
        <gx:coord>12.463303 51.75258 667.924</gx:coord>
        <when>2025-01-01T00:21:01.8658030Z</when>
        <gx:coord>12.465963 51.753952 677.06805</gx:coord>
        <when>2025-01-01T00:21:05.1348030Z</when>
        <gx:coord>12.468109 51.754982 681.64</gx:coord>
        <when>2025-01-01T00:21:06.9118030Z</when>
        <gx:coord>12.468645 51.75524 683.16406</gx:coord>
        <when>2025-01-01T00:21:10.1368030Z</when>
        <gx:coord>12.470835 51.75629 684.68805</gx:coord>
        <when>2025-01-01T00:21:11.8658030Z</when>
        <gx:coord>12.471392 51.75657 683.16406</gx:coord>
        <when>2025-01-01T00:21:16.8648030Z</when>
        <gx:coord>12.474117 51.757923 684.68805</gx:coord>
        <when>2025-01-01T00:21:21.8658030Z</when>
        <gx:coord>12.476843 51.759315 686.212</gx:coord>
        <when>2025-01-01T00:21:26.9148030Z</when>
        <gx:coord>12.479546 51.76067 684.68805</gx:coord>
        <when>2025-01-01T00:21:31.8658030Z</when>
        <gx:coord>12.482228 51.76202 681.64</gx:coord>
        <when>2025-01-01T00:21:36.8648030Z</when>
        <gx:coord>12.484889 51.763435 681.64</gx:coord>
        <when>2025-01-01T00:21:41.8658030Z</when>
        <gx:coord>12.487593 51.764874 680.11597</gx:coord>
        <when>2025-01-01T00:21:46.8658030Z</when>
        <gx:coord>12.490189 51.766354 680.11597</gx:coord>
        <when>2025-01-01T00:21:49.1368030Z</when>
        <gx:coord>12.4917555 51.767235 680.11597</gx:coord>
        <when>2025-01-01T00:21:51.8658030Z</when>
        <gx:coord>12.4927635 51.767815 680.11597</gx:coord>
        <when>2025-01-01T00:21:56.8658030Z</when>
        <gx:coord>12.495338 51.76927 678.592</gx:coord>
        <when>2025-01-01T00:22:01.8658030Z</when>
        <gx:coord>12.497913 51.77069 683.16406</gx:coord>
        <when>2025-01-01T00:22:06.8708030Z</when>
        <gx:coord>12.500488 51.772083 692.308</gx:coord>
        <when>2025-01-01T00:22:11.8658030Z</when>
        <gx:coord>12.503042 51.77348 693.832</gx:coord>
        <when>2025-01-01T00:22:16.8658030Z</when>
        <gx:coord>12.505552 51.77487 698.40405</gx:coord>
        <when>2025-01-01T00:22:21.8658030Z</when>
        <gx:coord>12.50802 51.776245 696.88007</gx:coord>
        <when>2025-01-01T00:22:26.8658030Z</when>
        <gx:coord>12.51053 51.77762 698.40405</gx:coord>
        <when>2025-01-01T00:22:29.1358030Z</when>
        <gx:coord>12.512012 51.778435 698.40405</gx:coord>
        <when>2025-01-01T00:22:31.8658030Z</when>
        <gx:coord>12.51302 51.77899 695.35596</gx:coord>
        <when>2025-01-01T00:22:36.8648030Z</when>
        <gx:coord>12.5155945 51.780346 695.35596</gx:coord>
        <when>2025-01-01T00:22:41.8658030Z</when>
        <gx:coord>12.518148 51.781696 692.308</gx:coord>
        <when>2025-01-01T00:22:46.8658030Z</when>
        <gx:coord>12.520723 51.78307 689.26</gx:coord>
        <when>2025-01-01T00:22:51.8658030Z</when>
        <gx:coord>12.523212 51.784466 690.78406</gx:coord>
        <when>2025-01-01T00:22:56.8658030Z</when>
        <gx:coord>12.5257225 51.78584 689.26</gx:coord>
        <when>2025-01-01T00:23:01.8658030Z</when>
        <gx:coord>12.528319 51.78719 689.26</gx:coord>
        <when>2025-01-01T00:23:06.8718030Z</when>
        <gx:coord>12.530851 51.788586 687.73596</gx:coord>
        <when>2025-01-01T00:23:09.1448030Z</when>
        <gx:coord>12.532331 51.789444 686.212</gx:coord>
        <when>2025-01-01T00:23:11.8658030Z</when>
        <gx:coord>12.53334 51.790024 684.68805</gx:coord>
        <when>2025-01-01T00:23:16.8658030Z</when>
        <gx:coord>12.53583 51.79148 681.64</gx:coord>
        <when>2025-01-01T00:23:21.8658030Z</when>
        <gx:coord>12.538319 51.79296 677.06805</gx:coord>
        <when>2025-01-01T00:23:26.8658030Z</when>
        <gx:coord>12.540808 51.794464 672.496</gx:coord>
        <when>2025-01-01T00:23:31.8658030Z</when>
        <gx:coord>12.543404 51.795967 675.54407</gx:coord>
        <when>2025-01-01T00:23:36.8648030Z</when>
        <gx:coord>12.5460005 51.797512 680.11597</gx:coord>
        <when>2025-01-01T00:23:41.8658030Z</when>
        <gx:coord>12.548575 51.79897 684.68805</gx:coord>
        <when>2025-01-01T00:23:46.8648030Z</when>
        <gx:coord>12.551193 51.80039 690.78406</gx:coord>
        <when>2025-01-01T00:23:48.1408030Z</when>
        <gx:coord>12.552223 51.800945 690.78406</gx:coord>
        <when>2025-01-01T00:23:51.8658030Z</when>
        <gx:coord>12.553789 51.80178 692.308</gx:coord>
        <when>2025-01-01T00:23:56.8648030Z</when>
        <gx:coord>12.556429 51.803154 692.308</gx:coord>
        <when>2025-01-01T00:24:01.8658030Z</when>
        <gx:coord>12.559047 51.80455 687.73596</gx:coord>
        <when>2025-01-01T00:24:06.8748030Z</when>
        <gx:coord>12.56175 51.805946 681.64</gx:coord>
        <when>2025-01-01T00:24:11.8658030Z</when>
        <gx:coord>12.564476 51.80738 678.592</gx:coord>
        <when>2025-01-01T00:24:16.8658030Z</when>
        <gx:coord>12.567201 51.8088 675.54407</gx:coord>
        <when>2025-01-01T00:24:21.8648030Z</when>
        <gx:coord>12.569969 51.810192 670.972</gx:coord>
        <when>2025-01-01T00:24:26.8648030Z</when>
        <gx:coord>12.57278 51.811607 666.39996</gx:coord>
        <when>2025-01-01T00:24:27.1408030Z</when>
        <gx:coord>12.573338 51.81189 666.39996</gx:coord>
        <when>2025-01-01T00:24:31.8648030Z</when>
        <gx:coord>12.575526 51.81309 661.82806</gx:coord>
        <when>2025-01-01T00:24:36.8648030Z</when>
        <gx:coord>12.578251 51.814636 661.82806</gx:coord>
        <when>2025-01-01T00:24:41.8648030Z</when>
        <gx:coord>12.5809555 51.81616 658.77997</gx:coord>
        <when>2025-01-01T00:24:46.1288030Z</when>
        <gx:coord>12.583637 51.817726 651.16</gx:coord>
        <when>2025-01-01T00:24:46.8648030Z</when>
        <gx:coord>12.583637 51.817726 651.16</gx:coord>
        <when>2025-01-01T00:24:51.8658030Z</when>
        <gx:coord>12.586319 51.81929 648.11206</gx:coord>
        <when>2025-01-01T00:24:56.8658030Z</when>
        <gx:coord>12.589045 51.820793 649.636</gx:coord>
        <when>2025-01-01T00:25:01.8648030Z</when>
        <gx:coord>12.59177 51.82223 654.20807</gx:coord>
        <when>2025-01-01T00:25:04.1358030Z</when>
        <gx:coord>12.593379 51.82309 655.73206</gx:coord>
        <when>2025-01-01T00:25:06.8648030Z</when>
        <gx:coord>12.594431 51.82367 657.256</gx:coord>
        <when>2025-01-01T00:25:11.8648030Z</when>
        <gx:coord>12.597113 51.82506 658.77997</gx:coord>
        <when>2025-01-01T00:25:15.1208030Z</when>
        <gx:coord>12.598658 51.82588 674.01996</gx:coord>
        <when>2025-01-01T00:25:15.1218030Z</when>
        <gx:coord>12.59913 51.826138 681.64</gx:coord>
        <when>2025-01-01T00:25:16.8648030Z</when>
        <gx:coord>12.599623 51.826393 687.73596</gx:coord>
        <when>2025-01-01T00:25:21.8658030Z</when>
        <gx:coord>12.601876 51.827637 709.07196</gx:coord>
        <when>2025-01-01T00:25:22.1378030Z</when>
        <gx:coord>12.602305 51.827873 712.12006</gx:coord>
        <when>2025-01-01T00:25:24.1258030Z</when>
        <gx:coord>12.602735 51.82811 716.69196</gx:coord>
        <when>2025-01-01T00:25:26.8658030Z</when>
        <gx:coord>12.603979 51.82884 725.83606</gx:coord>
        <when>2025-01-01T00:25:31.8658030Z</when>
        <gx:coord>12.606039 51.829998 736.50397</gx:coord>
        <when>2025-01-01T00:25:36.1218030Z</when>
        <gx:coord>12.608099 51.8312 744.12396</gx:coord>
        <when>2025-01-01T00:25:36.8648030Z</when>
        <gx:coord>12.608099 51.8312 744.12396</gx:coord>
        <when>2025-01-01T00:25:41.8658030Z</when>
        <gx:coord>12.610202 51.8324 747.17206</gx:coord>
        <when>2025-01-01T00:25:46.8658030Z</when>
        <gx:coord>12.61237 51.833645 751.74396</gx:coord>
        <when>2025-01-01T00:25:49.1368030Z</when>
        <gx:coord>12.613699 51.83442 750.22</gx:coord>
        <when>2025-01-01T00:25:51.8658030Z</when>
        <gx:coord>12.614601 51.834953 750.22</gx:coord>
        <when>2025-01-01T00:25:56.8658030Z</when>
        <gx:coord>12.616854 51.836308 751.74396</gx:coord>
        <when>2025-01-01T00:26:01.8658030Z</when>
        <gx:coord>12.619192 51.837616 751.74396</gx:coord>
        <when>2025-01-01T00:26:06.9028030Z</when>
        <gx:coord>12.6215315 51.838905 756.316</gx:coord>
        <when>2025-01-01T00:26:11.8648030Z</when>
        <gx:coord>12.623871 51.840214 760.88806</gx:coord>
        <when>2025-01-01T00:26:16.8648030Z</when>
        <gx:coord>12.626188 51.841476 768.50806</gx:coord>
        <when>2025-01-01T00:26:21.1218030Z</when>
        <gx:coord>12.628527 51.84268 774.60406</gx:coord>
        <when>2025-01-01T00:26:21.8648030Z</when>
        <gx:coord>12.628527 51.84268 774.60406</gx:coord>
        <when>2025-01-01T00:26:26.8648030Z</when>
        <gx:coord>12.630801 51.84388 779.17596</gx:coord>
        <when>2025-01-01T00:26:31.8648030Z</when>
        <gx:coord>12.633119 51.845104 776.12805</gx:coord>
        <when>2025-01-01T00:26:33.1328030Z</when>
        <gx:coord>12.634063 51.84562 774.60406</gx:coord>
        <when>2025-01-01T00:26:36.8678030Z</when>
        <gx:coord>12.635479 51.846394 773.07996</gx:coord>
        <when>2025-01-01T00:26:39.1238030Z</when>
        <gx:coord>12.636444 51.846928 773.07996</gx:coord>
        <when>2025-01-01T00:26:41.8648030Z</when>
        <gx:coord>12.637861 51.84772 774.60406</gx:coord>
        <when>2025-01-01T00:26:46.8648030Z</when>
        <gx:coord>12.640306 51.84901 776.12805</gx:coord>
        <when>2025-01-01T00:26:51.8648030Z</when>
        <gx:coord>12.642732 51.850277 777.652</gx:coord>
        <when>2025-01-01T00:26:57.4458030Z</when>
        <gx:coord>12.645736 51.851776 774.60406</gx:coord>
        <when>2025-01-01T00:27:01.8648030Z</when>
        <gx:coord>12.647774 51.852787 773.07996</gx:coord>
        <when>2025-01-01T00:27:06.8648030Z</when>
        <gx:coord>12.650349 51.85403 777.652</gx:coord>
        <when>2025-01-01T00:27:11.8648030Z</when>
        <gx:coord>12.652838 51.855274 780.7</gx:coord>
        <when>2025-01-01T00:27:15.1368030Z</when>
        <gx:coord>12.65477 51.856285 780.7</gx:coord>
        <when>2025-01-01T00:27:16.8648030Z</when>
        <gx:coord>12.655241 51.856564 782.22406</gx:coord>
        <when>2025-01-01T00:27:21.8648030Z</when>
        <gx:coord>12.657623 51.857872 786.79596</gx:coord>
        <when>2025-01-01T00:27:26.8648030Z</when>
        <gx:coord>12.660006 51.85918 788.32007</gx:coord>
        <when>2025-01-01T00:27:31.8648030Z</when>
        <gx:coord>12.662387 51.860554 783.748</gx:coord>
        <when>2025-01-01T00:27:36.8648030Z</when>
        <gx:coord>12.664812 51.86199 779.17596</gx:coord>
        <when>2025-01-01T00:27:41.8648030Z</when>
        <gx:coord>12.667279 51.863407 785.272</gx:coord>
        <when>2025-01-01T00:27:46.8648030Z</when>
        <gx:coord>12.669854 51.86474 785.272</gx:coord>
        <when>2025-01-01T00:27:51.8648030Z</when>
        <gx:coord>12.672472 51.866005 785.272</gx:coord>
        <when>2025-01-01T00:27:56.1368030Z</when>
        <gx:coord>12.675026 51.867355 783.748</gx:coord>
        <when>2025-01-01T00:27:56.8648030Z</when>
        <gx:coord>12.675026 51.867355 783.748</gx:coord>
        <when>2025-01-01T00:28:01.8648030Z</when>
        <gx:coord>12.677557 51.86875 776.12805</gx:coord>
        <when>2025-01-01T00:28:06.8678030Z</when>
        <gx:coord>12.68009 51.87019 773.07996</gx:coord>
        <when>2025-01-01T00:28:11.8648030Z</when>
        <gx:coord>12.6826 51.87167 771.55597</gx:coord>
        <when>2025-01-01T00:28:16.8648030Z</when>
        <gx:coord>12.685175 51.873173 763.936</gx:coord>
        <when>2025-01-01T00:28:21.8648030Z</when>
        <gx:coord>12.687815 51.874672 757.83997</gx:coord>
        <when>2025-01-01T00:28:26.1238030Z</when>
        <gx:coord>12.689896 51.875896 754.79205</gx:coord>
        <when>2025-01-01T00:28:26.8648030Z</when>
        <gx:coord>12.690411 51.876198 754.79205</gx:coord>
        <when>2025-01-01T00:28:31.8638030Z</when>
        <gx:coord>12.692986 51.877743 750.22</gx:coord>
        <when>2025-01-01T00:28:35.1288030Z</when>
        <gx:coord>12.695066 51.878986 748.696</gx:coord>
        <when>2025-01-01T00:28:36.8638030Z</when>
        <gx:coord>12.695603 51.879288 747.17206</gx:coord>
        <when>2025-01-01T00:28:37.1218030Z</when>
        <gx:coord>12.696118 51.87961 744.12396</gx:coord>
        <when>2025-01-01T00:28:41.8648030Z</when>
        <gx:coord>12.698264 51.880833 738.02795</gx:coord>
        <when>2025-01-01T00:28:46.8648030Z</when>
        <gx:coord>12.701011 51.882355 730.40796</gx:coord>
        <when>2025-01-01T00:28:51.8648030Z</when>
        <gx:coord>12.703779 51.883858 727.36</gx:coord>
        <when>2025-01-01T00:28:56.8648030Z</when>
        <gx:coord>12.706526 51.885338 727.36</gx:coord>
        <when>2025-01-01T00:29:01.8648030Z</when>
        <gx:coord>12.709208 51.886795 730.40796</gx:coord>
        <when>2025-01-01T00:29:06.8748030Z</when>
        <gx:coord>12.711803 51.88828 730.40796</gx:coord>
        <when>2025-01-01T00:29:11.8648030Z</when>
        <gx:coord>12.714443 51.889717 725.83606</gx:coord>
        <when>2025-01-01T00:29:13.1358030Z</when>
        <gx:coord>12.715538 51.890274 724.312</gx:coord>
        <when>2025-01-01T00:29:16.8648030Z</when>
        <gx:coord>12.71719 51.891132 718.21606</gx:coord>
        <when>2025-01-01T00:29:21.8648030Z</when>
        <gx:coord>12.719851 51.892654 715.16797</gx:coord>
        <when>2025-01-01T00:29:22.1198030Z</when>
        <gx:coord>12.7203865 51.892956 713.644</gx:coord>
        <when>2025-01-01T00:29:26.8648030Z</when>
        <gx:coord>12.722468 51.894222 709.07196</gx:coord>
        <when>2025-01-01T00:29:31.8648030Z</when>
        <gx:coord>12.725172 51.895744 701.45197</gx:coord>
        <when>2025-01-01T00:29:36.8648030Z</when>
        <gx:coord>12.727962 51.897247 695.35596</gx:coord>
        <when>2025-01-01T00:29:41.8648030Z</when>
        <gx:coord>12.730772 51.898727 692.308</gx:coord>
        <when>2025-01-01T00:29:46.8648030Z</when>
        <gx:coord>12.733562 51.90023 686.212</gx:coord>
        <when>2025-01-01T00:29:50.1338030Z</when>
        <gx:coord>12.73575 51.90145 684.68805</gx:coord>
        <when>2025-01-01T00:29:51.8648030Z</when>
        <gx:coord>12.736309 51.901775 684.68805</gx:coord>
        <when>2025-01-01T00:29:56.8648030Z</when>
        <gx:coord>12.738948 51.903297 683.16406</gx:coord>
        <when>2025-01-01T00:29:57.1238030Z</when>
        <gx:coord>12.739485 51.903618 681.64</gx:coord>
        <when>2025-01-01T00:30:01.8648030Z</when>
        <gx:coord>12.741631 51.904842 674.01996</gx:coord>
        <when>2025-01-01T00:30:06.8658030Z</when>
        <gx:coord>12.744355 51.906387 669.44806</gx:coord>
        <when>2025-01-01T00:30:11.8648030Z</when>
        <gx:coord>12.747124 51.907867 674.01996</gx:coord>
        <when>2025-01-01T00:30:16.8648030Z</when>
        <gx:coord>12.74987 51.90933 678.592</gx:coord>
        <when>2025-01-01T00:30:21.8648030Z</when>
        <gx:coord>12.752552 51.910786 674.47003</gx:coord>
        <when>2025-01-01T00:30:26.8648030Z</when>
        <gx:coord>12.755148 51.91231 671.422</gx:coord>
        <when>2025-01-01T00:30:28.1398030Z</when>
        <gx:coord>12.7562 51.912933 671.422</gx:coord>
        <when>2025-01-01T00:30:31.8648030Z</when>
        <gx:coord>12.757788 51.913834 671.422</gx:coord>
        <when>2025-01-01T00:30:36.8648030Z</when>
        <gx:coord>12.760427 51.915337 669.898</gx:coord>
        <when>2025-01-01T00:30:41.8648030Z</when>
        <gx:coord>12.763066 51.916794 679.042</gx:coord>
        <when>2025-01-01T00:30:46.8648030Z</when>
        <gx:coord>12.765684 51.91832 672.94604</gx:coord>
        <when>2025-01-01T00:30:51.8648030Z</when>
        <gx:coord>12.768302 51.919865 669.898</gx:coord>
        <when>2025-01-01T00:30:56.8648030Z</when>
        <gx:coord>12.77092 51.92143 668.374</gx:coord>
        <when>2025-01-01T00:31:01.8648030Z</when>
        <gx:coord>12.773602 51.922955 665.32605</gx:coord>
        <when>2025-01-01T00:31:06.1338030Z</when>
        <gx:coord>12.776306 51.924435 663.802</gx:coord>
        <when>2025-01-01T00:31:06.9098030Z</when>
        <gx:coord>12.776306 51.924435 662.278</gx:coord>
        <when>2025-01-01T00:31:11.8648030Z</when>
        <gx:coord>12.779053 51.925915 660.75397</gx:coord>
        <when>2025-01-01T00:31:16.8648030Z</when>
        <gx:coord>12.7817135 51.927372 665.32605</gx:coord>
        <when>2025-01-01T00:31:21.8638030Z</when>
        <gx:coord>12.784416 51.92881 665.32605</gx:coord>
        <when>2025-01-01T00:31:26.8648030Z</when>
        <gx:coord>12.787121 51.93025 666.85004</gx:coord>
        <when>2025-01-01T00:31:31.8638030Z</when>
        <gx:coord>12.789824 51.93173 671.422</gx:coord>
        <when>2025-01-01T00:31:36.8648030Z</when>
        <gx:coord>12.792463 51.933273 672.94604</gx:coord>
        <when>2025-01-01T00:31:41.8648030Z</when>
        <gx:coord>12.795124 51.934776 669.898</gx:coord>
        <when>2025-01-01T00:31:44.1328030Z</when>
        <gx:coord>12.796776 51.935635 669.898</gx:coord>
        <when>2025-01-01T00:31:46.8648030Z</when>
        <gx:coord>12.79785 51.936234 666.85004</gx:coord>
        <when>2025-01-01T00:31:51.8648030Z</when>
        <gx:coord>12.80051 51.93776 663.802</gx:coord>
        <when>2025-01-01T00:31:56.8648030Z</when>
        <gx:coord>12.803149 51.939323 656.182</gx:coord>
        <when>2025-01-01T00:32:01.8648030Z</when>
        <gx:coord>12.80581 51.94089 654.658</gx:coord>
        <when>2025-01-01T00:32:06.8698030Z</when>
        <gx:coord>12.808363 51.942394 663.802</gx:coord>
        <when>2025-01-01T00:32:11.8648030Z</when>
        <gx:coord>12.810831 51.94385 668.374</gx:coord>
        <when>2025-01-01T00:32:16.8648030Z</when>
        <gx:coord>12.813213 51.945312 671.422</gx:coord>
        <when>2025-01-01T00:32:21.8648030Z</when>
        <gx:coord>12.815595 51.94675 671.422</gx:coord>
        <when>2025-01-01T00:32:23.1368030Z</when>
        <gx:coord>12.816539 51.94733 671.422</gx:coord>
        <when>2025-01-01T00:32:26.8648030Z</when>
        <gx:coord>12.817955 51.948208 672.94604</gx:coord>
        <when>2025-01-01T00:32:31.8648030Z</when>
        <gx:coord>12.820293 51.949646 672.94604</gx:coord>
        <when>2025-01-01T00:32:36.8648030Z</when>
        <gx:coord>12.822697 51.95106 671.422</gx:coord>
        <when>2025-01-01T00:32:41.8648030Z</when>
        <gx:coord>12.825122 51.95248 669.898</gx:coord>
        <when>2025-01-01T00:32:46.8648030Z</when>
        <gx:coord>12.827547 51.953896 669.898</gx:coord>
        <when>2025-01-01T00:32:51.8648030Z</when>
        <gx:coord>12.82995 51.955334 674.47003</gx:coord>
        <when>2025-01-01T00:32:56.8648030Z</when>
        <gx:coord>12.83231 51.95675 675.994</gx:coord>
        <when>2025-01-01T00:33:01.8648030Z</when>
        <gx:coord>12.834692 51.958187 677.518</gx:coord>
        <when>2025-01-01T00:33:04.1228030Z</when>
        <gx:coord>12.836151 51.959045 675.994</gx:coord>
        <when>2025-01-01T00:33:06.8658030Z</when>
        <gx:coord>12.837138 51.959644 674.47003</gx:coord>
        <when>2025-01-01T00:33:11.8648030Z</when>
        <gx:coord>12.839605 51.96113 675.994</gx:coord>
        <when>2025-01-01T00:33:16.8648030Z</when>
        <gx:coord>12.842138 51.962543 677.518</gx:coord>
        <when>2025-01-01T00:33:21.8648030Z</when>
        <gx:coord>12.844755 51.963894 674.47003</gx:coord>
        <when>2025-01-01T00:33:26.8648030Z</when>
        <gx:coord>12.847395 51.96525 674.47003</gx:coord>
        <when>2025-01-01T00:33:31.8648030Z</when>
        <gx:coord>12.850035 51.966557 674.47003</gx:coord>
        <when>2025-01-01T00:33:36.8638030Z</when>
        <gx:coord>12.852695 51.967865 672.94604</gx:coord>
        <when>2025-01-01T00:33:41.8638030Z</when>
        <gx:coord>12.855442 51.969086 669.898</gx:coord>
        <when>2025-01-01T00:33:44.1348030Z</when>
        <gx:coord>12.857094 51.96982 668.374</gx:coord>
        <when>2025-01-01T00:33:46.8648030Z</when>
        <gx:coord>12.858189 51.97031 668.374</gx:coord>
        <when>2025-01-01T00:33:51.8648030Z</when>
        <gx:coord>12.860827 51.97166 666.85004</gx:coord>
        <when>2025-01-01T00:33:56.8648030Z</when>
        <gx:coord>12.863402 51.9731 668.374</gx:coord>
        <when>2025-01-01T00:34:01.8648030Z</when>
        <gx:coord>12.865934 51.97456 671.422</gx:coord>
        <when>2025-01-01T00:34:06.8738030Z</when>
        <gx:coord>12.868444 51.976017 671.422</gx:coord>
        <when>2025-01-01T00:34:11.8648030Z</when>
        <gx:coord>12.870977 51.977455 674.47003</gx:coord>
        <when>2025-01-01T00:34:16.8648030Z</when>
        <gx:coord>12.873487 51.97885 680.56604</gx:coord>
        <when>2025-01-01T00:34:21.8648030Z</when>
        <gx:coord>12.875934 51.98029 677.518</gx:coord>
        <when>2025-01-01T00:34:24.1378030Z</when>
        <gx:coord>12.877436 51.981125 675.994</gx:coord>
        <when>2025-01-01T00:34:26.8648030Z</when>
        <gx:coord>12.878466 51.981705 674.47003</gx:coord>
        <when>2025-01-01T00:34:31.8648030Z</when>
        <gx:coord>12.88102 51.983078 674.47003</gx:coord>
        <when>2025-01-01T00:34:36.8638030Z</when>
        <gx:coord>12.883573 51.984516 679.042</gx:coord>
        <when>2025-01-01T00:34:41.8648030Z</when>
        <gx:coord>12.886084 51.98593 679.042</gx:coord>
        <when>2025-01-01T00:34:46.8648030Z</when>
        <gx:coord>12.888594 51.98737 675.994</gx:coord>
        <when>2025-01-01T00:34:51.8648030Z</when>
        <gx:coord>12.891126 51.988808 682.09</gx:coord>
        <when>2025-01-01T00:34:56.8638030Z</when>
        <gx:coord>12.893615 51.990246 691.234</gx:coord>
        <when>2025-01-01T00:35:01.8638030Z</when>
        <gx:coord>12.896147 51.99164 703.426</gx:coord>
        <when>2025-01-01T00:35:04.1348030Z</when>
        <gx:coord>12.897692 51.99243 706.474</gx:coord>
        <when>2025-01-01T00:35:06.1208030Z</when>
        <gx:coord>12.898722 51.99297 712.57</gx:coord>
        <when>2025-01-01T00:35:06.8778030Z</when>
        <gx:coord>12.898722 51.99297 712.57</gx:coord>
        <when>2025-01-01T00:35:11.8638030Z</when>
        <gx:coord>12.901276 51.99432 723.23804</gx:coord>
        <when>2025-01-01T00:35:16.8648030Z</when>
        <gx:coord>12.903743 51.995716 736.95404</gx:coord>
        <when>2025-01-01T00:35:19.1288030Z</when>
        <gx:coord>12.905202 51.996574 743.05005</gx:coord>
        <when>2025-01-01T00:35:21.8648030Z</when>
        <gx:coord>12.906146 51.997154 747.622</gx:coord>
        <when>2025-01-01T00:35:26.8648030Z</when>
        <gx:coord>12.908527 51.99861 758.29004</gx:coord>
        <when>2025-01-01T00:35:31.8648030Z</when>
        <gx:coord>12.910953 52.000072 755.242</gx:coord>
        <when>2025-01-01T00:35:36.8638030Z</when>
        <gx:coord>12.913442 52.00153 764.38605</gx:coord>
        <when>2025-01-01T00:35:41.8648030Z</when>
        <gx:coord>12.915909 52.002968 767.434</gx:coord>
        <when>2025-01-01T00:35:44.1378030Z</when>
        <gx:coord>12.917412 52.00385 773.52997</gx:coord>
        <when>2025-01-01T00:35:46.8648030Z</when>
        <gx:coord>12.918442 52.004448 770.482</gx:coord>
        <when>2025-01-01T00:35:51.8648030Z</when>
        <gx:coord>12.920995 52.005974 761.338</gx:coord>
        <when>2025-01-01T00:35:56.8648030Z</when>
        <gx:coord>12.923548 52.00756 756.76605</gx:coord>
        <when>2025-01-01T00:36:01.8648030Z</when>
        <gx:coord>12.926123 52.009193 747.622</gx:coord>
        <when>2025-01-01T00:36:06.9058030Z</when>
        <gx:coord>12.928741 52.010845 743.05005</gx:coord>
        <when>2025-01-01T00:36:11.8648030Z</when>
        <gx:coord>12.931466 52.01241 741.526</gx:coord>
        <when>2025-01-01T00:36:16.8648030Z</when>
        <gx:coord>12.934277 52.01387 741.526</gx:coord>
        <when>2025-01-01T00:36:21.1368030Z</when>
        <gx:coord>12.937045 52.015285 743.05005</gx:coord>
        <when>2025-01-01T00:36:21.8648030Z</when>
        <gx:coord>12.937045 52.015285 743.05005</gx:coord>
        <when>2025-01-01T00:36:26.8648030Z</when>
        <gx:coord>12.93977 52.01668 740.002</gx:coord>
        <when>2025-01-01T00:36:31.8648030Z</when>
        <gx:coord>12.942474 52.01812 740.002</gx:coord>
        <when>2025-01-01T00:36:36.8638030Z</when>
        <gx:coord>12.945135 52.019554 741.526</gx:coord>
        <when>2025-01-01T00:36:41.8648030Z</when>
        <gx:coord>12.947796 52.020927 741.526</gx:coord>
        <when>2025-01-01T00:36:46.8648030Z</when>
        <gx:coord>12.950435 52.022346 740.002</gx:coord>
        <when>2025-01-01T00:36:51.8648030Z</when>
        <gx:coord>12.95301 52.023804 733.906</gx:coord>
        <when>2025-01-01T00:36:56.8638030Z</when>
        <gx:coord>12.955606 52.025284 727.81</gx:coord>
        <when>2025-01-01T00:37:00.1318030Z</when>
        <gx:coord>12.957752 52.02642 723.23804</gx:coord>
        <when>2025-01-01T00:37:01.8648030Z</when>
        <gx:coord>12.958288 52.026722 718.666</gx:coord>
        <when>2025-01-01T00:37:06.8758030Z</when>
        <gx:coord>12.961056 52.028137 714.094</gx:coord>
        <when>2025-01-01T00:37:07.1248030Z</when>
        <gx:coord>12.961593 52.02844 712.57</gx:coord>
        <when>2025-01-01T00:37:11.8648030Z</when>
        <gx:coord>12.963802 52.0296 711.046</gx:coord>
        <when>2025-01-01T00:37:16.8648030Z</when>
        <gx:coord>12.966593 52.03099 703.426</gx:coord>
        <when>2025-01-01T00:37:21.8648030Z</when>
        <gx:coord>12.969381 52.032475 694.28204</gx:coord>
        <when>2025-01-01T00:37:26.8638030Z</when>
        <gx:coord>12.972236 52.033955 686.66205</gx:coord>
        <when>2025-01-01T00:37:31.8648030Z</when>
        <gx:coord>12.975132 52.035347 688.18604</gx:coord>
        <when>2025-01-01T00:37:36.8638030Z</when>
        <gx:coord>12.977943 52.036785 688.18604</gx:coord>
        <when>2025-01-01T00:37:38.1358030Z</when>
        <gx:coord>12.979016 52.037388 686.66205</gx:coord>
        <when>2025-01-01T00:37:39.1198030Z</when>
        <gx:coord>12.979553 52.03771 682.09</gx:coord>
        <when>2025-01-01T00:37:41.8648030Z</when>
        <gx:coord>12.980625 52.03833 677.518</gx:coord>
        <when>2025-01-01T00:37:46.8648030Z</when>
        <gx:coord>12.98333 52.039898 668.374</gx:coord>
        <when>2025-01-01T00:37:51.8638030Z</when>
        <gx:coord>12.986118 52.04142 662.278</gx:coord>
        <when>2025-01-01T00:37:56.8638030Z</when>
        <gx:coord>12.988995 52.04288 659.23004</gx:coord>
        <when>2025-01-01T00:38:01.1258030Z</when>
        <gx:coord>12.991913 52.044426 651.61005</gx:coord>
        <when>2025-01-01T00:38:01.8648030Z</when>
        <gx:coord>12.991913 52.044426 651.61005</gx:coord>
        <when>2025-01-01T00:38:06.8718030Z</when>
        <gx:coord>12.994852 52.04599 640.942</gx:coord>
        <when>2025-01-01T00:38:11.8648030Z</when>
        <gx:coord>12.997899 52.047516 630.27405</gx:coord>
        <when>2025-01-01T00:38:14.1378030Z</when>
        <gx:coord>12.999744 52.048393 627.226</gx:coord>
        <when>2025-01-01T00:38:16.8648030Z</when>
        <gx:coord>13.000967 52.048973 633.322</gx:coord>
        <when>2025-01-01T00:38:21.8648030Z</when>
        <gx:coord>13.004015 52.05041 630.27405</gx:coord>
        <when>2025-01-01T00:38:26.8638030Z</when>
        <gx:coord>13.007019 52.051785 628.75</gx:coord>
        <when>2025-01-01T00:38:31.8648030Z</when>
        <gx:coord>13.0098295 52.053288 625.702</gx:coord>
        <when>2025-01-01T00:38:35.1218030Z</when>
        <gx:coord>13.011932 52.054573 621.13</gx:coord>
        <when>2025-01-01T00:38:36.8638030Z</when>
        <gx:coord>13.012426 52.054916 619.606</gx:coord>
        <when>2025-01-01T00:38:41.8638030Z</when>
        <gx:coord>13.015001 52.05659 616.558</gx:coord>
        <when>2025-01-01T00:38:46.8638030Z</when>
        <gx:coord>13.017576 52.0582 615.034</gx:coord>
        <when>2025-01-01T00:38:51.1318030Z</when>
        <gx:coord>13.020172 52.05977 611.986</gx:coord>
        <when>2025-01-01T00:38:51.8638030Z</when>
        <gx:coord>13.020172 52.05977 611.986</gx:coord>
        <when>2025-01-01T00:38:56.8648030Z</when>
        <gx:coord>13.022768 52.06129 615.034</gx:coord>
        <when>2025-01-01T00:39:01.8648030Z</when>
        <gx:coord>13.025257 52.06275 622.654</gx:coord>
        <when>2025-01-01T00:39:06.8728030Z</when>
        <gx:coord>13.027746 52.064167 621.13</gx:coord>
        <when>2025-01-01T00:39:11.8648030Z</when>
        <gx:coord>13.030214 52.065582 621.13</gx:coord>
        <when>2025-01-01T00:39:16.8648030Z</when>
        <gx:coord>13.0326605 52.066998 622.654</gx:coord>
        <when>2025-01-01T00:39:21.8648030Z</when>
        <gx:coord>13.035107 52.068413 627.226</gx:coord>
        <when>2025-01-01T00:39:26.8648030Z</when>
        <gx:coord>13.037553 52.06983 630.27405</gx:coord>
        <when>2025-01-01T00:39:31.1368030Z</when>
        <gx:coord>13.040064 52.071224 625.702</gx:coord>
        <when>2025-01-01T00:39:31.8648030Z</when>
        <gx:coord>13.040064 52.071224 624.178</gx:coord>
        <when>2025-01-01T00:39:36.8638030Z</when>
        <gx:coord>13.042639 52.072598 613.51</gx:coord>
        <when>2025-01-01T00:39:41.8638030Z</when>
        <gx:coord>13.045235 52.07397 610.462</gx:coord>
        <when>2025-01-01T00:39:46.8648030Z</when>
        <gx:coord>13.047724 52.075325 611.986</gx:coord>
        <when>2025-01-01T00:39:49.1208030Z</when>
        <gx:coord>13.048711 52.07584 613.51</gx:coord>
        <when>2025-01-01T00:39:51.8648030Z</when>
        <gx:coord>13.050213 52.07661 611.986</gx:coord>
        <when>2025-01-01T00:39:56.8648030Z</when>
        <gx:coord>13.052723 52.07792 607.414</gx:coord>
        <when>2025-01-01T00:40:01.8648030Z</when>
        <gx:coord>13.055277 52.07923 598.27</gx:coord>
        <when>2025-01-01T00:40:06.8668030Z</when>
        <gx:coord>13.057917 52.08056 593.698</gx:coord>
        <when>2025-01-01T00:40:11.8648030Z</when>
        <gx:coord>13.060534 52.08189 595.222</gx:coord>
        <when>2025-01-01T00:40:12.1258030Z</when>
        <gx:coord>13.0610485 52.082146 595.222</gx:coord>
        <when>2025-01-01T00:40:16.8648030Z</when>
        <gx:coord>13.0630665 52.08324 593.698</gx:coord>
        <when>2025-01-01T00:40:17.1248030Z</when>
        <gx:coord>13.063581 52.08352 589.126</gx:coord>
        <when>2025-01-01T00:40:21.8648030Z</when>
        <gx:coord>13.065577 52.084637 589.126</gx:coord>
        <when>2025-01-01T00:40:26.8648030Z</when>
        <gx:coord>13.067937 52.086075 596.746</gx:coord>
        <when>2025-01-01T00:40:31.8648030Z</when>
        <gx:coord>13.070211 52.08749 599.794</gx:coord>
        <when>2025-01-01T00:40:36.8638030Z</when>
        <gx:coord>13.072594 52.088863 601.318</gx:coord>
        <when>2025-01-01T00:40:41.8648030Z</when>
        <gx:coord>13.074889 52.09017 616.558</gx:coord>
        <when>2025-01-01T00:40:44.1228030Z</when>
        <gx:coord>13.076241 52.090923 619.606</gx:coord>
        <when>2025-01-01T00:40:46.8648030Z</when>
        <gx:coord>13.077143 52.091415 622.654</gx:coord>
        <when>2025-01-01T00:40:51.8648030Z</when>
        <gx:coord>13.079352 52.09264 627.226</gx:coord>
        <when>2025-01-01T00:40:55.1278030Z</when>
        <gx:coord>13.081133 52.09365 627.226</gx:coord>
        <when>2025-01-01T00:40:56.8648030Z</when>
        <gx:coord>13.081584 52.093906 628.75</gx:coord>
        <when>2025-01-01T00:41:01.8648030Z</when>
        <gx:coord>13.0838375 52.09515 640.942</gx:coord>
        <when>2025-01-01T00:41:06.9138030Z</when>
        <gx:coord>13.08609 52.09635 645.51404</gx:coord>
        <when>2025-01-01T00:41:09.1208030Z</when>
        <gx:coord>13.08742 52.097084 650.086</gx:coord>
        <when>2025-01-01T00:41:11.8648030Z</when>
        <gx:coord>13.088301 52.097576 651.61005</gx:coord>
        <when>2025-01-01T00:41:16.8648030Z</when>
        <gx:coord>13.090574 52.0988 653.13403</gx:coord>
        <when>2025-01-01T00:41:21.8648030Z</when>
        <gx:coord>13.092936 52.10002 663.802</gx:coord>
        <when>2025-01-01T00:41:26.8648030Z</when>
        <gx:coord>13.095339 52.101288 672.94604</gx:coord>
        <when>2025-01-01T00:41:31.8648030Z</when>
        <gx:coord>13.09772 52.10266 671.422</gx:coord>
        <when>2025-01-01T00:41:36.8638030Z</when>
        <gx:coord>13.100187 52.104076 674.47003</gx:coord>
        <when>2025-01-01T00:41:39.1458030Z</when>
        <gx:coord>13.10169 52.104958 674.47003</gx:coord>
        <when>2025-01-01T00:41:41.8648030Z</when>
        <gx:coord>13.102676 52.105556 675.994</gx:coord>
        <when>2025-01-01T00:41:46.8648030Z</when>
        <gx:coord>13.105102 52.107082 675.994</gx:coord>
        <when>2025-01-01T00:41:51.8648030Z</when>
        <gx:coord>13.107483 52.10867 671.422</gx:coord>
        <when>2025-01-01T00:41:56.8638030Z</when>
        <gx:coord>13.10993 52.110256 659.23004</gx:coord>
        <when>2025-01-01T00:41:59.1178030Z</when>
        <gx:coord>13.11096 52.1109 654.658</gx:coord>
        <when>2025-01-01T00:42:01.8648030Z</when>
        <gx:coord>13.112505 52.111824 648.562</gx:coord>
        <when>2025-01-01T00:42:06.8638030Z</when>
        <gx:coord>13.115122 52.113388 645.51404</gx:coord>
        <when>2025-01-01T00:42:11.8638030Z</when>
        <gx:coord>13.117719 52.114956 647.038</gx:coord>
        <when>2025-01-01T00:42:16.8638030Z</when>
        <gx:coord>13.120316 52.116478 643.99</gx:coord>
        <when>2025-01-01T00:42:17.1248030Z</when>
        <gx:coord>13.1208515 52.11678 643.99</gx:coord>
        <when>2025-01-01T00:42:21.8638030Z</when>
        <gx:coord>13.123018 52.11798 630.27405</gx:coord>
        <when>2025-01-01T00:42:24.1168030Z</when>
        <gx:coord>13.124693 52.118927 619.606</gx:coord>
        <when>2025-01-01T00:42:26.8638030Z</when>
        <gx:coord>13.12583 52.11955 613.51</gx:coord>
        <when>2025-01-01T00:42:31.8638030Z</when>
        <gx:coord>13.128705 52.12116 599.794</gx:coord>
        <when>2025-01-01T00:42:36.8648030Z</when>
        <gx:coord>13.131645 52.122704 596.746</gx:coord>
        <when>2025-01-01T00:42:41.8638030Z</when>
        <gx:coord>13.134563 52.124184 596.746</gx:coord>
        <when>2025-01-01T00:42:46.8638030Z</when>
        <gx:coord>13.13746 52.1256 590.65</gx:coord>
        <when>2025-01-01T00:42:48.1208030Z</when>
        <gx:coord>13.138639 52.126156 589.126</gx:coord>
        <when>2025-01-01T00:42:51.8648030Z</when>
        <gx:coord>13.1404 52.126995 589.126</gx:coord>
        <when>2025-01-01T00:42:53.1548030Z</when>
        <gx:coord>13.141516 52.127552 589.126</gx:coord>
        <when>2025-01-01T00:42:56.8648030Z</when>
        <gx:coord>13.143125 52.128452 596.746</gx:coord>
        <when>2025-01-01T00:43:01.8638030Z</when>
        <gx:coord>13.145592 52.13002 596.746</gx:coord>
        <when>2025-01-01T00:43:04.1508030Z</when>
        <gx:coord>13.146515 52.130642 598.27</gx:coord>
        <when>2025-01-01T00:43:06.8638030Z</when>
        <gx:coord>13.147802 52.131565 599.794</gx:coord>
        <when>2025-01-01T00:43:09.1208030Z</when>
        <gx:coord>13.14864 52.13221 599.794</gx:coord>
        <when>2025-01-01T00:43:11.8638030Z</when>
        <gx:coord>13.149862 52.133133 598.27</gx:coord>
        <when>2025-01-01T00:43:16.8648030Z</when>
        <gx:coord>13.151943 52.134613 593.698</gx:coord>
        <when>2025-01-01T00:43:21.8648030Z</when>
        <gx:coord>13.154089 52.13607 587.602</gx:coord>
        <when>2025-01-01T00:43:26.8648030Z</when>
        <gx:coord>13.156279 52.137486 579.982</gx:coord>
        <when>2025-01-01T00:43:31.8648030Z</when>
        <gx:coord>13.158531 52.138905 569.314</gx:coord>
        <when>2025-01-01T00:43:34.1248030Z</when>
        <gx:coord>13.159925 52.139763 564.742</gx:coord>
        <when>2025-01-01T00:43:36.1518030Z</when>
        <gx:coord>13.160828 52.14032 557.122</gx:coord>
        <when>2025-01-01T00:43:36.8638030Z</when>
        <gx:coord>13.160828 52.14032 557.122</gx:coord>
        <when>2025-01-01T00:43:41.1548030Z</when>
        <gx:coord>13.1624365 52.141586 549.502</gx:coord>
        <when>2025-01-01T00:43:41.8658030Z</when>
        <gx:coord>13.162758 52.14195 547.978</gx:coord>
        <when>2025-01-01T00:43:44.1188030Z</when>
        <gx:coord>13.163295 52.142723 544.93</gx:coord>
        <when>2025-01-01T00:43:46.8648030Z</when>
        <gx:coord>13.163746 52.143967 535.786</gx:coord>
        <when>2025-01-01T00:43:49.1418030Z</when>
        <gx:coord>13.1639385 52.144825 528.166</gx:coord>
        <when>2025-01-01T00:43:49.1418030Z</when>
        <gx:coord>13.1639385 52.144825 528.166</gx:coord>
        <when>2025-01-01T00:43:49.1418030Z</when>
        <gx:coord>13.164003 52.145275 525.118</gx:coord>
        <when>2025-01-01T00:43:51.8648030Z</when>
        <gx:coord>13.164067 52.14618 517.498</gx:coord>
        <when>2025-01-01T00:43:56.8648030Z</when>
        <gx:coord>13.164196 52.148518 509.87802</gx:coord>
        <when>2025-01-01T00:44:01.8648030Z</when>
        <gx:coord>13.1644535 52.15079 514.45</gx:coord>
        <when>2025-01-01T00:44:02.1438030Z</when>
        <gx:coord>13.164518 52.15122 514.45</gx:coord>
        <when>2025-01-01T00:44:06.8688030Z</when>
        <gx:coord>13.164926 52.152958 511.40198</gx:coord>
        <when>2025-01-01T00:44:11.8648030Z</when>
        <gx:coord>13.165634 52.155083 497.68597</gx:coord>
        <when>2025-01-01T00:44:13.1398030Z</when>
        <gx:coord>13.165956 52.15592 491.59003</gx:coord>
        <when>2025-01-01T00:44:14.1128030Z</when>
        <gx:coord>13.166127 52.15635 491.59003</gx:coord>
        <when>2025-01-01T00:44:16.8648030Z</when>
        <gx:coord>13.166492 52.157166 485.49402</gx:coord>
        <when>2025-01-01T00:44:17.1438030Z</when>
        <gx:coord>13.166492 52.157166 485.49402</gx:coord>
        <when>2025-01-01T00:44:21.8648030Z</when>
        <gx:coord>13.167608 52.15918 464.158</gx:coord>
        <when>2025-01-01T00:44:22.1128030Z</when>
        <gx:coord>13.167866 52.15957 459.58603</gx:coord>
        <when>2025-01-01T00:44:26.8648030Z</when>
        <gx:coord>13.168831 52.161156 448.91803</gx:coord>
        <when>2025-01-01T00:44:31.8648030Z</when>
        <gx:coord>13.170183 52.163063 436.726</gx:coord>
        <when>2025-01-01T00:44:34.1218030Z</when>
        <gx:coord>13.170762 52.163815 430.63</gx:coord>
        <when>2025-01-01T00:44:34.1218030Z</when>
        <gx:coord>13.171083 52.16418 429.106</gx:coord>
        <when>2025-01-01T00:44:36.8638030Z</when>
        <gx:coord>13.171684 52.164932 424.53403</gx:coord>
        <when>2025-01-01T00:44:40.1178030Z</when>
        <gx:coord>13.172415 52.16611 418.438</gx:coord>
        <when>2025-01-01T00:44:41.8648030Z</when>
        <gx:coord>13.172736 52.166927 427.58203</gx:coord>
        <when>2025-01-01T00:44:44.0968030Z</when>
        <gx:coord>13.17293 52.167786 421.48602</gx:coord>
        <when>2025-01-01T00:44:45.1348030Z</when>
        <gx:coord>13.172951 52.168213 418.438</gx:coord>
        <when>2025-01-01T00:44:46.8648030Z</when>
        <gx:coord>13.172865 52.16907 412.342</gx:coord>
        <when>2025-01-01T00:44:48.0978030Z</when>
        <gx:coord>13.172736 52.169525 409.294</gx:coord>
        <when>2025-01-01T00:44:51.1188030Z</when>
        <gx:coord>13.172092 52.17081 401.674</gx:coord>
        <when>2025-01-01T00:44:51.8648030Z</when>
        <gx:coord>13.171792 52.17122 401.674</gx:coord>
        <when>2025-01-01T00:44:53.1068030Z</when>
        <gx:coord>13.171105 52.172035 397.102</gx:coord>
        <when>2025-01-01T00:44:55.1368030Z</when>
        <gx:coord>13.170719 52.17242 394.054</gx:coord>
        <when>2025-01-01T00:44:56.1248030Z</when>
        <gx:coord>13.169818 52.17315 392.53003</gx:coord>
        <when>2025-01-01T00:44:56.8638030Z</when>
        <gx:coord>13.169818 52.17315 392.53003</gx:coord>
        <when>2025-01-01T00:44:58.1298030Z</when>
        <gx:coord>13.169325 52.17347 391.006</gx:coord>
        <when>2025-01-01T00:45:01.1168030Z</when>
        <gx:coord>13.167608 52.17435 386.434</gx:coord>
        <when>2025-01-01T00:45:01.8638030Z</when>
        <gx:coord>13.166964 52.174587 383.386</gx:coord>
        <when>2025-01-01T00:45:04.1038030Z</when>
        <gx:coord>13.165634 52.17502 368.14603</gx:coord>
        <when>2025-01-01T00:45:04.1038030Z</when>
        <gx:coord>13.164926 52.175186 363.574</gx:coord>
        <when>2025-01-01T00:45:06.8658030Z</when>
        <gx:coord>13.1634445 52.175446 354.43002</gx:coord>
        <when>2025-01-01T00:45:09.1148030Z</when>
        <gx:coord>13.1619215 52.17566 345.286</gx:coord>
        <when>2025-01-01T00:45:11.1218030Z</when>
        <gx:coord>13.160355 52.17579 334.618</gx:coord>
        <when>2025-01-01T00:45:11.1228030Z</when>
        <gx:coord>13.15954 52.175854 328.522</gx:coord>
        <when>2025-01-01T00:45:11.8648030Z</when>
        <gx:coord>13.15954 52.175854 328.522</gx:coord>
        <when>2025-01-01T00:45:16.8648030Z</when>
        <gx:coord>13.155613 52.176132 323.95</gx:coord>
        <when>2025-01-01T00:45:20.1148030Z</when>
        <gx:coord>13.1533165 52.176216 316.33</gx:coord>
        <when>2025-01-01T00:45:21.8648030Z</when>
        <gx:coord>13.1517935 52.176155 311.758</gx:coord>
        <when>2025-01-01T00:45:26.1198030Z</when>
        <gx:coord>13.147974 52.175854 298.042</gx:coord>
        <when>2025-01-01T00:45:26.8648030Z</when>
        <gx:coord>13.147974 52.175854 298.042</gx:coord>
        <when>2025-01-01T00:45:31.8648030Z</when>
        <gx:coord>13.144047 52.175423 279.754</gx:coord>
        <when>2025-01-01T00:45:33.1188030Z</when>
        <gx:coord>13.142416 52.17534 281.278</gx:coord>
        <when>2025-01-01T00:45:36.1308030Z</when>
        <gx:coord>13.14085 52.175423 288.898</gx:coord>
        <when>2025-01-01T00:45:36.8648030Z</when>
        <gx:coord>13.1401205 52.17553 294.994</gx:coord>
        <when>2025-01-01T00:45:38.1128030Z</when>
        <gx:coord>13.139412 52.17566 298.042</gx:coord>
        <when>2025-01-01T00:45:38.1138030Z</when>
        <gx:coord>13.139412 52.17566 298.042</gx:coord>
        <when>2025-01-01T00:45:40.1248030Z</when>
        <gx:coord>13.138124 52.176067 302.614</gx:coord>
        <when>2025-01-01T00:45:41.8648030Z</when>
        <gx:coord>13.137053 52.176605 302.614</gx:coord>
        <when>2025-01-01T00:45:42.1178030Z</when>
        <gx:coord>13.137053 52.176605 302.614</gx:coord>
        <when>2025-01-01T00:45:43.1468030Z</when>
        <gx:coord>13.136623 52.176903 304.138</gx:coord>
        <when>2025-01-01T00:45:44.1198030Z</when>
        <gx:coord>13.13628 52.177246 307.186</gx:coord>
        <when>2025-01-01T00:45:46.1218030Z</when>
        <gx:coord>13.135851 52.177956 314.80603</gx:coord>
        <when>2025-01-01T00:45:46.8648030Z</when>
        <gx:coord>13.135721 52.1783 314.80603</gx:coord>
        <when>2025-01-01T00:45:47.1258030Z</when>
        <gx:coord>13.135721 52.1783 314.80603</gx:coord>
        <when>2025-01-01T00:45:51.8648030Z</when>
        <gx:coord>13.135422 52.180016 310.234</gx:coord>
        <when>2025-01-01T00:45:56.8648030Z</when>
        <gx:coord>13.134907 52.18184 301.09</gx:coord>
        <when>2025-01-01T00:46:01.8648030Z</when>
        <gx:coord>13.133984 52.18371 294.994</gx:coord>
        <when>2025-01-01T00:46:06.8878030Z</when>
        <gx:coord>13.1330185 52.185467 298.042</gx:coord>
        <when>2025-01-01T00:46:11.8648030Z</when>
        <gx:coord>13.132202 52.18712 296.518</gx:coord>
        <when>2025-01-01T00:46:16.8648030Z</when>
        <gx:coord>13.1314945 52.188705 282.802</gx:coord>
        <when>2025-01-01T00:46:21.1138030Z</when>
        <gx:coord>13.130829 52.19034 266.038</gx:coord>
        <when>2025-01-01T00:46:21.8648030Z</when>
        <gx:coord>13.130829 52.19034 266.038</gx:coord>
        <when>2025-01-01T00:46:22.1128030Z</when>
        <gx:coord>13.130701 52.19066 266.038</gx:coord>
        <when>2025-01-01T00:46:26.8648030Z</when>
        <gx:coord>13.13025 52.191948 256.894</gx:coord>
        <when>2025-01-01T00:46:31.8648030Z</when>
        <gx:coord>13.129799 52.193535 238.606</gx:coord>
        <when>2025-01-01T00:46:33.1148030Z</when>
        <gx:coord>13.129627 52.19418 232.51001</gx:coord>
        <when>2025-01-01T00:46:36.8648030Z</when>
        <gx:coord>13.1294775 52.195145 223.366</gx:coord>
        <when>2025-01-01T00:46:37.1058030Z</when>
        <gx:coord>13.1294775 52.195145 223.366</gx:coord>
        <when>2025-01-01T00:46:40.1188030Z</when>
        <gx:coord>13.129585 52.19611 214.22202</gx:coord>
        <when>2025-01-01T00:46:41.8648030Z</when>
        <gx:coord>13.129843 52.19673 208.12602</gx:coord>
        <when>2025-01-01T00:46:42.1238030Z</when>
        <gx:coord>13.129843 52.19673 208.12602</gx:coord>
        <when>2025-01-01T00:46:43.1228030Z</when>
        <gx:coord>13.130035 52.19701 206.60202</gx:coord>
        <when>2025-01-01T00:46:44.1098030Z</when>
        <gx:coord>13.130486 52.197548 198.982</gx:coord>
        <when>2025-01-01T00:46:46.1218030Z</when>
        <gx:coord>13.130765 52.197803 195.93402</gx:coord>
        <when>2025-01-01T00:46:46.8648030Z</when>
        <gx:coord>13.131065 52.19804 192.886</gx:coord>
        <when>2025-01-01T00:46:50.1058030Z</when>
        <gx:coord>13.132116 52.198708 183.74202</gx:coord>
        <when>2025-01-01T00:46:51.8648030Z</when>
        <gx:coord>13.132889 52.199093 177.646</gx:coord>
        <when>2025-01-01T00:46:54.1188030Z</when>
        <gx:coord>13.133683 52.199413 173.07402</gx:coord>
        <when>2025-01-01T00:46:56.1278030Z</when>
        <gx:coord>13.134907 52.19982 166.978</gx:coord>
        <when>2025-01-01T00:46:56.8648030Z</when>
        <gx:coord>13.134907 52.19982 166.978</gx:coord>
        <when>2025-01-01T00:47:01.8658030Z</when>
        <gx:coord>13.136945 52.200336 148.69</gx:coord>
        <when>2025-01-01T00:47:02.1258030Z</when>
        <gx:coord>13.136945 52.200336 148.69</gx:coord>
        <when>2025-01-01T00:47:02.1258030Z</when>
        <gx:coord>13.136945 52.200336 148.69</gx:coord>
        <when>2025-01-01T00:47:06.1178030Z</when>
        <gx:coord>13.138941 52.200657 133.45</gx:coord>
        <when>2025-01-01T00:47:06.8678030Z</when>
        <gx:coord>13.138941 52.200657 133.45</gx:coord>
        <when>2025-01-01T00:47:11.8658030Z</when>
        <gx:coord>13.140871 52.200935 116.686005</gx:coord>
        <when>2025-01-01T00:47:16.1168030Z</when>
        <gx:coord>13.142717 52.20126 99.922</gx:coord>
        <when>2025-01-01T00:47:16.8658030Z</when>
        <gx:coord>13.142717 52.20126 99.922</gx:coord>
        <when>2025-01-01T00:47:21.8648030Z</when>
        <gx:coord>13.144648 52.201538 86.20602</gx:coord>
        <when>2025-01-01T00:47:26.8658030Z</when>
        <gx:coord>13.146558 52.20184 74.01399</gx:coord>
        <when>2025-01-01T00:47:28.1138030Z</when>
        <gx:coord>13.14733 52.201946 67.918</gx:coord>
        <when>2025-01-01T00:47:31.8658030Z</when>
        <gx:coord>13.148446 52.202118 58.774</gx:coord>
        <when>2025-01-01T00:47:36.1198030Z</when>
        <gx:coord>13.150249 52.202396 49.630005</gx:coord>
        <when>2025-01-01T00:47:36.8658030Z</when>
        <gx:coord>13.150249 52.202396 48.106</gx:coord>
        <when>2025-01-01T00:47:37.1148030Z</when>
        <gx:coord>13.150249 52.202396 48.106</gx:coord>
        <when>2025-01-01T00:47:41.8658030Z</when>
        <gx:coord>13.151836 52.202652 45.057995</gx:coord>
        <when>2025-01-01T00:47:44.1158030Z</when>
        <gx:coord>13.152394 52.20274 45.057995</gx:coord>
        <when>2025-01-01T00:47:46.8658030Z</when>
        <gx:coord>13.153145 52.202847 45.057995</gx:coord>
        <when>2025-01-01T00:47:48.1128030Z</when>
        <gx:coord>13.15336 52.20287 45.057995</gx:coord>
        <when>2025-01-01T00:47:51.1128030Z</when>
        <gx:coord>13.1538315 52.202934 45.057995</gx:coord>
        <when>2025-01-01T00:47:51.8658030Z</when>
        <gx:coord>13.153917 52.202953 45.057995</gx:coord>
        <when>2025-01-01T00:47:56.1198030Z</when>
        <gx:coord>13.154154 52.202995 45.057995</gx:coord>
        <when>2025-01-01T00:47:56.8658030Z</when>
        <gx:coord>13.154175 52.20302 45.057995</gx:coord>
        <when>2025-01-01T00:47:58.1198030Z</when>
        <gx:coord>13.154219 52.20304 45.057995</gx:coord>
        <when>2025-01-01T00:47:59.1108030Z</when>
        <gx:coord>13.15424 52.20306 45.057995</gx:coord>
        <when>2025-01-01T00:47:59.1798030Z</when>
        <gx:coord>13.15424 52.20306 45.057995</gx:coord>
        <when>2025-01-01T00:48:00.1068030Z</when>
        <gx:coord>13.154261 52.203106 45.057995</gx:coord>
        <when>2025-01-01T00:48:01.1178030Z</when>
        <gx:coord>13.154261 52.203148 45.057995</gx:coord>
        <when>2025-01-01T00:48:01.8658030Z</when>
        <gx:coord>13.154261 52.20317 45.057995</gx:coord>
        <when>2025-01-01T00:48:03.1138030Z</when>
        <gx:coord>13.15424 52.203213 45.057995</gx:coord>
        <when>2025-01-01T00:48:05.1178030Z</when>
        <gx:coord>13.154219 52.203278 45.057995</gx:coord>
        <when>2025-01-01T00:48:06.8658030Z</when>
        <gx:coord>13.154175 52.20332 45.057995</gx:coord>
        <when>2025-01-01T00:48:08.1188030Z</when>
        <gx:coord>13.154154 52.20332 45.057995</gx:coord>
        <when>2025-01-01T00:48:08.1188030Z</when>
        <gx:coord>13.154154 52.20332 45.057995</gx:coord>
        <when>2025-01-01T00:48:10.1138030Z</when>
        <gx:coord>13.154111 52.20334 45.057995</gx:coord>
        <when>2025-01-01T00:48:11.8658030Z</when>
        <gx:coord>13.154089 52.20336 45.057995</gx:coord>
        <when>2025-01-01T00:48:16.8658030Z</when>
        <gx:coord>13.154068 52.20336 45.057995</gx:coord>
        <when>2025-01-01T00:48:21.8658030Z</when>
        <gx:coord>13.153982 52.203384 45.057995</gx:coord>
        <when>2025-01-01T00:48:26.8658030Z</when>
        <gx:coord>13.153961 52.203403 45.057995</gx:coord>
        <when>2025-01-01T00:48:31.8658030Z</when>
        <gx:coord>13.153961 52.203403 45.057995</gx:coord>
        <when>2025-01-01T00:48:36.8658030Z</when>
        <gx:coord>13.153961 52.203403 45.057995</gx:coord>
        <when>2025-01-01T00:48:41.8658030Z</when>
        <gx:coord>13.153961 52.203403 45.057995</gx:coord>
        <when>2025-01-01T00:48:46.8658030Z</when>
        <gx:coord>13.153875 52.203426 45.057995</gx:coord>
        <when>2025-01-01T00:48:51.8658030Z</when>
        <gx:coord>13.153768 52.20347 45.057995</gx:coord>
        <when>2025-01-01T00:48:56.8658030Z</when>
        <gx:coord>13.153639 52.203514 45.057995</gx:coord>
        <when>2025-01-01T00:49:01.8658030Z</when>
        <gx:coord>13.153532 52.203556 46.582</gx:coord>
        <when>2025-01-01T00:49:06.8748030Z</when>
        <gx:coord>13.153424 52.203598 46.582</gx:coord>
        <when>2025-01-01T00:49:11.8658030Z</when>
        <gx:coord>13.15336 52.20362 46.582</gx:coord>
        <when>2025-01-01T00:49:16.8658030Z</when>
        <gx:coord>13.15321 52.203663 46.582</gx:coord>
        <when>2025-01-01T00:49:20.1068030Z</when>
        <gx:coord>13.153103 52.203705 46.582</gx:coord>
        <when>2025-01-01T00:49:21.8658030Z</when>
        <gx:coord>13.153059 52.203747 46.582</gx:coord>
        <when>2025-01-01T00:49:22.0958030Z</when>
        <gx:coord>13.153059 52.203747 46.582</gx:coord>
        <when>2025-01-01T00:49:26.8658030Z</when>
        <gx:coord>13.152995 52.203857 46.582</gx:coord>
        <when>2025-01-01T00:49:31.8658030Z</when>
        <gx:coord>13.152931 52.203983 46.582</gx:coord>
        <when>2025-01-01T00:49:36.8658030Z</when>
        <gx:coord>13.152887 52.204113 46.582</gx:coord>
        <when>2025-01-01T00:49:41.8658030Z</when>
        <gx:coord>13.152823 52.20426 46.582</gx:coord>
        <when>2025-01-01T00:49:45.1058030Z</when>
        <gx:coord>13.1528015 52.204327 46.582</gx:coord>
        <when>2025-01-01T00:49:46.0988030Z</when>
        <gx:coord>13.152781 52.20435 46.582</gx:coord>
        <when>2025-01-01T00:49:46.8658030Z</when>
        <gx:coord>13.15276 52.20435 46.582</gx:coord>
        <when>2025-01-01T00:49:47.1018030Z</when>
        <gx:coord>13.15276 52.20435 46.582</gx:coord>
        <when>2025-01-01T00:49:48.0978030Z</when>
        <gx:coord>13.152716 52.20435 46.582</gx:coord>
        <when>2025-01-01T00:49:51.8668030Z</when>
        <gx:coord>13.152544 52.204327 46.582</gx:coord>
        <when>2025-01-01T00:49:56.8668030Z</when>
        <gx:coord>13.152372 52.204308 46.582</gx:coord>
        <when>2025-01-01T00:49:58.1118030Z</when>
        <gx:coord>13.15233 52.204308 46.582</gx:coord>
        <when>2025-01-01T00:49:59.0888030Z</when>
        <gx:coord>13.152308 52.204308 46.582</gx:coord>
        <when>2025-01-01T00:50:00.0988030Z</when>
        <gx:coord>13.152308 52.204327 46.582</gx:coord>
        <when>2025-01-01T00:50:01.0978030Z</when>
        <gx:coord>13.152287 52.204327 46.582</gx:coord>
        <when>2025-01-01T00:50:01.8668030Z</when>
        <gx:coord>13.152266 52.20435 46.582</gx:coord>
        <when>2025-01-01T00:50:04.1078030Z</when>
        <gx:coord>13.152223 52.20437 46.582</gx:coord>
        <when>2025-01-01T00:50:06.8768030Z</when>
        <gx:coord>13.152201 52.204433 46.582</gx:coord>
        <when>2025-01-01T00:50:09.1108030Z</when>
        <gx:coord>13.152159 52.20448 46.582</gx:coord>
        <when>2025-01-01T00:50:10.0978030Z</when>
        <gx:coord>13.152159 52.20448 46.582</gx:coord>
        <when>2025-01-01T00:50:11.0978030Z</when>
        <gx:coord>13.152137 52.2045 46.582</gx:coord>
        <when>2025-01-01T00:50:11.8668030Z</when>
        <gx:coord>13.152115 52.2045 46.582</gx:coord>
        <when>2025-01-01T00:50:12.1028030Z</when>
        <gx:coord>13.152115 52.2045 46.582</gx:coord>
        <when>2025-01-01T00:50:13.1118030Z</when>
        <gx:coord>13.152094 52.20452 46.582</gx:coord>
        <when>2025-01-01T00:50:16.8668030Z</when>
        <gx:coord>13.152051 52.2045 46.582</gx:coord>
        <when>2025-01-01T00:50:19.0938030Z</when>
        <gx:coord>13.151987 52.2045 48.106</gx:coord>
        <when>2025-01-01T00:50:20.1008030Z</when>
        <gx:coord>13.151965 52.2045 46.582</gx:coord>
        <when>2025-01-01T00:50:21.1178030Z</when>
        <gx:coord>13.151965 52.20448 46.582</gx:coord>
        <when>2025-01-01T00:50:21.8668030Z</when>
        <gx:coord>13.151943 52.20448 46.582</gx:coord>
        <when>2025-01-01T00:50:22.1058030Z</when>
        <gx:coord>13.151943 52.20448 46.582</gx:coord>
        <when>2025-01-01T00:50:23.0958030Z</when>
        <gx:coord>13.151943 52.20448 46.582</gx:coord>
        <when>2025-01-01T00:50:24.0988030Z</when>
        <gx:coord>13.151943 52.204456 46.582</gx:coord>
        <when>2025-01-01T00:50:26.8668030Z</when>
        <gx:coord>13.151965 52.204456 46.582</gx:coord>
        <when>2025-01-01T00:50:31.8668030Z</when>
        <gx:coord>13.151965 52.204456 46.582</gx:coord>
        <when>2025-01-01T00:50:36.8658030Z</when>
        <gx:coord>13.151965 52.204456 46.582</gx:coord>
        <when>2025-01-01T00:50:41.8668030Z</when>
        <gx:coord>13.151965 52.204456 46.582</gx:coord>
        <when>2025-01-01T00:50:43.1438030Z</when>
        <gx:coord>13.151965 52.204456 46.582</gx:coord>
        <coordinates />
      </gx:Track>
    </Placemark>
    <Placemark>
      <name>Takeoff: 2025-01-01</name>
      <styleUrl>#downArrowIcon</styleUrl>
      <Point>
        <altitudeMode>relativeToGround</altitudeMode>
        <coordinates>12.048097,51.55403,20</coordinates>
      </Point>
    </Placemark>
    <Placemark>
      <name>Landing: 2025-01-01</name>
      <styleUrl>#downArrowIcon</styleUrl>
      <Point>
        <altitudeMode>relativeToGround</altitudeMode>
        <coordinates>13.15424,52.20306,20</coordinates>
      </Point>
    </Placemark>
    <Placemark>
      <name>Log Stop: 2025-01-01</name>
      <styleUrl>#downArrowIcon</styleUrl>
      <Point>
        <altitudeMode>relativeToGround</altitudeMode>
        <coordinates>13.151965,52.204456,20</coordinates>
      </Point>
    </Placemark>
  </Document>
</kml>
