<?xml version="1.0" encoding="utf-8"?>
<kml xmlns:gx="http://www.google.com/kml/ext/2.2" creator="kml-heatmap" xmlns="http://www.opengis.net/kml/2.2">
  <Document>
    <name>SkyDemon Track Log</name>
    <Style id="skydemonLogStyle">
      <LineStyle>
        <color>7f00ffff</color>
        <width>4</width>
      </LineStyle>
      <PolyStyle>
        <color>7fffa400</color>
      </PolyStyle>
    </Style>
    <Style id="downArrowIcon">
      <IconStyle>
        <href>http://maps.google.com/mapfiles/kml/pal4/icon28.png</href>
      </IconStyle>
    </Style>
    <Placemark>
      <name>Log Start: 2025-01-01</name>
      <styleUrl>#downArrowIcon</styleUrl>
      <Point>
        <altitudeMode>relativeToGround</altitudeMode>
        <coordinates>13.151965,52.204456,20</coordinates>
      </Point>
    </Placemark>
    <Placemark>
      <name>EDAZ Schoenhagen - EDAQ Halle-Oppin</name>
      <styleUrl>#skydemonLogStyle</styleUrl>
      <gx:Track>
        <extrude>1</extrude>
        <altitudeMode>absolute</altitudeMode>
        <when>2025-01-01T00:00:00.1990590Z</when>
        <gx:coord>13.151965 52.204456 71.231995</gx:coord>
        <when>2025-01-01T00:00:05.2000590Z</when>
        <gx:coord>13.151965 52.204456 46.582</gx:coord>
        <when>2025-01-01T00:00:10.1990590Z</when>
        <gx:coord>13.151965 52.204456 46.582</gx:coord>
        <when>2025-01-01T00:00:15.2000590Z</when>
        <gx:coord>13.151987 52.204414 46.582</gx:coord>
        <when>2025-01-01T00:00:20.2000590Z</when>
        <gx:coord>13.152008 52.204308 46.582</gx:coord>
        <when>2025-01-01T00:00:22.0970590Z</when>
        <gx:coord>13.152029 52.204285 46.582</gx:coord>
        <when>2025-01-01T00:00:23.0900590Z</when>
        <gx:coord>13.152029 52.20426 46.582</gx:coord>
        <when>2025-01-01T00:00:24.1090590Z</when>
        <gx:coord>13.152029 52.204243 46.582</gx:coord>
        <when>2025-01-01T00:00:25.0960590Z</when>
        <gx:coord>13.152008 52.20422 46.582</gx:coord>
        <when>2025-01-01T00:00:25.1990590Z</when>
        <gx:coord>13.151987 52.20422 46.582</gx:coord>
        <when>2025-01-01T00:00:26.1160590Z</when>
        <gx:coord>13.151987 52.20422 46.582</gx:coord>
        <when>2025-01-01T00:00:30.1990590Z</when>
        <gx:coord>13.151751 52.204136 46.582</gx:coord>
        <when>2025-01-01T00:00:32.1170590Z</when>
        <gx:coord>13.151708 52.204113 46.582</gx:coord>
        <when>2025-01-01T00:00:35.1170590Z</when>
        <gx:coord>13.1516 52.204025 46.582</gx:coord>
        <when>2025-01-01T00:00:35.1990590Z</when>
        <gx:coord>13.151579 52.204006 46.582</gx:coord>
        <when>2025-01-01T00:00:39.1080590Z</when>
        <gx:coord>13.151514 52.20392 46.582</gx:coord>
        <when>2025-01-01T00:00:40.1250590Z</when>
        <gx:coord>13.151493 52.203876 46.582</gx:coord>
        <when>2025-01-01T00:00:40.1980590Z</when>
        <gx:coord>13.151514 52.203857 46.582</gx:coord>
        <when>2025-01-01T00:00:45.1990590Z</when>
        <gx:coord>13.151579 52.203705 46.582</gx:coord>
        <when>2025-01-01T00:00:50.1990590Z</when>
        <gx:coord>13.151622 52.203556 45.057995</gx:coord>
        <when>2025-01-01T00:00:51.1140590Z</when>
        <gx:coord>13.151622 52.203556 45.057995</gx:coord>
        <when>2025-01-01T00:00:52.1200590Z</when>
        <gx:coord>13.151622 52.203533 45.057995</gx:coord>
        <when>2025-01-01T00:00:54.1040590Z</when>
        <gx:coord>13.1516 52.20347 45.057995</gx:coord>
        <when>2025-01-01T00:00:55.1990590Z</when>
        <gx:coord>13.151536 52.203403 45.057995</gx:coord>
        <when>2025-01-01T00:00:56.1090590Z</when>
        <gx:coord>13.151536 52.203403 45.057995</gx:coord>
        <when>2025-01-01T00:00:58.1210590Z</when>
        <gx:coord>13.151428 52.20336 45.057995</gx:coord>
        <when>2025-01-01T00:01:00.1200590Z</when>
        <gx:coord>13.1513 52.20334 45.057995</gx:coord>
        <when>2025-01-01T00:01:00.1990590Z</when>
        <gx:coord>13.151236 52.20334 45.057995</gx:coord>
        <when>2025-01-01T00:01:02.1170590Z</when>
        <gx:coord>13.151171 52.20332 45.057995</gx:coord>
        <when>2025-01-01T00:01:05.1980590Z</when>
        <gx:coord>13.150827 52.203278 45.057995</gx:coord>
        <when>2025-01-01T00:01:10.1990590Z</when>
        <gx:coord>13.150356 52.20319 45.057995</gx:coord>
        <when>2025-01-01T00:01:15.1990590Z</when>
        <gx:coord>13.149905 52.203125 45.057995</gx:coord>
        <when>2025-01-01T00:01:16.1120590Z</when>
        <gx:coord>13.149905 52.203125 45.057995</gx:coord>
        <when>2025-01-01T00:01:17.1110590Z</when>
        <gx:coord>13.149819 52.203106 45.057995</gx:coord>
        <when>2025-01-01T00:01:19.1210590Z</when>
        <gx:coord>13.149712 52.20306 45.057995</gx:coord>
        <when>2025-01-01T00:01:20.1170590Z</when>
        <gx:coord>13.149691 52.20302 45.057995</gx:coord>
        <when>2025-01-01T00:01:20.1990590Z</when>
        <gx:coord>13.149648 52.202976 45.057995</gx:coord>
        <when>2025-01-01T00:01:22.1120590Z</when>
        <gx:coord>13.149648 52.202953 45.057995</gx:coord>
        <when>2025-01-01T00:01:24.1220590Z</when>
        <gx:coord>13.149626 52.20289 45.057995</gx:coord>
        <when>2025-01-01T00:01:25.2000590Z</when>
        <gx:coord>13.149648 52.202827 45.057995</gx:coord>
        <when>2025-01-01T00:01:30.1990590Z</when>
        <gx:coord>13.149712 52.20274 45.057995</gx:coord>
        <when>2025-01-01T00:01:32.1120590Z</when>
        <gx:coord>13.149712 52.202717 45.057995</gx:coord>
        <when>2025-01-01T00:01:35.1990590Z</when>
        <gx:coord>13.149712 52.202717 45.057995</gx:coord>
        <when>2025-01-01T00:01:40.1990590Z</when>
        <gx:coord>13.149712 52.202717 45.057995</gx:coord>
        <when>2025-01-01T00:01:45.1990590Z</when>
        <gx:coord>13.149712 52.202717 45.057995</gx:coord>
        <when>2025-01-01T00:01:50.1990590Z</when>
        <gx:coord>13.149712 52.202717 45.057995</gx:coord>
        <when>2025-01-01T00:01:55.1990590Z</when>
        <gx:coord>13.149712 52.202717 45.057995</gx:coord>
        <when>2025-01-01T00:02:00.1990590Z</when>
        <gx:coord>13.149712 52.202717 45.057995</gx:coord>
        <when>2025-01-01T00:02:05.1990590Z</when>
        <gx:coord>13.149712 52.202717 45.057995</gx:coord>
        <when>2025-01-01T00:02:10.2000590Z</when>
        <gx:coord>13.149712 52.202717 45.057995</gx:coord>
        <when>2025-01-01T00:02:15.1990590Z</when>
        <gx:coord>13.149712 52.202717 45.057995</gx:coord>
        <when>2025-01-01T00:02:20.1990590Z</when>
        <gx:coord>13.149712 52.202717 45.057995</gx:coord>
        <when>2025-01-01T00:02:25.1990590Z</when>
        <gx:coord>13.149712 52.202717 45.057995</gx:coord>
        <when>2025-01-01T00:02:30.1990590Z</when>
        <gx:coord>13.149712 52.202717 45.057995</gx:coord>
        <when>2025-01-01T00:02:35.1990590Z</when>
        <gx:coord>13.149712 52.202717 45.057995</gx:coord>
        <when>2025-01-01T00:02:40.1990590Z</when>
        <gx:coord>13.149712 52.202717 45.057995</gx:coord>
        <when>2025-01-01T00:02:45.1980590Z</when>
        <gx:coord>13.149712 52.202717 45.057995</gx:coord>
        <when>2025-01-01T00:02:50.1990590Z</when>
        <gx:coord>13.149712 52.202717 45.057995</gx:coord>
        <when>2025-01-01T00:02:55.1990590Z</when>
        <gx:coord>13.149712 52.202717 45.057995</gx:coord>
        <when>2025-01-01T00:03:00.1990590Z</when>
        <gx:coord>13.149712 52.202717 45.057995</gx:coord>
        <when>2025-01-01T00:03:05.1990590Z</when>
        <gx:coord>13.149712 52.202717 45.057995</gx:coord>
        <when>2025-01-01T00:03:10.1990590Z</when>
        <gx:coord>13.149712 52.202717 45.057995</gx:coord>
        <when>2025-01-01T00:03:15.1990590Z</when>
        <gx:coord>13.149712 52.202717 45.057995</gx:coord>
        <when>2025-01-01T00:03:20.1980590Z</when>
        <gx:coord>13.149712 52.202717 45.057995</gx:coord>
        <when>2025-01-01T00:03:25.1990590Z</when>
        <gx:coord>13.149712 52.202717 45.057995</gx:coord>
        <when>2025-01-01T00:03:30.1990590Z</when>
        <gx:coord>13.149712 52.202717 45.057995</gx:coord>
        <when>2025-01-01T00:03:35.1990590Z</when>
        <gx:coord>13.149712 52.202717 45.057995</gx:coord>
        <when>2025-01-01T00:03:40.1990590Z</when>
        <gx:coord>13.149712 52.202717 45.057995</gx:coord>
        <when>2025-01-01T00:03:45.1990590Z</when>
        <gx:coord>13.149712 52.202717 45.057995</gx:coord>
        <when>2025-01-01T00:03:50.1990590Z</when>
        <gx:coord>13.149712 52.202717 45.057995</gx:coord>
        <when>2025-01-01T00:03:55.1980590Z</when>
        <gx:coord>13.149712 52.202717 45.057995</gx:coord>
        <when>2025-01-01T00:04:00.1990590Z</when>
        <gx:coord>13.149712 52.202717 45.057995</gx:coord>
        <when>2025-01-01T00:04:05.1990590Z</when>
        <gx:coord>13.149712 52.202717 45.057995</gx:coord>
        <when>2025-01-01T00:04:10.1990590Z</when>
        <gx:coord>13.149712 52.202717 45.057995</gx:coord>
        <when>2025-01-01T00:04:15.1990590Z</when>
        <gx:coord>13.149712 52.202717 45.057995</gx:coord>
        <when>2025-01-01T00:04:20.1990590Z</when>
        <gx:coord>13.149712 52.202717 45.057995</gx:coord>
        <when>2025-01-01T00:04:25.1990590Z</when>
        <gx:coord>13.149712 52.202717 45.057995</gx:coord>
        <when>2025-01-01T00:04:30.1990590Z</when>
        <gx:coord>13.149734 52.202633 45.057995</gx:coord>
        <when>2025-01-01T00:04:35.0980590Z</when>
        <gx:coord>13.149776 52.202526 45.057995</gx:coord>
        <when>2025-01-01T00:04:35.1990590Z</when>
        <gx:coord>13.149797 52.202484 45.057995</gx:coord>
        <when>2025-01-01T00:04:37.5730590Z</when>
        <gx:coord>13.149841 52.20246 45.057995</gx:coord>
        <when>2025-01-01T00:04:39.1080590Z</when>
        <gx:coord>13.149905 52.20242 45.057995</gx:coord>
        <when>2025-01-01T00:04:40.1990590Z</when>
        <gx:coord>13.150013 52.202374 45.057995</gx:coord>
        <when>2025-01-01T00:04:41.1210590Z</when>
        <gx:coord>13.150013 52.202374 45.057995</gx:coord>
        <when>2025-01-01T00:04:43.1300590Z</when>
        <gx:coord>13.150141 52.202374 45.057995</gx:coord>
        <when>2025-01-01T00:04:45.1210590Z</when>
        <gx:coord>13.15027 52.202374 45.057995</gx:coord>
        <when>2025-01-01T00:04:45.1990590Z</when>
        <gx:coord>13.150334 52.202396 45.057995</gx:coord>
        <when>2025-01-01T00:04:46.1180590Z</when>
        <gx:coord>13.150334 52.202396 45.057995</gx:coord>
        <when>2025-01-01T00:04:49.1260590Z</when>
        <gx:coord>13.150678 52.20246 45.057995</gx:coord>
        <when>2025-01-01T00:04:50.1990590Z</when>
        <gx:coord>13.150999 52.202503 45.057995</gx:coord>
        <when>2025-01-01T00:04:52.1370590Z</when>
        <gx:coord>13.151215 52.202526 45.057995</gx:coord>
        <when>2025-01-01T00:04:52.1370590Z</when>
        <gx:coord>13.151215 52.202526 45.057995</gx:coord>
        <when>2025-01-01T00:04:55.1980590Z</when>
        <gx:coord>13.152223 52.202698 43.534</gx:coord>
        <when>2025-01-01T00:04:56.1170590Z</when>
        <gx:coord>13.152223 52.202698 43.534</gx:coord>
        <when>2025-01-01T00:05:00.1350590Z</when>
        <gx:coord>13.153553 52.20291 43.534</gx:coord>
        <when>2025-01-01T00:05:00.1990590Z</when>
        <gx:coord>13.153917 52.202976 43.534</gx:coord>
        <when>2025-01-01T00:05:05.1980590Z</when>
        <gx:coord>13.155956 52.203297 52.677998</gx:coord>
        <when>2025-01-01T00:05:10.1980590Z</when>
        <gx:coord>13.158059 52.20364 64.869995</gx:coord>
        <when>2025-01-01T00:05:15.1990590Z</when>
        <gx:coord>13.160162 52.203983 80.11</gx:coord>
        <when>2025-01-01T00:05:20.1980590Z</when>
        <gx:coord>13.162265 52.20439 92.302</gx:coord>
        <when>2025-01-01T00:05:24.1230590Z</when>
        <gx:coord>13.1639385 52.204712 104.494</gx:coord>
        <when>2025-01-01T00:05:25.1990590Z</when>
        <gx:coord>13.164347 52.204777 109.065994</gx:coord>
        <when>2025-01-01T00:05:30.1990590Z</when>
        <gx:coord>13.166385 52.20512 127.354004</gx:coord>
        <when>2025-01-01T00:05:31.1170590Z</when>
        <gx:coord>13.166792 52.205208 136.498</gx:coord>
        <when>2025-01-01T00:05:35.1980590Z</when>
        <gx:coord>13.168423 52.205444 147.166</gx:coord>
        <when>2025-01-01T00:05:40.1990590Z</when>
        <gx:coord>13.170462 52.20574 160.88202</gx:coord>
        <when>2025-01-01T00:05:43.1220590Z</when>
        <gx:coord>13.171684 52.205936 168.502</gx:coord>
        <when>2025-01-01T00:05:45.1990590Z</when>
        <gx:coord>13.172479 52.206066 174.598</gx:coord>
        <when>2025-01-01T00:05:50.1980590Z</when>
        <gx:coord>13.174453 52.206387 189.838</gx:coord>
        <when>2025-01-01T00:05:53.1230590Z</when>
        <gx:coord>13.175632 52.20658 198.982</gx:coord>
        <when>2025-01-01T00:05:55.1980590Z</when>
        <gx:coord>13.176405 52.206688 203.554</gx:coord>
        <when>2025-01-01T00:06:00.1990590Z</when>
        <gx:coord>13.178465 52.20701 209.65</gx:coord>
        <when>2025-01-01T00:06:01.1360590Z</when>
        <gx:coord>13.178873 52.207073 209.65</gx:coord>
        <when>2025-01-01T00:06:05.1990590Z</when>
        <gx:coord>13.180569 52.20735 220.318</gx:coord>
        <when>2025-01-01T00:06:07.1360590Z</when>
        <gx:coord>13.181019 52.207417 221.84201</gx:coord>
        <when>2025-01-01T00:06:10.1990590Z</when>
        <gx:coord>13.182886 52.207653 223.366</gx:coord>
        <when>2025-01-01T00:06:13.1130590Z</when>
        <gx:coord>13.183872 52.20774 226.414</gx:coord>
        <when>2025-01-01T00:06:13.1130590Z</when>
        <gx:coord>13.184366 52.20774 229.46202</gx:coord>
        <when>2025-01-01T00:06:15.1990590Z</when>
        <gx:coord>13.185353 52.207695 237.082</gx:coord>
        <when>2025-01-01T00:06:16.1160590Z</when>
        <gx:coord>13.185353 52.207695 237.082</gx:coord>
        <when>2025-01-01T00:06:19.1130590Z</when>
        <gx:coord>13.18679 52.20744 249.274</gx:coord>
        <when>2025-01-01T00:06:20.1980590Z</when>
        <gx:coord>13.187671 52.20718 256.894</gx:coord>
        <when>2025-01-01T00:06:21.3150590Z</when>
        <gx:coord>13.187671 52.20718 256.894</gx:coord>
        <when>2025-01-01T00:06:22.1160590Z</when>
        <gx:coord>13.1881 52.20701 259.942</gx:coord>
        <when>2025-01-01T00:06:22.1160590Z</when>
        <gx:coord>13.188486 52.206818 264.514</gx:coord>
        <when>2025-01-01T00:06:25.1980590Z</when>
        <gx:coord>13.189559 52.20615 275.182</gx:coord>
        <when>2025-01-01T00:06:26.1390590Z</when>
        <gx:coord>13.189559 52.20615 275.182</gx:coord>
        <when>2025-01-01T00:06:29.1370590Z</when>
        <gx:coord>13.19046 52.20538 282.802</gx:coord>
        <when>2025-01-01T00:06:30.1210590Z</when>
        <gx:coord>13.190718 52.20508 285.85</gx:coord>
        <when>2025-01-01T00:06:30.1990590Z</when>
        <gx:coord>13.190932 52.204777 287.374</gx:coord>
        <when>2025-01-01T00:06:32.1260590Z</when>
        <gx:coord>13.191104 52.204456 290.422</gx:coord>
        <when>2025-01-01T00:06:33.1200590Z</when>
        <gx:coord>13.191361 52.203793 296.518</gx:coord>
        <when>2025-01-01T00:06:35.1220590Z</when>
        <gx:coord>13.191425 52.20345 299.566</gx:coord>
        <when>2025-01-01T00:06:35.1990590Z</when>
        <gx:coord>13.191447 52.203083 302.614</gx:coord>
        <when>2025-01-01T00:06:40.1990590Z</when>
        <gx:coord>13.191576 52.2013 316.33</gx:coord>
        <when>2025-01-01T00:06:44.1180590Z</when>
        <gx:coord>13.191898 52.19993 331.57</gx:coord>
        <when>2025-01-01T00:06:45.1990590Z</when>
        <gx:coord>13.191984 52.199585 334.618</gx:coord>
        <when>2025-01-01T00:06:49.1400590Z</when>
        <gx:coord>13.1923275 52.19862 345.286</gx:coord>
        <when>2025-01-01T00:06:50.1990590Z</when>
        <gx:coord>13.192585 52.197998 351.382</gx:coord>
        <when>2025-01-01T00:06:55.1170590Z</when>
        <gx:coord>13.193336 52.196453 365.09802</gx:coord>
        <when>2025-01-01T00:06:55.1990590Z</when>
        <gx:coord>13.193336 52.196453 365.09802</gx:coord>
        <when>2025-01-01T00:07:00.1990590Z</when>
        <gx:coord>13.194065 52.194973 383.386</gx:coord>
        <when>2025-01-01T00:07:04.1170590Z</when>
        <gx:coord>13.194773 52.19388 397.102</gx:coord>
        <when>2025-01-01T00:07:05.1190590Z</when>
        <gx:coord>13.194966 52.1936 397.102</gx:coord>
        <when>2025-01-01T00:07:05.1980590Z</when>
        <gx:coord>13.194966 52.1936 400.15002</gx:coord>
        <when>2025-01-01T00:07:10.1990590Z</when>
        <gx:coord>13.1958885 52.192184 413.86603</gx:coord>
        <when>2025-01-01T00:07:15.1170590Z</when>
        <gx:coord>13.196554 52.190636 427.58203</gx:coord>
        <when>2025-01-01T00:07:15.2090590Z</when>
        <gx:coord>13.196554 52.190636 427.58203</gx:coord>
        <when>2025-01-01T00:07:20.1990590Z</when>
        <gx:coord>13.197155 52.18907 450.442</gx:coord>
        <when>2025-01-01T00:07:22.1400590Z</when>
        <gx:coord>13.1974125 52.18847 458.062</gx:coord>
        <when>2025-01-01T00:07:25.1990590Z</when>
        <gx:coord>13.197821 52.18757 467.20602</gx:coord>
        <when>2025-01-01T00:07:30.1980590Z</when>
        <gx:coord>13.1984215 52.186066 483.96997</gx:coord>
        <when>2025-01-01T00:07:31.1150590Z</when>
        <gx:coord>13.198528 52.185787 488.54202</gx:coord>
        <when>2025-01-01T00:07:35.1990590Z</when>
        <gx:coord>13.198936 52.18461 502.25803</gx:coord>
        <when>2025-01-01T00:07:40.1990590Z</when>
        <gx:coord>13.199472 52.18317 515.974</gx:coord>
        <when>2025-01-01T00:07:42.1180590Z</when>
        <gx:coord>13.19973 52.18259 522.07</gx:coord>
        <when>2025-01-01T00:07:45.1990590Z</when>
        <gx:coord>13.200138 52.181732 528.166</gx:coord>
        <when>2025-01-01T00:07:50.1990590Z</when>
        <gx:coord>13.200867 52.180275 538.834</gx:coord>
        <when>2025-01-01T00:07:55.1990590Z</when>
        <gx:coord>13.201597 52.178837 552.55</gx:coord>
        <when>2025-01-01T00:07:56.1350590Z</when>
        <gx:coord>13.201725 52.17856 555.598</gx:coord>
        <when>2025-01-01T00:08:00.1480590Z</when>
        <gx:coord>13.202154 52.177357 564.742</gx:coord>
        <when>2025-01-01T00:08:00.1990590Z</when>
        <gx:coord>13.202154 52.177357 566.266</gx:coord>
        <when>2025-01-01T00:08:05.1990590Z</when>
        <gx:coord>13.202562 52.175854 579.982</gx:coord>
        <when>2025-01-01T00:08:07.1150590Z</when>
        <gx:coord>13.202691 52.17525 586.078</gx:coord>
        <when>2025-01-01T00:08:10.1990590Z</when>
        <gx:coord>13.202949 52.17433 593.698</gx:coord>
        <when>2025-01-01T00:08:15.1990590Z</when>
        <gx:coord>13.203442 52.17283 605.89</gx:coord>
        <when>2025-01-01T00:08:20.1990590Z</when>
        <gx:coord>13.203957 52.171303 615.034</gx:coord>
        <when>2025-01-01T00:08:22.1200590Z</when>
        <gx:coord>13.204172 52.170662 618.082</gx:coord>
        <when>2025-01-01T00:08:25.1990590Z</when>
        <gx:coord>13.2044935 52.169693 622.654</gx:coord>
        <when>2025-01-01T00:08:30.1990590Z</when>
        <gx:coord>13.205051 52.168087 630.27405</gx:coord>
        <when>2025-01-01T00:08:35.1990590Z</when>
        <gx:coord>13.205652 52.166454 639.41797</gx:coord>
        <when>2025-01-01T00:08:40.1990590Z</when>
        <gx:coord>13.206318 52.164825 643.99</gx:coord>
        <when>2025-01-01T00:08:44.1200590Z</when>
        <gx:coord>13.206789 52.16343 648.562</gx:coord>
        <when>2025-01-01T00:08:45.1990590Z</when>
        <gx:coord>13.206833 52.163063 650.086</gx:coord>
        <when>2025-01-01T00:08:46.1180590Z</when>
        <gx:coord>13.206833 52.163063 650.086</gx:coord>
        <when>2025-01-01T00:08:46.1180590Z</when>
        <gx:coord>13.206833 52.163063 650.086</gx:coord>
        <when>2025-01-01T00:08:50.1220590Z</when>
        <gx:coord>13.206725 52.16152 650.086</gx:coord>
        <when>2025-01-01T00:08:50.1980590Z</when>
        <gx:coord>13.206596 52.161133 650.086</gx:coord>
        <when>2025-01-01T00:08:51.1310590Z</when>
        <gx:coord>13.206404 52.160725 650.086</gx:coord>
        <when>2025-01-01T00:08:52.1190590Z</when>
        <gx:coord>13.206404 52.160725 650.086</gx:coord>
        <when>2025-01-01T00:08:53.1200590Z</when>
        <gx:coord>13.206188 52.160316 651.61005</gx:coord>
        <when>2025-01-01T00:08:55.1990590Z</when>
        <gx:coord>13.205266 52.159138 653.13403</gx:coord>
        <when>2025-01-01T00:08:57.1140590Z</when>
        <gx:coord>13.20488 52.158752 654.658</gx:coord>
        <when>2025-01-01T00:09:00.1150590Z</when>
        <gx:coord>13.203549 52.157635 656.182</gx:coord>
        <when>2025-01-01T00:09:00.1990590Z</when>
        <gx:coord>13.203056 52.15729 656.182</gx:coord>
        <when>2025-01-01T00:09:01.1280590Z</when>
        <gx:coord>13.203056 52.15729 656.182</gx:coord>
        <when>2025-01-01T00:09:05.1990590Z</when>
        <gx:coord>13.200396 52.15551 654.658</gx:coord>
        <when>2025-01-01T00:09:10.1990590Z</when>
        <gx:coord>13.197691 52.153687 653.13403</gx:coord>
        <when>2025-01-01T00:09:15.1990590Z</when>
        <gx:coord>13.195052 52.151756 653.13403</gx:coord>
        <when>2025-01-01T00:09:20.1990590Z</when>
        <gx:coord>13.192434 52.149845 654.658</gx:coord>
        <when>2025-01-01T00:09:25.1990590Z</when>
        <gx:coord>13.189774 52.147938 657.706</gx:coord>
        <when>2025-01-01T00:09:26.1300590Z</when>
        <gx:coord>13.189216 52.147552 657.706</gx:coord>
        <when>2025-01-01T00:09:30.1990590Z</when>
        <gx:coord>13.186898 52.14609 656.182</gx:coord>
        <when>2025-01-01T00:09:32.1150590Z</when>
        <gx:coord>13.186319 52.14575 656.182</gx:coord>
        <when>2025-01-01T00:09:32.1160590Z</when>
        <gx:coord>13.186319 52.14575 656.182</gx:coord>
        <when>2025-01-01T00:09:35.2000590Z</when>
        <gx:coord>13.183894 52.144287 653.13403</gx:coord>
        <when>2025-01-01T00:09:40.2000590Z</when>
        <gx:coord>13.180847 52.142487 656.182</gx:coord>
        <when>2025-01-01T00:09:45.2000590Z</when>
        <gx:coord>13.177822 52.140686 659.23004</gx:coord>
        <when>2025-01-01T00:09:50.1990590Z</when>
        <gx:coord>13.17471 52.138924 660.75397</gx:coord>
        <when>2025-01-01T00:09:55.2000590Z</when>
        <gx:coord>13.171577 52.137188 659.23004</gx:coord>
        <when>2025-01-01T00:09:59.1240590Z</when>
        <gx:coord>13.169067 52.13579 660.75397</gx:coord>
        <when>2025-01-01T00:10:00.1990590Z</when>
        <gx:coord>13.168445 52.13545 662.278</gx:coord>
        <when>2025-01-01T00:10:05.2000590Z</when>
        <gx:coord>13.165355 52.13369 657.706</gx:coord>
        <when>2025-01-01T00:10:10.2000590Z</when>
        <gx:coord>13.162308 52.131866 657.706</gx:coord>
        <when>2025-01-01T00:10:15.2000590Z</when>
        <gx:coord>13.159239 52.130043 651.61005</gx:coord>
        <when>2025-01-01T00:10:20.1990590Z</when>
        <gx:coord>13.156107 52.128197 647.038</gx:coord>
        <when>2025-01-01T00:10:25.2000590Z</when>
        <gx:coord>13.152952 52.126373 648.562</gx:coord>
        <when>2025-01-01T00:10:30.2000590Z</when>
        <gx:coord>13.149776 52.12455 650.086</gx:coord>
        <when>2025-01-01T00:10:31.1290590Z</when>
        <gx:coord>13.149133 52.124207 650.086</gx:coord>
        <when>2025-01-01T00:10:35.1990590Z</when>
        <gx:coord>13.146558 52.122746 645.51404</gx:coord>
        <when>2025-01-01T00:10:40.2000590Z</when>
        <gx:coord>13.143404 52.1209 645.51404</gx:coord>
        <when>2025-01-01T00:10:45.2000590Z</when>
        <gx:coord>13.140292 52.119034 640.942</gx:coord>
        <when>2025-01-01T00:10:50.2000590Z</when>
        <gx:coord>13.137138 52.117165 634.846</gx:coord>
        <when>2025-01-01T00:10:55.1990590Z</when>
        <gx:coord>13.133941 52.1153 628.75</gx:coord>
        <when>2025-01-01T00:11:00.1990590Z</when>
        <gx:coord>13.130701 52.11341 622.654</gx:coord>
        <when>2025-01-01T00:11:02.1310590Z</when>
        <gx:coord>13.129414 52.11264 621.13</gx:coord>
        <when>2025-01-01T00:11:03.1170590Z</when>
        <gx:coord>13.128748 52.112274 616.558</gx:coord>
        <when>2025-01-01T00:11:05.2000590Z</when>
        <gx:coord>13.1274395 52.111504 613.51</gx:coord>
        <when>2025-01-01T00:11:06.1080590Z</when>
        <gx:coord>13.1274395 52.111504 613.51</gx:coord>
        <when>2025-01-01T00:11:10.1990590Z</when>
        <gx:coord>13.124027 52.109592 607.414</gx:coord>
        <when>2025-01-01T00:11:15.2000590Z</when>
        <gx:coord>13.120594 52.107704 604.366</gx:coord>
        <when>2025-01-01T00:11:20.1990590Z</when>
        <gx:coord>13.117182 52.105793 601.318</gx:coord>
        <when>2025-01-01T00:11:25.2000590Z</when>
        <gx:coord>13.1137705 52.103886 596.746</gx:coord>
        <when>2025-01-01T00:11:30.2000590Z</when>
        <gx:coord>13.110315 52.102016 595.222</gx:coord>
        <when>2025-01-01T00:11:32.1280590Z</when>
        <gx:coord>13.108921 52.101265 595.222</gx:coord>
        <when>2025-01-01T00:11:35.2000590Z</when>
        <gx:coord>13.10684 52.100174 593.698</gx:coord>
        <when>2025-01-01T00:11:40.2000590Z</when>
        <gx:coord>13.103428 52.09837 605.89</gx:coord>
        <when>2025-01-01T00:11:45.2000590Z</when>
        <gx:coord>13.100145 52.096653 618.082</gx:coord>
        <when>2025-01-01T00:11:48.1330590Z</when>
        <gx:coord>13.098879 52.095966 619.606</gx:coord>
        <when>2025-01-01T00:11:50.2000590Z</when>
        <gx:coord>13.097012 52.09496 621.13</gx:coord>
        <when>2025-01-01T00:11:55.2000590Z</when>
        <gx:coord>13.093901 52.09326 622.654</gx:coord>
        <when>2025-01-01T00:12:00.2000590Z</when>
        <gx:coord>13.090854 52.091568 628.75</gx:coord>
        <when>2025-01-01T00:12:04.1280590Z</when>
        <gx:coord>13.0884075 52.09026 633.322</gx:coord>
        <when>2025-01-01T00:12:05.2000590Z</when>
        <gx:coord>13.087807 52.089935 633.322</gx:coord>
        <when>2025-01-01T00:12:10.2000590Z</when>
        <gx:coord>13.084782 52.088326 639.41797</gx:coord>
        <when>2025-01-01T00:12:15.2000590Z</when>
        <gx:coord>13.081863 52.086674 637.89404</gx:coord>
        <when>2025-01-01T00:12:20.2010590Z</when>
        <gx:coord>13.078987 52.085045 642.466</gx:coord>
        <when>2025-01-01T00:12:25.2010590Z</when>
        <gx:coord>13.076091 52.083458 645.51404</gx:coord>
        <when>2025-01-01T00:12:26.1210590Z</when>
        <gx:coord>13.075512 52.083134 650.086</gx:coord>
        <when>2025-01-01T00:12:30.2000590Z</when>
        <gx:coord>13.0731945 52.08185 653.13403</gx:coord>
        <when>2025-01-01T00:12:35.2000590Z</when>
        <gx:coord>13.07034 52.080196 653.13403</gx:coord>
        <when>2025-01-01T00:12:39.2770590Z</when>
        <gx:coord>13.068045 52.078865 654.658</gx:coord>
        <when>2025-01-01T00:12:40.2000590Z</when>
        <gx:coord>13.067465 52.07852 654.658</gx:coord>
        <when>2025-01-01T00:12:45.2010590Z</when>
        <gx:coord>13.064526 52.07689 656.182</gx:coord>
        <when>2025-01-01T00:12:50.2000590Z</when>
        <gx:coord>13.0615635 52.075237 656.182</gx:coord>
        <when>2025-01-01T00:12:55.2010590Z</when>
        <gx:coord>13.058603 52.073563 656.182</gx:coord>
        <when>2025-01-01T00:13:00.2010590Z</when>
        <gx:coord>13.055685 52.071846 653.13403</gx:coord>
        <when>2025-01-01T00:13:05.2010590Z</when>
        <gx:coord>13.052723 52.07007 651.61005</gx:coord>
        <when>2025-01-01T00:13:10.2010590Z</when>
        <gx:coord>13.049719 52.068306 653.13403</gx:coord>
        <when>2025-01-01T00:13:13.1300590Z</when>
        <gx:coord>13.047874 52.067257 653.13403</gx:coord>
        <when>2025-01-01T00:13:15.2010590Z</when>
        <gx:coord>13.046629 52.06657 654.658</gx:coord>
        <when>2025-01-01T00:13:20.2000590Z</when>
        <gx:coord>13.043539 52.06481 653.13403</gx:coord>
        <when>2025-01-01T00:13:25.2010590Z</when>
        <gx:coord>13.040471 52.063007 654.658</gx:coord>
        <when>2025-01-01T00:13:30.2010590Z</when>
        <gx:coord>13.037467 52.061184 654.658</gx:coord>
        <when>2025-01-01T00:13:35.2010590Z</when>
        <gx:coord>13.034463 52.059338 657.706</gx:coord>
        <when>2025-01-01T00:13:40.2010590Z</when>
        <gx:coord>13.031395 52.057514 654.658</gx:coord>
        <when>2025-01-01T00:13:45.1280590Z</when>
        <gx:coord>13.028261 52.05569 654.658</gx:coord>
        <when>2025-01-01T00:13:45.2010590Z</when>
        <gx:coord>13.028261 52.05569 653.13403</gx:coord>
        <when>2025-01-01T00:13:50.2000590Z</when>
        <gx:coord>13.025022 52.05391 651.61005</gx:coord>
        <when>2025-01-01T00:13:55.2010590Z</when>
        <gx:coord>13.021782 52.052086 648.562</gx:coord>
        <when>2025-01-01T00:14:00.2010590Z</when>
        <gx:coord>13.018584 52.05024 651.61005</gx:coord>
        <when>2025-01-01T00:14:05.2010590Z</when>
        <gx:coord>13.015345 52.04844 647.038</gx:coord>
        <when>2025-01-01T00:14:10.2010590Z</when>
        <gx:coord>13.012061 52.04657 639.41797</gx:coord>
        <when>2025-01-01T00:14:15.2010590Z</when>
        <gx:coord>13.0088215 52.04468 640.942</gx:coord>
        <when>2025-01-01T00:14:16.1300590Z</when>
        <gx:coord>13.008177 52.044296 640.942</gx:coord>
        <when>2025-01-01T00:14:20.2010590Z</when>
        <gx:coord>13.005646 52.042816 643.99</gx:coord>
        <when>2025-01-01T00:14:25.2000590Z</when>
        <gx:coord>13.00247 52.04097 648.562</gx:coord>
        <when>2025-01-01T00:14:30.2010590Z</when>
        <gx:coord>12.999358 52.039146 642.466</gx:coord>
        <when>2025-01-01T00:14:35.2010590Z</when>
        <gx:coord>12.996246 52.037323 645.51404</gx:coord>
        <when>2025-01-01T00:14:40.2010590Z</when>
        <gx:coord>12.993178 52.0355 647.038</gx:coord>
        <when>2025-01-01T00:14:45.2010590Z</when>
        <gx:coord>12.990067 52.033695 647.038</gx:coord>
        <when>2025-01-01T00:14:48.1180590Z</when>
        <gx:coord>12.988136 52.032623 648.562</gx:coord>
        <when>2025-01-01T00:14:50.2010590Z</when>
        <gx:coord>12.986849 52.031937 648.562</gx:coord>
        <when>2025-01-01T00:14:55.2010590Z</when>
        <gx:coord>12.983651 52.030178 651.61005</gx:coord>
        <when>2025-01-01T00:15:00.2010590Z</when>
        <gx:coord>12.9804535 52.028355 643.99</gx:coord>
        <when>2025-01-01T00:15:05.2010590Z</when>
        <gx:coord>12.9773 52.026466 647.038</gx:coord>
        <when>2025-01-01T00:15:10.2010590Z</when>
        <gx:coord>12.974146 52.02462 651.61005</gx:coord>
        <when>2025-01-01T00:15:15.2010590Z</when>
        <gx:coord>12.970926 52.022816 656.182</gx:coord>
        <when>2025-01-01T00:15:20.1300590Z</when>
        <gx:coord>12.967665 52.0211 656.182</gx:coord>
        <when>2025-01-01T00:15:20.2010590Z</when>
        <gx:coord>12.967665 52.0211 657.706</gx:coord>
        <when>2025-01-01T00:15:25.2000590Z</when>
        <gx:coord>12.964533 52.019318 657.706</gx:coord>
        <when>2025-01-01T00:15:30.2010590Z</when>
        <gx:coord>12.961464 52.01754 657.706</gx:coord>
        <when>2025-01-01T00:15:35.2010590Z</when>
        <gx:coord>12.958331 52.01576 660.75397</gx:coord>
        <when>2025-01-01T00:15:40.2020590Z</when>
        <gx:coord>12.955198 52.013977 660.75397</gx:coord>
        <when>2025-01-01T00:15:45.2010590Z</when>
        <gx:coord>12.952173 52.012196 665.32605</gx:coord>
        <when>2025-01-01T00:15:50.2000590Z</when>
        <gx:coord>12.94919 52.01039 665.32605</gx:coord>
        <when>2025-01-01T00:15:52.1350590Z</when>
        <gx:coord>12.947946 52.009686 665.32605</gx:coord>
        <when>2025-01-01T00:15:55.2010590Z</when>
        <gx:coord>12.946014 52.008656 666.85004</gx:coord>
        <when>2025-01-01T00:16:00.2010590Z</when>
        <gx:coord>12.942732 52.006958 665.32605</gx:coord>
        <when>2025-01-01T00:16:05.2010590Z</when>
        <gx:coord>12.93947 52.0052 660.75397</gx:coord>
        <when>2025-01-01T00:16:10.2010590Z</when>
        <gx:coord>12.936144 52.003418 653.13403</gx:coord>
        <when>2025-01-01T00:16:15.2010590Z</when>
        <gx:coord>12.9327965 52.00164 651.61005</gx:coord>
        <when>2025-01-01T00:16:20.2010590Z</when>
        <gx:coord>12.92947 51.999836 636.37</gx:coord>
        <when>2025-01-01T00:16:23.1240590Z</when>
        <gx:coord>12.927475 51.99874 634.846</gx:coord>
        <when>2025-01-01T00:16:25.2010590Z</when>
        <gx:coord>12.926167 51.99799 631.79803</gx:coord>
        <when>2025-01-01T00:16:30.2010590Z</when>
        <gx:coord>12.922883 51.996124 634.846</gx:coord>
        <when>2025-01-01T00:16:35.2010590Z</when>
        <gx:coord>12.919621 51.99432 636.37</gx:coord>
        <when>2025-01-01T00:16:40.2010590Z</when>
        <gx:coord>12.916403 51.99254 650.086</gx:coord>
        <when>2025-01-01T00:16:45.2010590Z</when>
        <gx:coord>12.913141 51.99078 645.51404</gx:coord>
        <when>2025-01-01T00:16:50.2010590Z</when>
        <gx:coord>12.909901 51.98898 643.99</gx:coord>
        <when>2025-01-01T00:16:54.1270590Z</when>
        <gx:coord>12.907284 51.987564 643.99</gx:coord>
        <when>2025-01-01T00:16:55.2010590Z</when>
        <gx:coord>12.906618 51.98722 643.99</gx:coord>
        <when>2025-01-01T00:17:00.2010590Z</when>
        <gx:coord>12.903336 51.985504 645.51404</gx:coord>
        <when>2025-01-01T00:17:05.2010590Z</when>
        <gx:coord>12.900095 51.983788 647.038</gx:coord>
        <when>2025-01-01T00:17:10.2010590Z</when>
        <gx:coord>12.896854 51.982113 645.51404</gx:coord>
        <when>2025-01-01T00:17:15.2010590Z</when>
        <gx:coord>12.893679 51.980415 645.51404</gx:coord>
        <when>2025-01-01T00:17:20.2010590Z</when>
        <gx:coord>12.890503 51.9787 639.41797</gx:coord>
        <when>2025-01-01T00:17:25.2010590Z</when>
        <gx:coord>12.887285 51.976963 637.89404</gx:coord>
        <when>2025-01-01T00:17:26.1330590Z</when>
        <gx:coord>12.886641 51.976597 637.89404</gx:coord>
        <when>2025-01-01T00:17:30.2010590Z</when>
        <gx:coord>12.884151 51.97518 640.942</gx:coord>
        <when>2025-01-01T00:17:35.2010590Z</when>
        <gx:coord>12.881147 51.9734 648.562</gx:coord>
        <when>2025-01-01T00:17:40.2010590Z</when>
        <gx:coord>12.878208 51.97164 651.61005</gx:coord>
        <when>2025-01-01T00:17:45.2010590Z</when>
        <gx:coord>12.875269 51.96986 651.61005</gx:coord>
        <when>2025-01-01T00:17:50.2010590Z</when>
        <gx:coord>12.872307 51.96808 650.086</gx:coord>
        <when>2025-01-01T00:17:55.2010590Z</when>
        <gx:coord>12.869303 51.96632 650.086</gx:coord>
        <when>2025-01-01T00:17:59.1310590Z</when>
        <gx:coord>12.866921 51.96488 650.086</gx:coord>
        <when>2025-01-01T00:18:00.2010590Z</when>
        <gx:coord>12.866321 51.964516 648.562</gx:coord>
        <when>2025-01-01T00:18:05.2010590Z</when>
        <gx:coord>12.863295 51.962692 648.562</gx:coord>
        <when>2025-01-01T00:18:10.2010590Z</when>
        <gx:coord>12.860249 51.96089 647.038</gx:coord>
        <when>2025-01-01T00:18:15.2010590Z</when>
        <gx:coord>12.857223 51.95907 645.51404</gx:coord>
        <when>2025-01-01T00:18:20.2010590Z</when>
        <gx:coord>12.854176 51.957222 640.942</gx:coord>
        <when>2025-01-01T00:18:25.2010590Z</when>
        <gx:coord>12.851086 51.9554 640.942</gx:coord>
        <when>2025-01-01T00:18:30.2010590Z</when>
        <gx:coord>12.84791 51.95366 648.562</gx:coord>
        <when>2025-01-01T00:18:31.1310590Z</when>
        <gx:coord>12.847288 51.953316 648.562</gx:coord>
        <when>2025-01-01T00:18:35.2010590Z</when>
        <gx:coord>12.844777 51.951984 656.182</gx:coord>
        <when>2025-01-01T00:18:40.2010590Z</when>
        <gx:coord>12.841665 51.95031 656.182</gx:coord>
        <when>2025-01-01T00:18:45.2010590Z</when>
        <gx:coord>12.838597 51.94864 656.182</gx:coord>
        <when>2025-01-01T00:18:50.2010590Z</when>
        <gx:coord>12.835507 51.94694 657.706</gx:coord>
        <when>2025-01-01T00:18:55.2010590Z</when>
        <gx:coord>12.832439 51.945225 650.086</gx:coord>
        <when>2025-01-01T00:19:00.2010590Z</when>
        <gx:coord>12.829328 51.94351 648.562</gx:coord>
        <when>2025-01-01T00:19:04.1330590Z</when>
        <gx:coord>12.826902 51.942093 650.086</gx:coord>
        <when>2025-01-01T00:19:05.2010590Z</when>
        <gx:coord>12.826302 51.94175 651.61005</gx:coord>
        <when>2025-01-01T00:19:10.2010590Z</when>
        <gx:coord>12.823234 51.93999 650.086</gx:coord>
        <when>2025-01-01T00:19:15.2010590Z</when>
        <gx:coord>12.820101 51.938232 647.038</gx:coord>
        <when>2025-01-01T00:19:20.2010590Z</when>
        <gx:coord>12.81699 51.93647 647.038</gx:coord>
        <when>2025-01-01T00:19:25.2010590Z</when>
        <gx:coord>12.813856 51.934692 645.51404</gx:coord>
        <when>2025-01-01T00:19:30.2010590Z</when>
        <gx:coord>12.810702 51.93291 643.99</gx:coord>
        <when>2025-01-01T00:19:35.2000590Z</when>
        <gx:coord>12.807505 51.93115 642.466</gx:coord>
        <when>2025-01-01T00:19:36.1280590Z</when>
        <gx:coord>12.80684 51.930786 642.466</gx:coord>
        <when>2025-01-01T00:19:40.2000590Z</when>
        <gx:coord>12.804243 51.92939 642.466</gx:coord>
        <when>2025-01-01T00:19:45.2030590Z</when>
        <gx:coord>12.8009815 51.92763 640.942</gx:coord>
        <when>2025-01-01T00:19:50.2010590Z</when>
        <gx:coord>12.797785 51.92585 642.466</gx:coord>
        <when>2025-01-01T00:19:55.2010590Z</when>
        <gx:coord>12.794674 51.924026 643.99</gx:coord>
        <when>2025-01-01T00:20:00.2000590Z</when>
        <gx:coord>12.791562 51.922245 643.99</gx:coord>
        <when>2025-01-01T00:20:05.2010590Z</when>
        <gx:coord>12.788386 51.920464 647.038</gx:coord>
        <when>2025-01-01T00:20:08.1280590Z</when>
        <gx:coord>12.786498 51.91941 647.038</gx:coord>
        <when>2025-01-01T00:20:10.2010590Z</when>
        <gx:coord>12.785233 51.918705 648.562</gx:coord>
        <when>2025-01-01T00:20:15.2000590Z</when>
        <gx:coord>12.782078 51.916965 650.086</gx:coord>
        <when>2025-01-01T00:20:20.2010590Z</when>
        <gx:coord>12.778902 51.91525 647.038</gx:coord>
        <when>2025-01-01T00:20:25.2010590Z</when>
        <gx:coord>12.775726 51.913532 650.086</gx:coord>
        <when>2025-01-01T00:20:30.2010590Z</when>
        <gx:coord>12.772572 51.91184 654.658</gx:coord>
        <when>2025-01-01T00:20:35.2010590Z</when>
        <gx:coord>12.769396 51.91014 656.182</gx:coord>
        <when>2025-01-01T00:20:40.1300590Z</when>
        <gx:coord>12.766242 51.908424 657.706</gx:coord>
        <when>2025-01-01T00:20:40.2000590Z</when>
        <gx:coord>12.766242 51.908424 656.182</gx:coord>
        <when>2025-01-01T00:20:45.2010590Z</when>
        <gx:coord>12.763044 51.90673 657.706</gx:coord>
        <when>2025-01-01T00:20:50.2010590Z</when>
        <gx:coord>12.759848 51.905014 657.706</gx:coord>
        <when>2025-01-01T00:20:55.2010590Z</when>
        <gx:coord>12.756629 51.903275 656.182</gx:coord>
        <when>2025-01-01T00:21:00.2010590Z</when>
        <gx:coord>12.753367 51.901558 657.706</gx:coord>
        <when>2025-01-01T00:21:05.2000590Z</when>
        <gx:coord>12.750149 51.89984 659.23004</gx:coord>
        <when>2025-01-01T00:21:10.2010590Z</when>
        <gx:coord>12.746887 51.898148 660.30396</gx:coord>
        <when>2025-01-01T00:21:12.1250590Z</when>
        <gx:coord>12.745557 51.89746 660.30396</gx:coord>
        <when>2025-01-01T00:21:15.2010590Z</when>
        <gx:coord>12.743605 51.89643 658.77997</gx:coord>
        <when>2025-01-01T00:21:20.2010590Z</when>
        <gx:coord>12.740385 51.894672 658.77997</gx:coord>
        <when>2025-01-01T00:21:25.2010590Z</when>
        <gx:coord>12.737188 51.892914 658.77997</gx:coord>
        <when>2025-01-01T00:21:30.2010590Z</when>
        <gx:coord>12.734013 51.891132 658.77997</gx:coord>
        <when>2025-01-01T00:21:35.2000590Z</when>
        <gx:coord>12.73088 51.88935 658.77997</gx:coord>
        <when>2025-01-01T00:21:40.2010590Z</when>
        <gx:coord>12.727747 51.88757 660.30396</gx:coord>
        <when>2025-01-01T00:21:44.1360590Z</when>
        <gx:coord>12.725279 51.88613 660.30396</gx:coord>
        <when>2025-01-01T00:21:45.2010590Z</when>
        <gx:coord>12.724657 51.885765 660.30396</gx:coord>
        <when>2025-01-01T00:21:50.2010590Z</when>
        <gx:coord>12.721546 51.883965 658.77997</gx:coord>
        <when>2025-01-01T00:21:55.2000590Z</when>
        <gx:coord>12.718391 51.882164 655.73206</gx:coord>
        <when>2025-01-01T00:22:00.2010590Z</when>
        <gx:coord>12.715259 51.880337 654.20807</gx:coord>
        <when>2025-01-01T00:22:05.2010590Z</when>
        <gx:coord>12.712083 51.878513 654.20807</gx:coord>
        <when>2025-01-01T00:22:10.2000590Z</when>
        <gx:coord>12.708929 51.876713 652.68396</gx:coord>
        <when>2025-01-01T00:22:15.2010590Z</when>
        <gx:coord>12.705774 51.874844 645.06396</gx:coord>
        <when>2025-01-01T00:22:16.1360590Z</when>
        <gx:coord>12.7051525 51.87446 645.06396</gx:coord>
        <when>2025-01-01T00:22:20.2010590Z</when>
        <gx:coord>12.702684 51.872913 640.49207</gx:coord>
        <when>2025-01-01T00:22:25.2010590Z</when>
        <gx:coord>12.699637 51.870983 642.01605</gx:coord>
        <when>2025-01-01T00:22:30.2010590Z</when>
        <gx:coord>12.696505 51.869137 646.588</gx:coord>
        <when>2025-01-01T00:22:35.2010590Z</when>
        <gx:coord>12.693372 51.867355 649.636</gx:coord>
        <when>2025-01-01T00:22:40.2010590Z</when>
        <gx:coord>12.690282 51.865574 652.68396</gx:coord>
        <when>2025-01-01T00:22:45.2000590Z</when>
        <gx:coord>12.68717 51.863857 658.77997</gx:coord>
        <when>2025-01-01T00:22:48.1350590Z</when>
        <gx:coord>12.685326 51.862827 660.30396</gx:coord>
        <when>2025-01-01T00:22:50.2010590Z</when>
        <gx:coord>12.68408 51.862164 664.876</gx:coord>
        <when>2025-01-01T00:22:55.2010590Z</when>
        <gx:coord>12.681012 51.86051 670.972</gx:coord>
        <when>2025-01-01T00:23:00.2010590Z</when>
        <gx:coord>12.6779 51.85888 670.972</gx:coord>
        <when>2025-01-01T00:23:05.2010590Z</when>
        <gx:coord>12.674725 51.85721 667.924</gx:coord>
        <when>2025-01-01T00:23:10.2010590Z</when>
        <gx:coord>12.671571 51.85549 661.82806</gx:coord>
        <when>2025-01-01T00:23:15.2010590Z</when>
        <gx:coord>12.668395 51.853687 658.77997</gx:coord>
        <when>2025-01-01T00:23:20.2000590Z</when>
        <gx:coord>12.665197 51.851906 648.11206</gx:coord>
        <when>2025-01-01T00:23:21.1270590Z</when>
        <gx:coord>12.664555 51.851543 648.11206</gx:coord>
        <when>2025-01-01T00:23:25.2010590Z</when>
        <gx:coord>12.661958 51.850124 648.11206</gx:coord>
        <when>2025-01-01T00:23:30.2010590Z</when>
        <gx:coord>12.658696 51.848366 649.636</gx:coord>
        <when>2025-01-01T00:23:35.2010590Z</when>
        <gx:coord>12.6554985 51.846584 651.16</gx:coord>
        <when>2025-01-01T00:23:40.2010590Z</when>
        <gx:coord>12.652259 51.84485 652.68396</gx:coord>
        <when>2025-01-01T00:23:45.2010590Z</when>
        <gx:coord>12.649019 51.843132 652.68396</gx:coord>
        <when>2025-01-01T00:23:50.2010590Z</when>
        <gx:coord>12.645736 51.841415 652.68396</gx:coord>
        <when>2025-01-01T00:23:53.1320590Z</when>
        <gx:coord>12.64374 51.840405 652.68396</gx:coord>
        <when>2025-01-01T00:23:55.2000590Z</when>
        <gx:coord>12.64241 51.83974 652.68396</gx:coord>
        <when>2025-01-01T00:24:00.2010590Z</when>
        <gx:coord>12.639105 51.838024 654.20807</gx:coord>
        <when>2025-01-01T00:24:05.2000590Z</when>
        <gx:coord>12.635908 51.836266 652.68396</gx:coord>
        <when>2025-01-01T00:24:10.2010590Z</when>
        <gx:coord>12.632689 51.834484 651.16</gx:coord>
        <when>2025-01-01T00:24:15.2010590Z</when>
        <gx:coord>12.62945 51.832703 649.636</gx:coord>
        <when>2025-01-01T00:24:20.2010590Z</when>
        <gx:coord>12.62623 51.83092 649.636</gx:coord>
        <when>2025-01-01T00:24:25.1280590Z</when>
        <gx:coord>12.6230545 51.829117 648.11206</gx:coord>
        <when>2025-01-01T00:24:25.2010590Z</when>
        <gx:coord>12.6230545 51.829117 648.11206</gx:coord>
        <when>2025-01-01T00:24:30.2010590Z</when>
        <gx:coord>12.619815 51.827316 646.588</gx:coord>
        <when>2025-01-01T00:24:35.2010590Z</when>
        <gx:coord>12.616596 51.825516 645.06396</gx:coord>
        <when>2025-01-01T00:24:40.2010590Z</when>
        <gx:coord>12.613378 51.82371 648.11206</gx:coord>
        <when>2025-01-01T00:24:45.2010590Z</when>
        <gx:coord>12.61018 51.821953 652.68396</gx:coord>
        <when>2025-01-01T00:24:50.2000590Z</when>
        <gx:coord>12.606983 51.820236 654.20807</gx:coord>
        <when>2025-01-01T00:24:55.2010590Z</when>
        <gx:coord>12.603828 51.818474 654.20807</gx:coord>
        <when>2025-01-01T00:24:57.1360590Z</when>
        <gx:coord>12.602563 51.81777 654.20807</gx:coord>
        <when>2025-01-01T00:25:00.2010590Z</when>
        <gx:coord>12.600675 51.816696 654.20807</gx:coord>
        <when>2025-01-01T00:25:05.2010590Z</when>
        <gx:coord>12.597542 51.814934 658.77997</gx:coord>
        <when>2025-01-01T00:25:10.2010590Z</when>
        <gx:coord>12.594431 51.813156 660.30396</gx:coord>
        <when>2025-01-01T00:25:15.2000590Z</when>
        <gx:coord>12.591383 51.81135 658.77997</gx:coord>
        <when>2025-01-01T00:25:20.2010590Z</when>
        <gx:coord>12.588293 51.80953 661.82806</gx:coord>
        <when>2025-01-01T00:25:25.2010590Z</when>
        <gx:coord>12.585203 51.807705 660.30396</gx:coord>
        <when>2025-01-01T00:25:29.1340590Z</when>
        <gx:coord>12.582736 51.806244 660.30396</gx:coord>
        <when>2025-01-01T00:25:30.2010590Z</when>
        <gx:coord>12.582113 51.80588 657.256</gx:coord>
        <when>2025-01-01T00:25:35.2000590Z</when>
        <gx:coord>12.579045 51.803993 655.73206</gx:coord>
        <when>2025-01-01T00:25:40.2010590Z</when>
        <gx:coord>12.575977 51.80206 651.16</gx:coord>
        <when>2025-01-01T00:25:45.2010590Z</when>
        <gx:coord>12.572694 51.80017 646.588</gx:coord>
        <when>2025-01-01T00:25:50.2010590Z</when>
        <gx:coord>12.569368 51.79833 643.54</gx:coord>
        <when>2025-01-01T00:25:53.1220590Z</when>
        <gx:coord>12.568037 51.797577 642.01605</gx:coord>
        <when>2025-01-01T00:25:55.2010590Z</when>
        <gx:coord>12.566021 51.79644 642.01605</gx:coord>
        <when>2025-01-01T00:26:00.1580590Z</when>
        <gx:coord>12.56263 51.794594 642.01605</gx:coord>
        <when>2025-01-01T00:26:00.2010590Z</when>
        <gx:coord>12.56263 51.794594 640.49207</gx:coord>
        <when>2025-01-01T00:26:05.2010590Z</when>
        <gx:coord>12.559218 51.79279 640.49207</gx:coord>
        <when>2025-01-01T00:26:10.2010590Z</when>
        <gx:coord>12.555935 51.790924 642.01605</gx:coord>
        <when>2025-01-01T00:26:15.2010590Z</when>
        <gx:coord>12.552738 51.78906 643.54</gx:coord>
        <when>2025-01-01T00:26:20.2010590Z</when>
        <gx:coord>12.549498 51.78719 642.01605</gx:coord>
        <when>2025-01-01T00:26:25.2010590Z</when>
        <gx:coord>12.546194 51.785366 642.01605</gx:coord>
        <when>2025-01-01T00:26:30.2010590Z</when>
        <gx:coord>12.542974 51.7835 645.06396</gx:coord>
        <when>2025-01-01T00:26:31.1320590Z</when>
        <gx:coord>12.542332 51.783134 645.06396</gx:coord>
        <when>2025-01-01T00:26:35.2010590Z</when>
        <gx:coord>12.539821 51.781654 646.588</gx:coord>
        <when>2025-01-01T00:26:40.2010590Z</when>
        <gx:coord>12.536709 51.779808 648.11206</gx:coord>
        <when>2025-01-01T00:26:45.2010590Z</when>
        <gx:coord>12.533491 51.778008 646.588</gx:coord>
        <when>2025-01-01T00:26:50.2010590Z</when>
        <gx:coord>12.530251 51.776203 646.588</gx:coord>
        <when>2025-01-01T00:26:55.2010590Z</when>
        <gx:coord>12.527032 51.774403 649.636</gx:coord>
        <when>2025-01-01T00:27:00.2010590Z</when>
        <gx:coord>12.523792 51.772663 654.20807</gx:coord>
        <when>2025-01-01T00:27:03.1220590Z</when>
        <gx:coord>12.52186 51.771656 657.256</gx:coord>
        <when>2025-01-01T00:27:05.2010590Z</when>
        <gx:coord>12.520573 51.77099 661.82806</gx:coord>
        <when>2025-01-01T00:27:06.1200590Z</when>
        <gx:coord>12.520573 51.77099 661.82806</gx:coord>
        <when>2025-01-01T00:27:10.2010590Z</when>
        <gx:coord>12.517376 51.76936 667.924</gx:coord>
        <when>2025-01-01T00:27:15.2020590Z</when>
        <gx:coord>12.514243 51.767685 670.972</gx:coord>
        <when>2025-01-01T00:27:20.2010590Z</when>
        <gx:coord>12.511217 51.765945 669.44806</gx:coord>
        <when>2025-01-01T00:27:25.2010590Z</when>
        <gx:coord>12.508106 51.76421 667.924</gx:coord>
        <when>2025-01-01T00:27:30.2010590Z</when>
        <gx:coord>12.504973 51.76243 666.39996</gx:coord>
        <when>2025-01-01T00:27:35.2010590Z</when>
        <gx:coord>12.501798 51.760647 666.39996</gx:coord>
        <when>2025-01-01T00:27:36.1320590Z</when>
        <gx:coord>12.501175 51.760303 666.39996</gx:coord>
        <when>2025-01-01T00:27:40.2020590Z</when>
        <gx:coord>12.498622 51.758865 657.256</gx:coord>
        <when>2025-01-01T00:27:45.2020590Z</when>
        <gx:coord>12.495424 51.757065 652.68396</gx:coord>
        <when>2025-01-01T00:27:50.2020590Z</when>
        <gx:coord>12.492163 51.75524 648.11206</gx:coord>
        <when>2025-01-01T00:27:55.2020590Z</when>
        <gx:coord>12.488837 51.75346 646.588</gx:coord>
        <when>2025-01-01T00:28:00.2020590Z</when>
        <gx:coord>12.485468 51.75168 648.11206</gx:coord>
        <when>2025-01-01T00:28:05.2020590Z</when>
        <gx:coord>12.4821205 51.74992 652.68396</gx:coord>
        <when>2025-01-01T00:28:07.1370590Z</when>
        <gx:coord>12.480791 51.74921 652.60803</gx:coord>
        <when>2025-01-01T00:28:10.2020590Z</when>
        <gx:coord>12.478795 51.74818 652.60803</gx:coord>
        <when>2025-01-01T00:28:15.2020590Z</when>
        <gx:coord>12.475426 51.746464 654.1321</gx:coord>
        <when>2025-01-01T00:28:20.2020590Z</when>
        <gx:coord>12.472078 51.744724 652.60803</gx:coord>
        <when>2025-01-01T00:28:25.2020590Z</when>
        <gx:coord>12.468753 51.74299 654.1321</gx:coord>
        <when>2025-01-01T00:28:30.2010590Z</when>
        <gx:coord>12.46532 51.741337 658.704</gx:coord>
        <when>2025-01-01T00:28:31.1250590Z</when>
        <gx:coord>12.46532 51.741337 658.704</gx:coord>
        <when>2025-01-01T00:28:35.2020590Z</when>
        <gx:coord>12.461651 51.7399 660.2281</gx:coord>
        <when>2025-01-01T00:28:38.1300590Z</when>
        <gx:coord>12.459483 51.739017 660.2281</gx:coord>
        <when>2025-01-01T00:28:40.2020590Z</when>
        <gx:coord>12.458046 51.73842 658.704</gx:coord>
        <when>2025-01-01T00:28:45.2020590Z</when>
        <gx:coord>12.454441 51.736893 660.2281</gx:coord>
        <when>2025-01-01T00:28:50.2020590Z</when>
        <gx:coord>12.450836 51.73539 660.2281</gx:coord>
        <when>2025-01-01T00:28:55.2020590Z</when>
        <gx:coord>12.447209 51.73391 661.7521</gx:coord>
        <when>2025-01-01T00:29:00.2020590Z</when>
        <gx:coord>12.443476 51.732475 658.704</gx:coord>
        <when>2025-01-01T00:29:05.2020590Z</when>
        <gx:coord>12.439656 51.73108 657.18</gx:coord>
        <when>2025-01-01T00:29:09.1280590Z</when>
        <gx:coord>12.436588 51.72996 655.656</gx:coord>
        <when>2025-01-01T00:29:10.2010590Z</when>
        <gx:coord>12.435816 51.729683 655.656</gx:coord>
        <when>2025-01-01T00:29:15.2020590Z</when>
        <gx:coord>12.431974 51.72829 655.656</gx:coord>
        <when>2025-01-01T00:29:20.2010590Z</when>
        <gx:coord>12.428133 51.72687 655.656</gx:coord>
        <when>2025-01-01T00:29:25.2010590Z</when>
        <gx:coord>12.424293 51.725433 654.1321</gx:coord>
        <when>2025-01-01T00:29:30.2020590Z</when>
        <gx:coord>12.420366 51.724083 654.1321</gx:coord>
        <when>2025-01-01T00:29:32.1200590Z</when>
        <gx:coord>12.419594 51.723804 652.60803</gx:coord>
        <when>2025-01-01T00:29:35.2020590Z</when>
        <gx:coord>12.416439 51.722687 644.98804</gx:coord>
        <when>2025-01-01T00:29:39.1310590Z</when>
        <gx:coord>12.413263 51.72155 641.94</gx:coord>
        <when>2025-01-01T00:29:40.2020590Z</when>
        <gx:coord>12.41247 51.72127 641.94</gx:coord>
        <when>2025-01-01T00:29:45.2010590Z</when>
        <gx:coord>12.408522 51.719856 640.4161</gx:coord>
        <when>2025-01-01T00:29:50.2020590Z</when>
        <gx:coord>12.4045515 51.71846 637.368</gx:coord>
        <when>2025-01-01T00:29:55.2020590Z</when>
        <gx:coord>12.400581 51.717068 637.368</gx:coord>
        <when>2025-01-01T00:30:00.2020590Z</when>
        <gx:coord>12.396633 51.715714 637.368</gx:coord>
        <when>2025-01-01T00:30:05.2020590Z</when>
        <gx:coord>12.392664 51.714386 637.368</gx:coord>
        <when>2025-01-01T00:30:09.1310590Z</when>
        <gx:coord>12.389467 51.713333 637.368</gx:coord>
        <when>2025-01-01T00:30:10.2020590Z</when>
        <gx:coord>12.388673 51.713097 638.8921</gx:coord>
        <when>2025-01-01T00:30:15.2020590Z</when>
        <gx:coord>12.384661 51.711853 638.8921</gx:coord>
        <when>2025-01-01T00:30:20.2020590Z</when>
        <gx:coord>12.380627 51.71065 640.4161</gx:coord>
        <when>2025-01-01T00:30:25.2030590Z</when>
        <gx:coord>12.376593 51.709473 640.4161</gx:coord>
        <when>2025-01-01T00:30:30.2020590Z</when>
        <gx:coord>12.372559 51.708267 637.368</gx:coord>
        <when>2025-01-01T00:30:35.2020590Z</when>
        <gx:coord>12.368525 51.707024 640.4161</gx:coord>
        <when>2025-01-01T00:30:39.1330590Z</when>
        <gx:coord>12.365284 51.70608 640.4161</gx:coord>
        <when>2025-01-01T00:30:40.2020590Z</when>
        <gx:coord>12.3644905 51.705845 640.4161</gx:coord>
        <when>2025-01-01T00:30:45.2020590Z</when>
        <gx:coord>12.360413 51.704685 643.464</gx:coord>
        <when>2025-01-01T00:30:50.2020590Z</when>
        <gx:coord>12.356337 51.70355 643.464</gx:coord>
        <when>2025-01-01T00:30:55.2020590Z</when>
        <gx:coord>12.352217 51.70241 641.94</gx:coord>
        <when>2025-01-01T00:31:00.2020590Z</when>
        <gx:coord>12.348075 51.70134 641.94</gx:coord>
        <when>2025-01-01T00:31:04.1240590Z</when>
        <gx:coord>12.345586 51.700714 644.98804</gx:coord>
        <when>2025-01-01T00:31:05.2090590Z</when>
        <gx:coord>12.343912 51.70031 646.5121</gx:coord>
        <when>2025-01-01T00:31:09.1300590Z</when>
        <gx:coord>12.340608 51.699516 649.56</gx:coord>
        <when>2025-01-01T00:31:10.2030590Z</when>
        <gx:coord>12.339771 51.69932 651.084</gx:coord>
        <when>2025-01-01T00:31:15.2020590Z</when>
        <gx:coord>12.335608 51.698376 651.084</gx:coord>
        <when>2025-01-01T00:31:20.2030590Z</when>
        <gx:coord>12.331488 51.697456 649.56</gx:coord>
        <when>2025-01-01T00:31:25.2030590Z</when>
        <gx:coord>12.32739 51.696533 648.036</gx:coord>
        <when>2025-01-01T00:31:30.2020590Z</when>
        <gx:coord>12.323313 51.695564 646.5121</gx:coord>
        <when>2025-01-01T00:31:35.2020590Z</when>
        <gx:coord>12.319236 51.694622 649.56</gx:coord>
        <when>2025-01-01T00:31:40.1300590Z</when>
        <gx:coord>12.315116 51.69372 648.036</gx:coord>
        <when>2025-01-01T00:31:40.2030590Z</when>
        <gx:coord>12.315116 51.69372 646.5121</gx:coord>
        <when>2025-01-01T00:31:45.2020590Z</when>
        <gx:coord>12.31091 51.69284 641.94</gx:coord>
        <when>2025-01-01T00:31:50.2020590Z</when>
        <gx:coord>12.306662 51.692024 643.464</gx:coord>
        <when>2025-01-01T00:31:55.2030590Z</when>
        <gx:coord>12.302391 51.691254 643.464</gx:coord>
        <when>2025-01-01T00:32:00.2030590Z</when>
        <gx:coord>12.298164 51.69048 648.036</gx:coord>
        <when>2025-01-01T00:32:05.2030590Z</when>
        <gx:coord>12.293959 51.689774 648.036</gx:coord>
        <when>2025-01-01T00:32:10.2030590Z</when>
        <gx:coord>12.28971 51.68904 641.94</gx:coord>
        <when>2025-01-01T00:32:11.1410590Z</when>
        <gx:coord>12.288852 51.688892 641.94</gx:coord>
        <when>2025-01-01T00:32:15.2030590Z</when>
        <gx:coord>12.2854185 51.688313 641.94</gx:coord>
        <when>2025-01-01T00:32:20.2030590Z</when>
        <gx:coord>12.281127 51.687584 643.464</gx:coord>
        <when>2025-01-01T00:32:25.2030590Z</when>
        <gx:coord>12.276835 51.686897 644.98804</gx:coord>
        <when>2025-01-01T00:32:30.2030590Z</when>
        <gx:coord>12.27248 51.686234 641.94</gx:coord>
        <when>2025-01-01T00:32:35.2030590Z</when>
        <gx:coord>12.268124 51.68563 644.98804</gx:coord>
        <when>2025-01-01T00:32:40.2020590Z</when>
        <gx:coord>12.263789 51.685074 651.084</gx:coord>
        <when>2025-01-01T00:32:41.1260590Z</when>
        <gx:coord>12.263789 51.685074 651.084</gx:coord>
        <when>2025-01-01T00:32:42.1350590Z</when>
        <gx:coord>12.262051 51.68488 652.60803</gx:coord>
        <when>2025-01-01T00:32:45.2030590Z</when>
        <gx:coord>12.259455 51.6846 652.60803</gx:coord>
        <when>2025-01-01T00:32:50.2020590Z</when>
        <gx:coord>12.25512 51.68415 651.084</gx:coord>
        <when>2025-01-01T00:32:55.2020590Z</when>
        <gx:coord>12.250721 51.683678 646.5121</gx:coord>
        <when>2025-01-01T00:33:00.2020590Z</when>
        <gx:coord>12.24628 51.683205 636.58795</gx:coord>
        <when>2025-01-01T00:33:05.2030590Z</when>
        <gx:coord>12.24188 51.6828 638.112</gx:coord>
        <when>2025-01-01T00:33:10.2030590Z</when>
        <gx:coord>12.237417 51.682457 635.06396</gx:coord>
        <when>2025-01-01T00:33:13.1350590Z</when>
        <gx:coord>12.2347355 51.682262 635.06396</gx:coord>
        <when>2025-01-01T00:33:15.2030590Z</when>
        <gx:coord>12.232954 51.682175 633.54</gx:coord>
        <when>2025-01-01T00:33:20.2030590Z</when>
        <gx:coord>12.22847 51.681812 630.49207</gx:coord>
        <when>2025-01-01T00:33:25.2030590Z</when>
        <gx:coord>12.224113 51.681168 632.016</gx:coord>
        <when>2025-01-01T00:33:30.2030590Z</when>
        <gx:coord>12.21978 51.68044 628.96796</gx:coord>
        <when>2025-01-01T00:33:35.2030590Z</when>
        <gx:coord>12.215424 51.67973 627.444</gx:coord>
        <when>2025-01-01T00:33:40.2030590Z</when>
        <gx:coord>12.211003 51.679066 622.872</gx:coord>
        <when>2025-01-01T00:33:43.1380590Z</when>
        <gx:coord>12.208343 51.67868 622.872</gx:coord>
        <when>2025-01-01T00:33:45.2030590Z</when>
        <gx:coord>12.206583 51.6784 625.92</gx:coord>
        <when>2025-01-01T00:33:50.2030590Z</when>
        <gx:coord>12.2022705 51.677734 636.58795</gx:coord>
        <when>2025-01-01T00:33:55.2030590Z</when>
        <gx:coord>12.198065 51.677048 642.68396</gx:coord>
        <when>2025-01-01T00:34:00.2030590Z</when>
        <gx:coord>12.193901 51.676384 648.77997</gx:coord>
        <when>2025-01-01T00:34:05.2030590Z</when>
        <gx:coord>12.189781 51.675674 653.352</gx:coord>
        <when>2025-01-01T00:34:10.2040590Z</when>
        <gx:coord>12.185683 51.674965 656.39996</gx:coord>
        <when>2025-01-01T00:34:15.1390590Z</when>
        <gx:coord>12.181627 51.67426 660.972</gx:coord>
        <when>2025-01-01T00:34:15.2040590Z</when>
        <gx:coord>12.181627 51.67426 660.972</gx:coord>
        <when>2025-01-01T00:34:20.2030590Z</when>
        <gx:coord>12.177572 51.673508 660.972</gx:coord>
        <when>2025-01-01T00:34:25.2030590Z</when>
        <gx:coord>12.173517 51.672737 659.448</gx:coord>
        <when>2025-01-01T00:34:30.2030590Z</when>
        <gx:coord>12.169375 51.671963 656.39996</gx:coord>
        <when>2025-01-01T00:34:35.2040590Z</when>
        <gx:coord>12.165234 51.67119 648.77997</gx:coord>
        <when>2025-01-01T00:34:40.2040590Z</when>
        <gx:coord>12.161072 51.67044 650.30396</gx:coord>
        <when>2025-01-01T00:34:45.2040590Z</when>
        <gx:coord>12.15693 51.669647 653.352</gx:coord>
        <when>2025-01-01T00:34:47.1410590Z</when>
        <gx:coord>12.155321 51.669304 654.876</gx:coord>
        <when>2025-01-01T00:34:50.2030590Z</when>
        <gx:coord>12.152896 51.668766 656.39996</gx:coord>
        <when>2025-01-01T00:34:55.2040590Z</when>
        <gx:coord>12.148862 51.667885 659.448</gx:coord>
        <when>2025-01-01T00:35:00.2030590Z</when>
        <gx:coord>12.144871 51.666985 662.496</gx:coord>
        <when>2025-01-01T00:35:01.1430590Z</when>
        <gx:coord>12.144871 51.666985 662.496</gx:coord>
        <when>2025-01-01T00:35:05.2040590Z</when>
        <gx:coord>12.140923 51.66604 665.54407</gx:coord>
        <when>2025-01-01T00:35:10.2030590Z</when>
        <gx:coord>12.13706 51.66499 668.592</gx:coord>
        <when>2025-01-01T00:35:15.2030590Z</when>
        <gx:coord>12.133219 51.66396 670.11597</gx:coord>
        <when>2025-01-01T00:35:19.1340590Z</when>
        <gx:coord>12.130108 51.663124 667.068</gx:coord>
        <when>2025-01-01T00:35:20.2040590Z</when>
        <gx:coord>12.129314 51.662907 664.01996</gx:coord>
        <when>2025-01-01T00:35:25.2040590Z</when>
        <gx:coord>12.125344 51.661858 660.972</gx:coord>
        <when>2025-01-01T00:35:30.2030590Z</when>
        <gx:coord>12.121332 51.660847 660.972</gx:coord>
        <when>2025-01-01T00:35:35.2030590Z</when>
        <gx:coord>12.11734 51.659817 660.972</gx:coord>
        <when>2025-01-01T00:35:40.2040590Z</when>
        <gx:coord>12.113392 51.658768 662.496</gx:coord>
        <when>2025-01-01T00:35:45.2040590Z</when>
        <gx:coord>12.109488 51.657692 670.11597</gx:coord>
        <when>2025-01-01T00:35:50.1260590Z</when>
        <gx:coord>12.106419 51.6569 674.688</gx:coord>
        <when>2025-01-01T00:35:50.2040590Z</when>
        <gx:coord>12.105646 51.656685 676.212</gx:coord>
        <when>2025-01-01T00:35:51.1380590Z</when>
        <gx:coord>12.104874 51.65649 676.212</gx:coord>
        <when>2025-01-01T00:35:55.2040590Z</when>
        <gx:coord>12.101805 51.655678 677.73596</gx:coord>
        <when>2025-01-01T00:36:00.2040590Z</when>
        <gx:coord>12.097986 51.65469 677.73596</gx:coord>
        <when>2025-01-01T00:36:03.1230590Z</when>
        <gx:coord>12.095669 51.654087 680.784</gx:coord>
        <when>2025-01-01T00:36:05.2040590Z</when>
        <gx:coord>12.094145 51.65368 682.308</gx:coord>
        <when>2025-01-01T00:36:10.2040590Z</when>
        <gx:coord>12.090325 51.652714 685.35596</gx:coord>
        <when>2025-01-01T00:36:15.2040590Z</when>
        <gx:coord>12.086485 51.651707 685.35596</gx:coord>
        <when>2025-01-01T00:36:20.2040590Z</when>
        <gx:coord>12.082601 51.6507 688.404</gx:coord>
        <when>2025-01-01T00:36:24.1360590Z</when>
        <gx:coord>12.079489 51.649925 689.928</gx:coord>
        <when>2025-01-01T00:36:25.2040590Z</when>
        <gx:coord>12.078695 51.649734 689.928</gx:coord>
        <when>2025-01-01T00:36:30.2040590Z</when>
        <gx:coord>12.074768 51.64879 689.928</gx:coord>
        <when>2025-01-01T00:36:31.4450590Z</when>
        <gx:coord>12.073975 51.648594 689.928</gx:coord>
        <when>2025-01-01T00:36:35.2040590Z</when>
        <gx:coord>12.07082 51.6478 686.88007</gx:coord>
        <when>2025-01-01T00:36:40.2040590Z</when>
        <gx:coord>12.066894 51.64675 689.928</gx:coord>
        <when>2025-01-01T00:36:45.2040590Z</when>
        <gx:coord>12.063074 51.64559 691.45197</gx:coord>
        <when>2025-01-01T00:36:50.2040590Z</when>
        <gx:coord>12.059212 51.644497 694.5</gx:coord>
        <when>2025-01-01T00:36:55.2040590Z</when>
        <gx:coord>12.0552845 51.64349 692.97595</gx:coord>
        <when>2025-01-01T00:36:56.1330590Z</when>
        <gx:coord>12.054491 51.643295 692.97595</gx:coord>
        <when>2025-01-01T00:37:00.2050590Z</when>
        <gx:coord>12.051294 51.64248 689.928</gx:coord>
        <when>2025-01-01T00:37:05.2050590Z</when>
        <gx:coord>12.04726 51.64145 686.88007</gx:coord>
        <when>2025-01-01T00:37:10.2050590Z</when>
        <gx:coord>12.043204 51.64044 691.45197</gx:coord>
        <when>2025-01-01T00:37:15.2040590Z</when>
        <gx:coord>12.039148 51.639454 689.928</gx:coord>
        <when>2025-01-01T00:37:20.2050590Z</when>
        <gx:coord>12.035093 51.638424 689.928</gx:coord>
        <when>2025-01-01T00:37:25.2050590Z</when>
        <gx:coord>12.030994 51.637417 686.88007</gx:coord>
        <when>2025-01-01T00:37:27.1310590Z</when>
        <gx:coord>12.029343 51.63701 686.88007</gx:coord>
        <when>2025-01-01T00:37:30.2050590Z</when>
        <gx:coord>12.026854 51.636406 680.784</gx:coord>
        <when>2025-01-01T00:37:31.1250590Z</when>
        <gx:coord>12.026854 51.636406 680.784</gx:coord>
        <when>2025-01-01T00:37:35.2040590Z</when>
        <gx:coord>12.022627 51.635376 676.212</gx:coord>
        <when>2025-01-01T00:37:40.2050590Z</when>
        <gx:coord>12.018485 51.634285 679.2601</gx:coord>
        <when>2025-01-01T00:37:45.2050590Z</when>
        <gx:coord>12.014559 51.632996 680.784</gx:coord>
        <when>2025-01-01T00:37:50.2040590Z</when>
        <gx:coord>12.01076 51.6316 680.784</gx:coord>
        <when>2025-01-01T00:37:55.2050590Z</when>
        <gx:coord>12.006984 51.630184 680.784</gx:coord>
        <when>2025-01-01T00:37:56.1250590Z</when>
        <gx:coord>12.006984 51.630184 680.784</gx:coord>
        <when>2025-01-01T00:37:58.1290590Z</when>
        <gx:coord>12.004752 51.629326 682.308</gx:coord>
        <when>2025-01-01T00:38:00.2050590Z</when>
        <gx:coord>12.003271 51.628727 683.832</gx:coord>
        <when>2025-01-01T00:38:05.2050590Z</when>
        <gx:coord>11.999624 51.627266 682.308</gx:coord>
        <when>2025-01-01T00:38:10.2040590Z</when>
        <gx:coord>11.99604 51.625763 682.308</gx:coord>
        <when>2025-01-01T00:38:15.2050590Z</when>
        <gx:coord>11.992478 51.62424 680.784</gx:coord>
        <when>2025-01-01T00:38:20.2050590Z</when>
        <gx:coord>11.988895 51.62272 677.73596</gx:coord>
        <when>2025-01-01T00:38:25.2050590Z</when>
        <gx:coord>11.9853115 51.62115 673.164</gx:coord>
        <when>2025-01-01T00:38:29.1490590Z</when>
        <gx:coord>11.982414 51.619884 671.63995</gx:coord>
        <when>2025-01-01T00:38:30.2050590Z</when>
        <gx:coord>11.981707 51.619564 670.11597</gx:coord>
        <when>2025-01-01T00:38:35.2050590Z</when>
        <gx:coord>11.978059 51.617996 664.01996</gx:coord>
        <when>2025-01-01T00:38:40.2050590Z</when>
        <gx:coord>11.974325 51.61641 656.39996</gx:coord>
        <when>2025-01-01T00:38:45.2050590Z</when>
        <gx:coord>11.970592 51.614822 656.39996</gx:coord>
        <when>2025-01-01T00:38:50.2050590Z</when>
        <gx:coord>11.966858 51.613255 656.39996</gx:coord>
        <when>2025-01-01T00:38:55.2060590Z</when>
        <gx:coord>11.963253 51.611626 656.39996</gx:coord>
        <when>2025-01-01T00:38:59.1310590Z</when>
        <gx:coord>11.960592 51.610188 653.352</gx:coord>
        <when>2025-01-01T00:39:00.1270590Z</when>
        <gx:coord>11.960592 51.610188 653.352</gx:coord>
        <when>2025-01-01T00:39:00.2050590Z</when>
        <gx:coord>11.959949 51.6098 651.828</gx:coord>
        <when>2025-01-01T00:39:01.1270590Z</when>
        <gx:coord>11.959326 51.609413 650.30396</gx:coord>
        <when>2025-01-01T00:39:05.2050590Z</when>
        <gx:coord>11.956881 51.607803 642.68396</gx:coord>
        <when>2025-01-01T00:39:10.2050590Z</when>
        <gx:coord>11.954048 51.60568 638.112</gx:coord>
        <when>2025-01-01T00:39:14.1250590Z</when>
        <gx:coord>11.952459 51.60437 635.06396</gx:coord>
        <when>2025-01-01T00:39:15.2060590Z</when>
        <gx:coord>11.951429 51.60347 632.016</gx:coord>
        <when>2025-01-01T00:39:20.2060590Z</when>
        <gx:coord>11.949177 51.60109 622.872</gx:coord>
        <when>2025-01-01T00:39:22.1190590Z</when>
        <gx:coord>11.948361 51.60012 619.824</gx:coord>
        <when>2025-01-01T00:39:25.2060590Z</when>
        <gx:coord>11.947203 51.598686 616.776</gx:coord>
        <when>2025-01-01T00:39:27.1180590Z</when>
        <gx:coord>11.946859 51.59819 615.25195</gx:coord>
        <when>2025-01-01T00:39:27.1180590Z</when>
        <gx:coord>11.946859 51.59819 615.25195</gx:coord>
        <when>2025-01-01T00:39:30.1350590Z</when>
        <gx:coord>11.945637 51.596325 610.68</gx:coord>
        <when>2025-01-01T00:39:30.2050590Z</when>
        <gx:coord>11.945637 51.596325 610.68</gx:coord>
        <when>2025-01-01T00:39:33.1230590Z</when>
        <gx:coord>11.945186 51.595425 609.156</gx:coord>
        <when>2025-01-01T00:39:34.1280590Z</when>
        <gx:coord>11.945014 51.59497 607.63196</gx:coord>
        <when>2025-01-01T00:39:35.2050590Z</when>
        <gx:coord>11.944735 51.59407 604.584</gx:coord>
        <when>2025-01-01T00:39:40.1290590Z</when>
        <gx:coord>11.944456 51.592335 595.44</gx:coord>
        <when>2025-01-01T00:39:40.1290590Z</when>
        <gx:coord>11.944456 51.592335 595.44</gx:coord>
        <when>2025-01-01T00:39:40.2050590Z</when>
        <gx:coord>11.944456 51.591927 592.39197</gx:coord>
        <when>2025-01-01T00:39:43.1210590Z</when>
        <gx:coord>11.944563 51.590702 587.82</gx:coord>
        <when>2025-01-01T00:39:45.2060590Z</when>
        <gx:coord>11.944735 51.58991 584.772</gx:coord>
        <when>2025-01-01T00:39:48.1280590Z</when>
        <gx:coord>11.944971 51.589157 580.19995</gx:coord>
        <when>2025-01-01T00:39:49.1250590Z</when>
        <gx:coord>11.945078 51.58879 578.67596</gx:coord>
        <when>2025-01-01T00:39:50.2060590Z</when>
        <gx:coord>11.945314 51.588062 572.57996</gx:coord>
        <when>2025-01-01T00:39:55.1240590Z</when>
        <gx:coord>11.945872 51.58622 557.33997</gx:coord>
        <when>2025-01-01T00:39:55.2060590Z</when>
        <gx:coord>11.945872 51.58622 557.33997</gx:coord>
        <when>2025-01-01T00:40:00.2060590Z</when>
        <gx:coord>11.94643 51.584415 540.576</gx:coord>
        <when>2025-01-01T00:40:03.1290590Z</when>
        <gx:coord>11.946753 51.58332 523.81195</gx:coord>
        <when>2025-01-01T00:40:05.2050590Z</when>
        <gx:coord>11.94701 51.582592 517.716</gx:coord>
        <when>2025-01-01T00:40:10.2060590Z</when>
        <gx:coord>11.947653 51.580788 504</gx:coord>
        <when>2025-01-01T00:40:13.1270590Z</when>
        <gx:coord>11.948018 51.579716 499.42798</gx:coord>
        <when>2025-01-01T00:40:15.2060590Z</when>
        <gx:coord>11.948233 51.578987 494.856</gx:coord>
        <when>2025-01-01T00:40:16.1350590Z</when>
        <gx:coord>11.948361 51.578644 491.80798</gx:coord>
        <when>2025-01-01T00:40:20.2050590Z</when>
        <gx:coord>11.948898 51.577248 487.236</gx:coord>
        <when>2025-01-01T00:40:25.2060590Z</when>
        <gx:coord>11.949713 51.575577 482.664</gx:coord>
        <when>2025-01-01T00:40:30.2060590Z</when>
        <gx:coord>11.950615 51.57392 476.56802</gx:coord>
        <when>2025-01-01T00:40:35.1270590Z</when>
        <gx:coord>11.951344 51.572655 476.56802</gx:coord>
        <when>2025-01-01T00:40:35.2060590Z</when>
        <gx:coord>11.951537 51.572357 476.56802</gx:coord>
        <when>2025-01-01T00:40:37.1270590Z</when>
        <gx:coord>11.951731 51.572056 476.56802</gx:coord>
        <when>2025-01-01T00:40:40.2060590Z</when>
        <gx:coord>11.952567 51.570854 473.52</gx:coord>
        <when>2025-01-01T00:40:45.2060590Z</when>
        <gx:coord>11.953705 51.56944 470.472</gx:coord>
        <when>2025-01-01T00:40:50.2060590Z</when>
        <gx:coord>11.954906 51.568066 468.94803</gx:coord>
        <when>2025-01-01T00:40:55.2060590Z</when>
        <gx:coord>11.956086 51.566692 462.85202</gx:coord>
        <when>2025-01-01T00:40:59.1230590Z</when>
        <gx:coord>11.957052 51.565575 459.80402</gx:coord>
        <when>2025-01-01T00:41:00.2060590Z</when>
        <gx:coord>11.957288 51.565296 459.80402</gx:coord>
        <when>2025-01-01T00:41:04.1290590Z</when>
        <gx:coord>11.958254 51.564224 458.27997</gx:coord>
        <when>2025-01-01T00:41:05.2060590Z</when>
        <gx:coord>11.958511 51.563965 458.27997</gx:coord>
        <when>2025-01-01T00:41:10.2060590Z</when>
        <gx:coord>11.959713 51.562656 458.27997</gx:coord>
        <when>2025-01-01T00:41:15.2060590Z</when>
        <gx:coord>11.960936 51.56139 456.75598</gx:coord>
        <when>2025-01-01T00:41:20.2060590Z</when>
        <gx:coord>11.962137 51.560127 452.18402</gx:coord>
        <when>2025-01-01T00:41:25.2060590Z</when>
        <gx:coord>11.963404 51.55886 447.612</gx:coord>
        <when>2025-01-01T00:41:30.2060590Z</when>
        <gx:coord>11.964712 51.55757 443.03998</gx:coord>
        <when>2025-01-01T00:41:35.2060590Z</when>
        <gx:coord>11.965893 51.5562 439.992</gx:coord>
        <when>2025-01-01T00:41:38.1290590Z</when>
        <gx:coord>11.966386 51.555664 439.992</gx:coord>
        <when>2025-01-01T00:41:40.2050590Z</when>
        <gx:coord>11.967266 51.554955 439.992</gx:coord>
        <when>2025-01-01T00:41:42.1230590Z</when>
        <gx:coord>11.967587 51.55476 441.51602</gx:coord>
        <when>2025-01-01T00:41:42.1240590Z</when>
        <gx:coord>11.967587 51.55476 441.51602</gx:coord>
        <when>2025-01-01T00:41:44.1320590Z</when>
        <gx:coord>11.968274 51.554417 444.56406</gx:coord>
        <when>2025-01-01T00:41:45.2070590Z</when>
        <gx:coord>11.969004 51.554203 447.612</gx:coord>
        <when>2025-01-01T00:41:47.1270590Z</when>
        <gx:coord>11.96939 51.554115 447.612</gx:coord>
        <when>2025-01-01T00:41:49.1340590Z</when>
        <gx:coord>11.97014 51.55401 447.612</gx:coord>
        <when>2025-01-01T00:41:50.1250590Z</when>
        <gx:coord>11.970506 51.55401 447.612</gx:coord>
        <when>2025-01-01T00:41:50.2060590Z</when>
        <gx:coord>11.970892 51.55401 446.088</gx:coord>
        <when>2025-01-01T00:41:55.2060590Z</when>
        <gx:coord>11.972759 51.554115 441.51602</gx:coord>
        <when>2025-01-01T00:42:00.2070590Z</when>
        <gx:coord>11.9746685 51.554268 436.94397</gx:coord>
        <when>2025-01-01T00:42:05.2070590Z</when>
        <gx:coord>11.976536 51.554398 433.89603</gx:coord>
        <when>2025-01-01T00:42:08.1240590Z</when>
        <gx:coord>11.977694 51.55448 429.32397</gx:coord>
        <when>2025-01-01T00:42:10.2060590Z</when>
        <gx:coord>11.978466 51.554546 426.276</gx:coord>
        <when>2025-01-01T00:42:15.1240590Z</when>
        <gx:coord>11.980462 51.554653 421.70398</gx:coord>
        <when>2025-01-01T00:42:15.2070590Z</when>
        <gx:coord>11.980462 51.554653 420.18002</gx:coord>
        <when>2025-01-01T00:42:20.2060590Z</when>
        <gx:coord>11.9825 51.554718 412.56003</gx:coord>
        <when>2025-01-01T00:42:24.1170590Z</when>
        <gx:coord>11.983746 51.554783 409.51202</gx:coord>
        <when>2025-01-01T00:42:25.2070590Z</when>
        <gx:coord>11.98456 51.554913 407.98798</gx:coord>
        <when>2025-01-01T00:42:29.1110590Z</when>
        <gx:coord>11.985762 51.55517 404.94</gx:coord>
        <when>2025-01-01T00:42:30.2070590Z</when>
        <gx:coord>11.986534 51.55538 401.89197</gx:coord>
        <when>2025-01-01T00:42:33.1250590Z</when>
        <gx:coord>11.987736 51.555748 395.79602</gx:coord>
        <when>2025-01-01T00:42:35.2060590Z</when>
        <gx:coord>11.98853 51.55596 392.748</gx:coord>
        <when>2025-01-01T00:42:36.1120590Z</when>
        <gx:coord>11.98853 51.55596 392.748</gx:coord>
        <when>2025-01-01T00:42:40.2070590Z</when>
        <gx:coord>11.990612 51.5565 386.65198</gx:coord>
        <when>2025-01-01T00:42:45.2070590Z</when>
        <gx:coord>11.992672 51.557014 380.55597</gx:coord>
        <when>2025-01-01T00:42:50.2060590Z</when>
        <gx:coord>11.994753 51.55753 375.984</gx:coord>
        <when>2025-01-01T00:42:55.2070590Z</when>
        <gx:coord>11.996813 51.558044 372.93597</gx:coord>
        <when>2025-01-01T00:43:00.2070590Z</when>
        <gx:coord>11.99883 51.55858 366.84006</gx:coord>
        <when>2025-01-01T00:43:02.1190590Z</when>
        <gx:coord>11.999645 51.558796 365.31598</gx:coord>
        <when>2025-01-01T00:43:05.2060590Z</when>
        <gx:coord>12.000868 51.559116 362.268</gx:coord>
        <when>2025-01-01T00:43:10.2070590Z</when>
        <gx:coord>12.002886 51.55974 356.17203</gx:coord>
        <when>2025-01-01T00:43:15.2070590Z</when>
        <gx:coord>12.004902 51.560383 348.552</gx:coord>
        <when>2025-01-01T00:43:17.7200590Z</when>
        <gx:coord>12.005718 51.56064 347.028</gx:coord>
        <when>2025-01-01T00:43:20.2070590Z</when>
        <gx:coord>12.006941 51.561028 343.97998</gx:coord>
        <when>2025-01-01T00:43:25.2060590Z</when>
        <gx:coord>12.009044 51.561584 336.36</gx:coord>
        <when>2025-01-01T00:43:27.1260590Z</when>
        <gx:coord>12.009924 51.5618 333.312</gx:coord>
        <when>2025-01-01T00:43:30.2070590Z</when>
        <gx:coord>12.011253 51.562077 328.74002</gx:coord>
        <when>2025-01-01T00:43:32.1240590Z</when>
        <gx:coord>12.011704 51.56214 327.216</gx:coord>
        <when>2025-01-01T00:43:35.2070590Z</when>
        <gx:coord>12.013485 51.562355 327.216</gx:coord>
        <when>2025-01-01T00:43:37.1290590Z</when>
        <gx:coord>12.013893 51.562378 327.216</gx:coord>
        <when>2025-01-01T00:43:40.2070590Z</when>
        <gx:coord>12.015481 51.562336 322.64398</gx:coord>
        <when>2025-01-01T00:43:44.1300590Z</when>
        <gx:coord>12.016619 51.56225 316.54797</gx:coord>
        <when>2025-01-01T00:43:45.2070590Z</when>
        <gx:coord>12.017391 51.562164 310.45203</gx:coord>
        <when>2025-01-01T00:43:48.1190590Z</when>
        <gx:coord>12.018528 51.56201 301.30798</gx:coord>
        <when>2025-01-01T00:43:50.2070590Z</when>
        <gx:coord>12.0193 51.561886 295.21198</gx:coord>
        <when>2025-01-01T00:43:54.1300590Z</when>
        <gx:coord>12.020416 51.56165 289.11603</gx:coord>
        <when>2025-01-01T00:43:55.2060590Z</when>
        <gx:coord>12.021124 51.561455 286.068</gx:coord>
        <when>2025-01-01T00:44:00.2070590Z</when>
        <gx:coord>12.022884 51.56098 273.87598</gx:coord>
        <when>2025-01-01T00:44:02.1230590Z</when>
        <gx:coord>12.023571 51.56079 269.30402</gx:coord>
        <when>2025-01-01T00:44:05.2070590Z</when>
        <gx:coord>12.024643 51.560513 261.68402</gx:coord>
        <when>2025-01-01T00:44:10.2070590Z</when>
        <gx:coord>12.026445 51.560017 247.96802</gx:coord>
        <when>2025-01-01T00:44:14.1180590Z</when>
        <gx:coord>12.027926 51.55963 238.82399</gx:coord>
        <when>2025-01-01T00:44:15.2070590Z</when>
        <gx:coord>12.028292 51.559547 235.77599</gx:coord>
        <when>2025-01-01T00:44:20.2070590Z</when>
        <gx:coord>12.030115 51.559032 225.10799</gx:coord>
        <when>2025-01-01T00:44:25.2070590Z</when>
        <gx:coord>12.0319605 51.558517 212.91602</gx:coord>
        <when>2025-01-01T00:44:26.1260590Z</when>
        <gx:coord>12.032347 51.55841 212.91602</gx:coord>
        <when>2025-01-01T00:44:27.1260590Z</when>
        <gx:coord>12.032711 51.558323 208.344</gx:coord>
        <when>2025-01-01T00:44:30.2070590Z</when>
        <gx:coord>12.033827 51.558002 200.72401</gx:coord>
        <when>2025-01-01T00:44:35.2080590Z</when>
        <gx:coord>12.035694 51.557465 190.05602</gx:coord>
        <when>2025-01-01T00:44:40.2070590Z</when>
        <gx:coord>12.0375395 51.55695 177.86401</gx:coord>
        <when>2025-01-01T00:44:41.1290590Z</when>
        <gx:coord>12.037905 51.55686 174.816</gx:coord>
        <when>2025-01-01T00:44:45.2080590Z</when>
        <gx:coord>12.039364 51.556477 164.148</gx:coord>
        <when>2025-01-01T00:44:50.2080590Z</when>
        <gx:coord>12.041208 51.55596 150.43199</gx:coord>
        <when>2025-01-01T00:44:53.1130590Z</when>
        <gx:coord>12.042346 51.55562 142.812</gx:coord>
        <when>2025-01-01T00:44:55.2070590Z</when>
        <gx:coord>12.043097 51.555405 138.24</gx:coord>
        <when>2025-01-01T00:45:00.2080590Z</when>
        <gx:coord>12.045029 51.554867 127.572014</gx:coord>
        <when>2025-01-01T00:45:05.2070590Z</when>
        <gx:coord>12.046917 51.55435 115.38001</gx:coord>
        <when>2025-01-01T00:45:10.1040590Z</when>
        <gx:coord>12.048332 51.553925 116.90401</gx:coord>
        <when>2025-01-01T00:45:10.2080590Z</when>
        <gx:coord>12.048676 51.553837 116.90401</gx:coord>
        <when>2025-01-01T00:45:15.2070590Z</when>
        <gx:coord>12.0501995 51.55341 115.38001</gx:coord>
        <when>2025-01-01T00:45:18.1250590Z</when>
        <gx:coord>12.050757 51.55326 115.38001</gx:coord>
        <when>2025-01-01T00:45:20.2070590Z</when>
        <gx:coord>12.05153 51.553066 115.38001</gx:coord>
        <when>2025-01-01T00:45:25.2080590Z</when>
        <gx:coord>12.052689 51.552742 113.856</gx:coord>
        <when>2025-01-01T00:45:28.1230590Z</when>
        <gx:coord>12.053097 51.552616 113.856</gx:coord>
        <when>2025-01-01T00:45:30.2070590Z</when>
        <gx:coord>12.053676 51.552444 113.856</gx:coord>
        <when>2025-01-01T00:45:35.2080590Z</when>
        <gx:coord>12.05447 51.55223 113.856</gx:coord>
        <when>2025-01-01T00:45:36.1230590Z</when>
        <gx:coord>12.05447 51.55223 113.856</gx:coord>
        <when>2025-01-01T00:45:40.2080590Z</when>
        <gx:coord>12.055071 51.552055 113.856</gx:coord>
        <when>2025-01-01T00:45:45.2080590Z</when>
        <gx:coord>12.055542 51.55193 113.856</gx:coord>
        <when>2025-01-01T00:45:47.1130590Z</when>
        <gx:coord>12.055607 51.551907 113.856</gx:coord>
        <when>2025-01-01T00:45:47.1130590Z</when>
        <gx:coord>12.055607 51.551907 113.856</gx:coord>
        <when>2025-01-01T00:45:48.1130590Z</when>
        <gx:coord>12.055672 51.551865 113.856</gx:coord>
        <when>2025-01-01T00:45:50.1120590Z</when>
        <gx:coord>12.0557575 51.551823 113.856</gx:coord>
        <when>2025-01-01T00:45:50.2100590Z</when>
        <gx:coord>12.0557785 51.5518 113.856</gx:coord>
        <when>2025-01-01T00:45:52.1250590Z</when>
        <gx:coord>12.0557995 51.551758 113.856</gx:coord>
        <when>2025-01-01T00:45:53.1150590Z</when>
        <gx:coord>12.055821 51.551712 113.856</gx:coord>
        <when>2025-01-01T00:45:54.1210590Z</when>
        <gx:coord>12.055821 51.551693 113.856</gx:coord>
        <when>2025-01-01T00:45:55.2070590Z</when>
        <gx:coord>12.055821 51.55165 113.856</gx:coord>
        <when>2025-01-01T00:45:57.1220590Z</when>
        <gx:coord>12.0557995 51.551605 113.856</gx:coord>
        <when>2025-01-01T00:46:00.2070590Z</when>
        <gx:coord>12.055693 51.551456 113.856</gx:coord>
        <when>2025-01-01T00:46:04.1150590Z</when>
        <gx:coord>12.055672 51.551414 113.856</gx:coord>
        <when>2025-01-01T00:46:05.2080590Z</when>
        <gx:coord>12.055672 51.551414 113.856</gx:coord>
        <when>2025-01-01T00:46:10.2070590Z</when>
        <gx:coord>12.055672 51.551414 113.856</gx:coord>
        <when>2025-01-01T00:46:15.2080590Z</when>
        <gx:coord>12.055672 51.551414 113.856</gx:coord>
        <when>2025-01-01T00:46:20.2080590Z</when>
        <gx:coord>12.055672 51.551414 113.856</gx:coord>
        <when>2025-01-01T00:46:25.2070590Z</when>
        <gx:coord>12.055628 51.55135 113.856</gx:coord>
        <when>2025-01-01T00:46:30.1210590Z</when>
        <gx:coord>12.0555 51.551155 112.332</gx:coord>
        <when>2025-01-01T00:46:30.2080590Z</when>
        <gx:coord>12.0555 51.551155 112.332</gx:coord>
        <when>2025-01-01T00:46:35.2080590Z</when>
        <gx:coord>12.05537 51.550983 112.332</gx:coord>
        <when>2025-01-01T00:46:37.1230590Z</when>
        <gx:coord>12.055349 51.55094 112.332</gx:coord>
        <when>2025-01-01T00:46:39.1210590Z</when>
        <gx:coord>12.055328 51.550877 112.332</gx:coord>
        <when>2025-01-01T00:46:40.1070590Z</when>
        <gx:coord>12.055349 51.550835 112.332</gx:coord>
        <when>2025-01-01T00:46:40.2080590Z</when>
        <gx:coord>12.05537 51.55081 112.332</gx:coord>
        <when>2025-01-01T00:46:41.1130590Z</when>
        <gx:coord>12.05537 51.55081 112.332</gx:coord>
        <when>2025-01-01T00:46:43.1230590Z</when>
        <gx:coord>12.055435 51.550747 112.332</gx:coord>
        <when>2025-01-01T00:46:45.2080590Z</when>
        <gx:coord>12.055586 51.550705 112.332</gx:coord>
        <when>2025-01-01T00:46:46.1230590Z</when>
        <gx:coord>12.055586 51.550705 112.332</gx:coord>
        <when>2025-01-01T00:46:49.1230590Z</when>
        <gx:coord>12.0557785 51.55064 112.332</gx:coord>
        <when>2025-01-01T00:46:50.2080590Z</when>
        <gx:coord>12.055929 51.5506 112.332</gx:coord>
        <when>2025-01-01T00:46:51.1390590Z</when>
        <gx:coord>12.055993 51.550575 112.332</gx:coord>
        <when>2025-01-01T00:46:55.2080590Z</when>
        <gx:coord>12.0562935 51.55049 112.332</gx:coord>
        <when>2025-01-01T00:47:00.2080590Z</when>
        <gx:coord>12.056723 51.550385 112.332</gx:coord>
        <when>2025-01-01T00:47:05.2080590Z</when>
        <gx:coord>12.057195 51.550255 112.332</gx:coord>
        <when>2025-01-01T00:47:10.2070590Z</when>
        <gx:coord>12.057624 51.550125 112.332</gx:coord>
        <when>2025-01-01T00:47:15.2080590Z</when>
        <gx:coord>12.057945 51.55002 112.332</gx:coord>
        <when>2025-01-01T00:47:17.1210590Z</when>
        <gx:coord>12.057989 51.55002 112.332</gx:coord>
        <when>2025-01-01T00:47:19.1240590Z</when>
        <gx:coord>12.058075 51.549953 112.332</gx:coord>
        <when>2025-01-01T00:47:20.2080590Z</when>
        <gx:coord>12.058139 51.54991 112.332</gx:coord>
        <when>2025-01-01T00:47:21.1250590Z</when>
        <gx:coord>12.058139 51.54991 112.332</gx:coord>
        <when>2025-01-01T00:47:23.1260590Z</when>
        <gx:coord>12.058139 51.549847 112.332</gx:coord>
        <when>2025-01-01T00:47:25.1210590Z</when>
        <gx:coord>12.058139 51.54978 112.332</gx:coord>
        <when>2025-01-01T00:47:25.2080590Z</when>
        <gx:coord>12.058117 51.549763 112.332</gx:coord>
        <when>2025-01-01T00:47:30.2080590Z</when>
        <gx:coord>12.058031 51.54957 112.332</gx:coord>
        <when>2025-01-01T00:47:35.2090590Z</when>
        <gx:coord>12.057945 51.549355 112.332</gx:coord>
        <when>2025-01-01T00:47:40.1220590Z</when>
        <gx:coord>12.057881 51.549202 112.332</gx:coord>
        <when>2025-01-01T00:47:40.2090590Z</when>
        <gx:coord>12.057881 51.549183 112.332</gx:coord>
        <when>2025-01-01T00:47:41.1210590Z</when>
        <gx:coord>12.057881 51.549183 112.332</gx:coord>
        <when>2025-01-01T00:47:42.1110590Z</when>
        <gx:coord>12.057881 51.54916 112.332</gx:coord>
        <when>2025-01-01T00:47:44.0990590Z</when>
        <gx:coord>12.057924 51.549118 112.332</gx:coord>
        <when>2025-01-01T00:47:45.2090590Z</when>
        <gx:coord>12.057989 51.549076 112.332</gx:coord>
        <when>2025-01-01T00:47:46.1180590Z</when>
        <gx:coord>12.057989 51.549076 112.332</gx:coord>
        <when>2025-01-01T00:47:50.2090590Z</when>
        <gx:coord>12.058182 51.549053 112.332</gx:coord>
        <when>2025-01-01T00:47:52.1260590Z</when>
        <gx:coord>12.058203 51.549053 112.332</gx:coord>
        <when>2025-01-01T00:47:55.2090590Z</when>
        <gx:coord>12.058439 51.54901 112.332</gx:coord>
        <when>2025-01-01T00:48:00.2080590Z</when>
        <gx:coord>12.058804 51.548946 112.332</gx:coord>
        <when>2025-01-01T00:48:05.2080590Z</when>
        <gx:coord>12.059191 51.54888 112.332</gx:coord>
        <when>2025-01-01T00:48:10.2080590Z</when>
        <gx:coord>12.059534 51.54884 112.332</gx:coord>
        <when>2025-01-01T00:48:13.1390590Z</when>
        <gx:coord>12.059641 51.548817 112.332</gx:coord>
        <when>2025-01-01T00:48:15.1070590Z</when>
        <gx:coord>12.059706 51.548798 112.332</gx:coord>
        <when>2025-01-01T00:48:15.2090590Z</when>
        <gx:coord>12.059706 51.548775 112.332</gx:coord>
        <when>2025-01-01T00:48:16.1070590Z</when>
        <gx:coord>12.059706 51.548775 112.332</gx:coord>
        <when>2025-01-01T00:48:17.1080590Z</when>
        <gx:coord>12.059727 51.548775 112.332</gx:coord>
        <when>2025-01-01T00:48:18.1040590Z</when>
        <gx:coord>12.059748 51.54875 112.332</gx:coord>
        <when>2025-01-01T00:48:20.2090590Z</when>
        <gx:coord>12.059727 51.548668 112.332</gx:coord>
        <when>2025-01-01T00:48:21.1240590Z</when>
        <gx:coord>12.059727 51.548668 112.332</gx:coord>
        <when>2025-01-01T00:48:25.2080590Z</when>
        <gx:coord>12.059641 51.548496 112.332</gx:coord>
        <when>2025-01-01T00:48:30.2090590Z</when>
        <gx:coord>12.059576 51.548325 112.332</gx:coord>
        <when>2025-01-01T00:48:34.1040590Z</when>
        <gx:coord>12.059534 51.548237 112.332</gx:coord>
        <when>2025-01-01T00:48:35.1070590Z</when>
        <gx:coord>12.059534 51.548218 112.332</gx:coord>
        <when>2025-01-01T00:48:35.2080590Z</when>
        <gx:coord>12.059534 51.548218 112.332</gx:coord>
        <when>2025-01-01T00:48:37.1150590Z</when>
        <gx:coord>12.059534 51.548195 112.332</gx:coord>
        <when>2025-01-01T00:48:38.1020590Z</when>
        <gx:coord>12.059555 51.548172 112.332</gx:coord>
        <when>2025-01-01T00:48:39.1060590Z</when>
        <gx:coord>12.059576 51.548172 112.332</gx:coord>
        <when>2025-01-01T00:48:40.2090590Z</when>
        <gx:coord>12.05962 51.548153 112.332</gx:coord>
        <when>2025-01-01T00:48:41.1210590Z</when>
        <gx:coord>12.05962 51.548153 112.332</gx:coord>
        <when>2025-01-01T00:48:45.2080590Z</when>
        <gx:coord>12.05977 51.54813 112.332</gx:coord>
        <when>2025-01-01T00:48:50.2090590Z</when>
        <gx:coord>12.059919 51.54811 112.332</gx:coord>
        <when>2025-01-01T00:48:55.2090590Z</when>
        <gx:coord>12.060027 51.548088 112.332</gx:coord>
        <when>2025-01-01T00:49:00.2090590Z</when>
        <gx:coord>12.060113 51.548088 112.332</gx:coord>
        <when>2025-01-01T00:49:05.2090590Z</when>
        <gx:coord>12.060199 51.548065 112.332</gx:coord>
        <when>2025-01-01T00:49:10.2090590Z</when>
        <gx:coord>12.060263 51.548065 112.332</gx:coord>
        <when>2025-01-01T00:49:12.1190590Z</when>
        <gx:coord>12.060263 51.548046 112.332</gx:coord>
        <when>2025-01-01T00:49:15.2090590Z</when>
        <gx:coord>12.060307 51.548046 112.332</gx:coord>
        <when>2025-01-01T00:49:20.2090590Z</when>
        <gx:coord>12.060392 51.548046 112.332</gx:coord>
        <when>2025-01-01T00:49:25.2090590Z</when>
        <gx:coord>12.060478 51.548023 113.856</gx:coord>
        <when>2025-01-01T00:49:30.2090590Z</when>
        <gx:coord>12.06052 51.548023 113.856</gx:coord>
        <when>2025-01-01T00:49:35.2090590Z</when>
        <gx:coord>12.06052 51.548023 113.856</gx:coord>
        <when>2025-01-01T00:49:40.2090590Z</when>
        <gx:coord>12.06052 51.548023 113.856</gx:coord>
        <when>2025-01-01T00:49:45.2080590Z</when>
        <gx:coord>12.06052 51.548023 113.856</gx:coord>
        <when>2025-01-01T00:49:49.5410590Z</when>
        <gx:coord>12.06052 51.548023 113.856</gx:coord>
        <coordinates />
      </gx:Track>
    </Placemark>
    <Placemark>
      <name>Takeoff: 2025-01-01</name>
      <styleUrl>#downArrowIcon</styleUrl>
      <Point>
        <altitudeMode>relativeToGround</altitudeMode>
        <coordinates>13.151215,52.202526,20</coordinates>
      </Point>
    </Placemark>
    <Placemark>
      <name>Landing: 2025-01-01</name>
      <styleUrl>#downArrowIcon</styleUrl>
      <Point>
        <altitudeMode>relativeToGround</altitudeMode>
        <coordinates>12.055821,51.551712,20</coordinates>
      </Point>
    </Placemark>
    <Placemark>
      <name>Log Stop: 2025-01-01</name>
      <styleUrl>#downArrowIcon</styleUrl>
      <Point>
        <altitudeMode>relativeToGround</altitudeMode>
        <coordinates>12.06052,51.548023,20</coordinates>
      </Point>
    </Placemark>
  </Document>
</kml>
