<?xml version="1.0" encoding="utf-8"?>
<kml xmlns:gx="http://www.google.com/kml/ext/2.2" creator="kml-heatmap" xmlns="http://www.opengis.net/kml/2.2">
  <Document>
    <name>SkyDemon Track Log</name>
    <Style id="skydemonLogStyle">
      <LineStyle>
        <color>7f00ffff</color>
        <width>4</width>
      </LineStyle>
      <PolyStyle>
        <color>7fffa400</color>
      </PolyStyle>
    </Style>
    <Style id="downArrowIcon">
      <IconStyle>
        <href>http://maps.google.com/mapfiles/kml/pal4/icon28.png</href>
      </IconStyle>
    </Style>
    <Placemark>
      <name>Log Start: 2025-01-01</name>
      <styleUrl>#downArrowIcon</styleUrl>
      <Point>
        <altitudeMode>relativeToGround</altitudeMode>
        <coordinates>12.058459,51.550617,20</coordinates>
      </Point>
    </Placemark>
    <Placemark>
      <name>EDAQ Halle-Oppin - EDAQ Halle-Oppin</name>
      <styleUrl>#skydemonLogStyle</styleUrl>
      <gx:Track>
        <extrude>1</extrude>
        <altitudeMode>absolute</altitudeMode>
        <when>2025-01-01T00:00:00.5848380Z</when>
        <gx:coord>12.058459 51.550617 106.94318</gx:coord>
        <when>2025-01-01T00:00:05.5858380Z</when>
        <gx:coord>12.058459 51.550617 107.00926</gx:coord>
        <when>2025-01-01T00:00:08.7148380Z</when>
        <gx:coord>12.05846 51.550617 106.970894</gx:coord>
        <when>2025-01-01T00:00:10.5858380Z</when>
        <gx:coord>12.05846 51.550617 106.94886</gx:coord>
        <when>2025-01-01T00:00:15.5858380Z</when>
        <gx:coord>12.058461 51.550617 106.946556</gx:coord>
        <when>2025-01-01T00:00:20.5858380Z</when>
        <gx:coord>12.058461 51.550617 106.82311</gx:coord>
        <when>2025-01-01T00:00:25.5858380Z</when>
        <gx:coord>12.058461 51.550617 106.8297</gx:coord>
        <when>2025-01-01T00:00:30.5858380Z</when>
        <gx:coord>12.05846 51.550617 106.73923</gx:coord>
        <when>2025-01-01T00:00:35.5858380Z</when>
        <gx:coord>12.05846 51.550617 106.82006</gx:coord>
        <when>2025-01-01T00:00:40.5858380Z</when>
        <gx:coord>12.05846 51.550617 106.86866</gx:coord>
        <when>2025-01-01T00:00:45.5858380Z</when>
        <gx:coord>12.058462 51.550617 106.902405</gx:coord>
        <when>2025-01-01T00:00:50.5858380Z</when>
        <gx:coord>12.058461 51.550613 106.94215</gx:coord>
        <when>2025-01-01T00:00:55.5858380Z</when>
        <gx:coord>12.058461 51.550617 106.846634</gx:coord>
        <when>2025-01-01T00:01:00.5848380Z</when>
        <gx:coord>12.05846 51.550613 106.871704</gx:coord>
        <when>2025-01-01T00:01:05.5848380Z</when>
        <gx:coord>12.05846 51.550613 106.83258</gx:coord>
        <when>2025-01-01T00:01:10.5848380Z</when>
        <gx:coord>12.058461 51.550613 106.86565</gx:coord>
        <when>2025-01-01T00:01:15.5848380Z</when>
        <gx:coord>12.058461 51.55061 106.964294</gx:coord>
        <when>2025-01-01T00:01:20.5848380Z</when>
        <gx:coord>12.05846 51.550613 106.94949</gx:coord>
        <when>2025-01-01T00:01:25.5848380Z</when>
        <gx:coord>12.058458 51.550613 106.994774</gx:coord>
        <when>2025-01-01T00:01:30.5848380Z</when>
        <gx:coord>12.058463 51.550613 107.10663</gx:coord>
        <when>2025-01-01T00:01:35.5838380Z</when>
        <gx:coord>12.05846 51.550613 107.16506</gx:coord>
        <when>2025-01-01T00:01:40.5848380Z</when>
        <gx:coord>12.058458 51.55061 107.196075</gx:coord>
        <when>2025-01-01T00:01:45.5848380Z</when>
        <gx:coord>12.058465 51.550613 107.152626</gx:coord>
        <when>2025-01-01T00:01:50.5848380Z</when>
        <gx:coord>12.058459 51.550613 107.060974</gx:coord>
        <when>2025-01-01T00:01:55.5848380Z</when>
        <gx:coord>12.05846 51.550613 107.04683</gx:coord>
        <when>2025-01-01T00:02:00.5848380Z</when>
        <gx:coord>12.058456 51.550613 107.0022</gx:coord>
        <when>2025-01-01T00:02:05.5848380Z</when>
        <gx:coord>12.058461 51.550613 106.97581</gx:coord>
        <when>2025-01-01T00:02:10.5848380Z</when>
        <gx:coord>12.058465 51.550625 107.06275</gx:coord>
        <when>2025-01-01T00:02:15.5848380Z</when>
        <gx:coord>12.058518 51.550743 107.069885</gx:coord>
        <when>2025-01-01T00:02:20.5838380Z</when>
        <gx:coord>12.058596 51.550922 107.07739</gx:coord>
        <when>2025-01-01T00:02:21.1038380Z</when>
        <gx:coord>12.058596 51.550922 107.07739</gx:coord>
        <when>2025-01-01T00:02:23.0948380Z</when>
        <gx:coord>12.0586405 51.55097 107.19761</gx:coord>
        <when>2025-01-01T00:02:24.0988380Z</when>
        <gx:coord>12.058675 51.550987 107.2553</gx:coord>
        <when>2025-01-01T00:02:25.0958380Z</when>
        <gx:coord>12.058705 51.55099 107.29646</gx:coord>
        <when>2025-01-01T00:02:25.5848380Z</when>
        <gx:coord>12.058741 51.551 107.318855</gx:coord>
        <when>2025-01-01T00:02:26.0958380Z</when>
        <gx:coord>12.058741 51.551 107.318855</gx:coord>
        <when>2025-01-01T00:02:27.0988380Z</when>
        <gx:coord>12.058781 51.551003 107.33824</gx:coord>
        <when>2025-01-01T00:02:28.0988380Z</when>
        <gx:coord>12.05883 51.550995 107.37982</gx:coord>
        <when>2025-01-01T00:02:30.0948380Z</when>
        <gx:coord>12.058926 51.550964 107.35114</gx:coord>
        <when>2025-01-01T00:02:30.5848380Z</when>
        <gx:coord>12.058974 51.55095 107.336624</gx:coord>
        <when>2025-01-01T00:02:35.5848380Z</when>
        <gx:coord>12.059285 51.55086 107.26915</gx:coord>
        <when>2025-01-01T00:02:37.1008380Z</when>
        <gx:coord>12.059354 51.55084 107.42302</gx:coord>
        <when>2025-01-01T00:02:40.5848380Z</when>
        <gx:coord>12.059671 51.550755 107.425186</gx:coord>
        <when>2025-01-01T00:02:45.5848380Z</when>
        <gx:coord>12.060134 51.550625 107.46455</gx:coord>
        <when>2025-01-01T00:02:49.0958380Z</when>
        <gx:coord>12.060409 51.550545 107.463554</gx:coord>
        <when>2025-01-01T00:02:50.5848380Z</when>
        <gx:coord>12.060546 51.55048 107.414116</gx:coord>
        <when>2025-01-01T00:02:55.5838380Z</when>
        <gx:coord>12.060842 51.55033 107.1884</gx:coord>
        <when>2025-01-01T00:02:59.0948380Z</when>
        <gx:coord>12.060995 51.55027 107.15649</gx:coord>
        <when>2025-01-01T00:03:00.5838380Z</when>
        <gx:coord>12.061079 51.550255 107.20215</gx:coord>
        <when>2025-01-01T00:03:01.0958380Z</when>
        <gx:coord>12.061079 51.550255 107.20215</gx:coord>
        <when>2025-01-01T00:03:02.0998380Z</when>
        <gx:coord>12.061109 51.55026 107.22269</gx:coord>
        <when>2025-01-01T00:03:03.0978380Z</when>
        <gx:coord>12.061134 51.550262 107.14911</gx:coord>
        <when>2025-01-01T00:03:04.0978380Z</when>
        <gx:coord>12.061154 51.550274 107.25248</gx:coord>
        <when>2025-01-01T00:03:05.0948380Z</when>
        <gx:coord>12.061168 51.55028 107.288864</gx:coord>
        <when>2025-01-01T00:03:05.5838380Z</when>
        <gx:coord>12.061174 51.550293 107.26818</gx:coord>
        <when>2025-01-01T00:03:06.0958380Z</when>
        <gx:coord>12.061174 51.550293 107.26818</gx:coord>
        <when>2025-01-01T00:03:06.1178380Z</when>
        <gx:coord>12.061175 51.550304 107.16551</gx:coord>
        <when>2025-01-01T00:03:06.7078380Z</when>
        <gx:coord>12.061175 51.550304 107.16551</gx:coord>
        <when>2025-01-01T00:03:07.3278380Z</when>
        <gx:coord>12.0611725 51.550312 107.25621</gx:coord>
        <when>2025-01-01T00:03:07.9478380Z</when>
        <gx:coord>12.0611725 51.550312 107.25621</gx:coord>
        <when>2025-01-01T00:03:08.6678380Z</when>
        <gx:coord>12.061168 51.550323 107.17452</gx:coord>
        <when>2025-01-01T00:03:09.5678380Z</when>
        <gx:coord>12.061158 51.550327 107.16014</gx:coord>
        <when>2025-01-01T00:03:10.5838380Z</when>
        <gx:coord>12.061147 51.550335 107.1826</gx:coord>
        <when>2025-01-01T00:03:11.9698380Z</when>
        <gx:coord>12.061135 51.55034 107.10714</gx:coord>
        <when>2025-01-01T00:03:15.0918380Z</when>
        <gx:coord>12.061105 51.550346 107.05468</gx:coord>
        <when>2025-01-01T00:03:15.5838380Z</when>
        <gx:coord>12.0611 51.550346 107.07412</gx:coord>
        <when>2025-01-01T00:03:20.5838380Z</when>
        <gx:coord>12.061098 51.550343 106.95908</gx:coord>
        <when>2025-01-01T00:03:25.5838380Z</when>
        <gx:coord>12.061099 51.550343 106.75999</gx:coord>
        <when>2025-01-01T00:03:30.5838380Z</when>
        <gx:coord>12.061099 51.550346 106.8131</gx:coord>
        <when>2025-01-01T00:03:35.5838380Z</when>
        <gx:coord>12.061098 51.550346 106.8521</gx:coord>
        <when>2025-01-01T00:03:40.5838380Z</when>
        <gx:coord>12.061098 51.550346 106.9428</gx:coord>
        <when>2025-01-01T00:03:45.5838380Z</when>
        <gx:coord>12.061096 51.550346 107.18038</gx:coord>
        <when>2025-01-01T00:03:50.5838380Z</when>
        <gx:coord>12.061095 51.550346 107.32234</gx:coord>
        <when>2025-01-01T00:03:55.5838380Z</when>
        <gx:coord>12.061095 51.550346 107.42689</gx:coord>
        <when>2025-01-01T00:04:00.5838380Z</when>
        <gx:coord>12.061096 51.550346 107.26018</gx:coord>
        <when>2025-01-01T00:04:05.5838380Z</when>
        <gx:coord>12.061097 51.550346 107.091866</gx:coord>
        <when>2025-01-01T00:04:10.5838380Z</when>
        <gx:coord>12.061097 51.550346 107.12458</gx:coord>
        <when>2025-01-01T00:04:15.5838380Z</when>
        <gx:coord>12.061097 51.550346 107.193344</gx:coord>
        <when>2025-01-01T00:04:20.5838380Z</when>
        <gx:coord>12.061098 51.550346 107.03691</gx:coord>
        <when>2025-01-01T00:04:25.5838380Z</when>
        <gx:coord>12.061098 51.550346 107.165794</gx:coord>
        <when>2025-01-01T00:04:30.5838380Z</when>
        <gx:coord>12.061098 51.550346 107.09485</gx:coord>
        <when>2025-01-01T00:04:35.5838380Z</when>
        <gx:coord>12.061099 51.550346 106.98536</gx:coord>
        <when>2025-01-01T00:04:40.5828380Z</when>
        <gx:coord>12.061098 51.550346 106.94415</gx:coord>
        <when>2025-01-01T00:04:45.5828380Z</when>
        <gx:coord>12.061099 51.550346 106.80994</gx:coord>
        <when>2025-01-01T00:04:50.5828380Z</when>
        <gx:coord>12.0611 51.550346 106.81329</gx:coord>
        <when>2025-01-01T00:04:55.5828380Z</when>
        <gx:coord>12.0611 51.550346 106.79649</gx:coord>
        <when>2025-01-01T00:05:00.5828380Z</when>
        <gx:coord>12.0611 51.550346 106.80568</gx:coord>
        <when>2025-01-01T00:05:05.5828380Z</when>
        <gx:coord>12.061101 51.550346 106.84756</gx:coord>
        <when>2025-01-01T00:05:10.5828380Z</when>
        <gx:coord>12.061102 51.550346 106.98046</gx:coord>
        <when>2025-01-01T00:05:15.5828380Z</when>
        <gx:coord>12.061101 51.550346 107.03849</gx:coord>
        <when>2025-01-01T00:05:20.5828380Z</when>
        <gx:coord>12.061101 51.550346 107.151276</gx:coord>
        <when>2025-01-01T00:05:25.5828380Z</when>
        <gx:coord>12.061101 51.550346 107.19443</gx:coord>
        <when>2025-01-01T00:05:30.5828380Z</when>
        <gx:coord>12.061102 51.550346 107.03789</gx:coord>
        <when>2025-01-01T00:05:35.5828380Z</when>
        <gx:coord>12.061101 51.550346 106.99066</gx:coord>
        <when>2025-01-01T00:05:40.5828380Z</when>
        <gx:coord>12.0611 51.550346 107.045364</gx:coord>
        <when>2025-01-01T00:05:45.5828380Z</when>
        <gx:coord>12.061099 51.550346 107.087555</gx:coord>
        <when>2025-01-01T00:05:50.5828380Z</when>
        <gx:coord>12.0611 51.550346 106.94711</gx:coord>
        <when>2025-01-01T00:05:55.5828380Z</when>
        <gx:coord>12.061099 51.550343 106.94516</gx:coord>
        <when>2025-01-01T00:06:00.5828380Z</when>
        <gx:coord>12.061099 51.550343 107.01518</gx:coord>
        <when>2025-01-01T00:06:05.5828380Z</when>
        <gx:coord>12.060976 51.550377 106.95705</gx:coord>
        <when>2025-01-01T00:06:06.0948380Z</when>
        <gx:coord>12.060976 51.550377 106.95705</gx:coord>
        <when>2025-01-01T00:06:09.0968380Z</when>
        <gx:coord>12.060658 51.550465 106.92757</gx:coord>
        <when>2025-01-01T00:06:10.5828380Z</when>
        <gx:coord>12.060338 51.550552 106.896965</gx:coord>
        <when>2025-01-01T00:06:12.1028380Z</when>
        <gx:coord>12.060145 51.550606 106.93816</gx:coord>
        <when>2025-01-01T00:06:13.0908380Z</when>
        <gx:coord>12.059933 51.550667 106.94301</gx:coord>
        <when>2025-01-01T00:06:15.5828380Z</when>
        <gx:coord>12.059176 51.55088 107.0067</gx:coord>
        <when>2025-01-01T00:06:17.0908380Z</when>
        <gx:coord>12.058887 51.550964 107.07829</gx:coord>
        <when>2025-01-01T00:06:20.5828380Z</when>
        <gx:coord>12.057554 51.551342 107.23688</gx:coord>
        <when>2025-01-01T00:06:21.1008380Z</when>
        <gx:coord>12.057554 51.551342 107.23688</gx:coord>
        <when>2025-01-01T00:06:25.5828380Z</when>
        <gx:coord>12.055553 51.551914 109.45226</gx:coord>
        <when>2025-01-01T00:06:30.5828380Z</when>
        <gx:coord>12.053394 51.552513 126.361694</gx:coord>
        <when>2025-01-01T00:06:34.0938380Z</when>
        <gx:coord>12.051748 51.552975 142.69548</gx:coord>
        <when>2025-01-01T00:06:35.5818380Z</when>
        <gx:coord>12.051339 51.55309 146.87082</gx:coord>
        <when>2025-01-01T00:06:40.5818380Z</when>
        <gx:coord>12.049309 51.55366 163.7841</gx:coord>
        <when>2025-01-01T00:06:43.0908380Z</when>
        <gx:coord>12.0481 51.553997 173.63736</gx:coord>
        <when>2025-01-01T00:06:45.5818380Z</when>
        <gx:coord>12.047294 51.554214 180.29741</gx:coord>
        <when>2025-01-01T00:06:50.5818380Z</when>
        <gx:coord>12.045263 51.554787 196.05684</gx:coord>
        <when>2025-01-01T00:06:53.0898380Z</when>
        <gx:coord>12.044038 51.555107 206.77321</gx:coord>
        <when>2025-01-01T00:06:55.5818380Z</when>
        <gx:coord>12.043222 51.5553 214.3291</gx:coord>
        <when>2025-01-01T00:07:00.5818380Z</when>
        <gx:coord>12.041291 51.555798 235.97122</gx:coord>
        <when>2025-01-01T00:07:01.0988380Z</when>
        <gx:coord>12.04092 51.5559 239.26105</gx:coord>
        <when>2025-01-01T00:07:05.5818380Z</when>
        <gx:coord>12.039457 51.556316 251.48492</gx:coord>
        <when>2025-01-01T00:07:10.5818380Z</when>
        <gx:coord>12.037639 51.556816 266.46808</gx:coord>
        <when>2025-01-01T00:07:12.0988380Z</when>
        <gx:coord>12.036914 51.557007 272.5165</gx:coord>
        <when>2025-01-01T00:07:15.5818380Z</when>
        <gx:coord>12.035814 51.557293 278.90277</gx:coord>
        <when>2025-01-01T00:07:16.0998380Z</when>
        <gx:coord>12.035438 51.557392 278.90277</gx:coord>
        <when>2025-01-01T00:07:20.5818380Z</when>
        <gx:coord>12.033898 51.557827 287.19727</gx:coord>
        <when>2025-01-01T00:07:25.5818380Z</when>
        <gx:coord>12.0319605 51.55845 300.588</gx:coord>
        <when>2025-01-01T00:07:26.0988380Z</when>
        <gx:coord>12.03157 51.558575 303.28278</gx:coord>
        <when>2025-01-01T00:07:30.5818380Z</when>
        <gx:coord>12.029993 51.55906 315.22736</gx:coord>
        <when>2025-01-01T00:07:35.5818380Z</when>
        <gx:coord>12.027989 51.559605 330.82138</gx:coord>
        <when>2025-01-01T00:07:37.0958380Z</when>
        <gx:coord>12.027168 51.559807 336.2512</gx:coord>
        <when>2025-01-01T00:07:40.5818380Z</when>
        <gx:coord>12.02592 51.56011 344.1805</gx:coord>
        <when>2025-01-01T00:07:45.5818380Z</when>
        <gx:coord>12.023793 51.560604 357.99124</gx:coord>
        <when>2025-01-01T00:07:47.0928380Z</when>
        <gx:coord>12.023354 51.560684 360.65955</gx:coord>
        <when>2025-01-01T00:07:48.0918380Z</when>
        <gx:coord>12.0224495 51.560776 367.3588</gx:coord>
        <when>2025-01-01T00:07:49.0998380Z</when>
        <gx:coord>12.0224495 51.560776 367.3588</gx:coord>
        <when>2025-01-01T00:07:50.5818380Z</when>
        <gx:coord>12.0215435 51.56075 375.07922</gx:coord>
        <when>2025-01-01T00:07:51.0918380Z</when>
        <gx:coord>12.0215435 51.56075 375.07922</gx:coord>
        <when>2025-01-01T00:07:53.0938380Z</when>
        <gx:coord>12.020659 51.560593 380.03244</gx:coord>
        <when>2025-01-01T00:07:54.0918380Z</when>
        <gx:coord>12.020225 51.56047 379.85413</gx:coord>
        <when>2025-01-01T00:07:55.1028380Z</when>
        <gx:coord>12.019794 51.560314 378.40994</gx:coord>
        <when>2025-01-01T00:07:55.5818380Z</when>
        <gx:coord>12.019376 51.560127 377.35776</gx:coord>
        <when>2025-01-01T00:07:57.1018380Z</when>
        <gx:coord>12.018977 51.559906 377.5096</gx:coord>
        <when>2025-01-01T00:08:00.0998380Z</when>
        <gx:coord>12.01792 51.55911 380.91794</gx:coord>
        <when>2025-01-01T00:08:00.0998380Z</when>
        <gx:coord>12.01792 51.55911 380.91794</gx:coord>
        <when>2025-01-01T00:08:00.5818380Z</when>
        <gx:coord>12.017606 51.558807 381.92944</gx:coord>
        <when>2025-01-01T00:08:05.5818380Z</when>
        <gx:coord>12.016204 51.557163 387.46823</gx:coord>
        <when>2025-01-01T00:08:10.5818380Z</when>
        <gx:coord>12.014824 51.555405 394.04712</gx:coord>
        <when>2025-01-01T00:08:12.0978380Z</when>
        <gx:coord>12.014292 51.554695 397.89163</gx:coord>
        <when>2025-01-01T00:08:15.2168380Z</when>
        <gx:coord>12.013783 51.55399 400.04086</gx:coord>
        <when>2025-01-01T00:08:15.5818380Z</when>
        <gx:coord>12.0135355 51.55364 400.33646</gx:coord>
        <when>2025-01-01T00:08:20.5818380Z</when>
        <gx:coord>12.012307 51.551865 398.53806</gx:coord>
        <when>2025-01-01T00:08:25.0978380Z</when>
        <gx:coord>12.011033 51.550106 398.8729</gx:coord>
        <when>2025-01-01T00:08:25.5818380Z</when>
        <gx:coord>12.011033 51.550106 399.8774</gx:coord>
        <when>2025-01-01T00:08:30.5818380Z</when>
        <gx:coord>12.009497 51.54848 401.11554</gx:coord>
        <when>2025-01-01T00:08:35.5818380Z</when>
        <gx:coord>12.008113 51.546814 402.29553</gx:coord>
        <when>2025-01-01T00:08:38.0948380Z</when>
        <gx:coord>12.007774 51.54608 402.60056</gx:coord>
        <when>2025-01-01T00:08:40.5818380Z</when>
        <gx:coord>12.007634 51.54492 404.51862</gx:coord>
        <when>2025-01-01T00:08:41.0998380Z</when>
        <gx:coord>12.007634 51.54492 404.51862</gx:coord>
        <when>2025-01-01T00:08:43.0938380Z</when>
        <gx:coord>12.007828 51.544144 406.26526</gx:coord>
        <when>2025-01-01T00:08:45.0928380Z</when>
        <gx:coord>12.008253 51.543396 407.63672</gx:coord>
        <when>2025-01-01T00:08:45.0948380Z</when>
        <gx:coord>12.008253 51.543396 407.63672</gx:coord>
        <when>2025-01-01T00:08:45.5818380Z</when>
        <gx:coord>12.008541 51.543034 406.16037</gx:coord>
        <when>2025-01-01T00:08:47.0928380Z</when>
        <gx:coord>12.008881 51.542683 404.53033</gx:coord>
        <when>2025-01-01T00:08:49.0928380Z</when>
        <gx:coord>12.009746 51.542038 403.0592</gx:coord>
        <when>2025-01-01T00:08:50.5818380Z</when>
        <gx:coord>12.010794 51.541496 403.41345</gx:coord>
        <when>2025-01-01T00:08:51.0928380Z</when>
        <gx:coord>12.010794 51.541496 403.41345</gx:coord>
        <when>2025-01-01T00:08:54.0938380Z</when>
        <gx:coord>12.01262 51.54091 405.2833</gx:coord>
        <when>2025-01-01T00:08:55.5818380Z</when>
        <gx:coord>12.013936 51.540672 406.11554</gx:coord>
        <when>2025-01-01T00:09:00.5818380Z</when>
        <gx:coord>12.017265 51.54015 402.8338</gx:coord>
        <when>2025-01-01T00:09:05.5818380Z</when>
        <gx:coord>12.020653 51.53955 397.46036</gx:coord>
        <when>2025-01-01T00:09:10.5808380Z</when>
        <gx:coord>12.024076 51.538914 394.71375</gx:coord>
        <when>2025-01-01T00:09:11.0888380Z</when>
        <gx:coord>12.024076 51.538914 394.71375</gx:coord>
        <when>2025-01-01T00:09:15.5808380Z</when>
        <gx:coord>12.027552 51.5382 388.0493</gx:coord>
        <when>2025-01-01T00:09:18.0988380Z</when>
        <gx:coord>12.029684 51.537746 385.246</gx:coord>
        <when>2025-01-01T00:09:20.5808380Z</when>
        <gx:coord>12.031128 51.53744 381.79446</gx:coord>
        <when>2025-01-01T00:09:25.5808380Z</when>
        <gx:coord>12.03473 51.536644 379.46033</gx:coord>
        <when>2025-01-01T00:09:30.5808380Z</when>
        <gx:coord>12.038279 51.535786 381.92288</gx:coord>
        <when>2025-01-01T00:09:35.5808380Z</when>
        <gx:coord>12.041716 51.534855 382.80276</gx:coord>
        <when>2025-01-01T00:09:40.5808380Z</when>
        <gx:coord>12.04512 51.53384 376.27002</gx:coord>
        <when>2025-01-01T00:09:45.5808380Z</when>
        <gx:coord>12.0485525 51.53279 373.67197</gx:coord>
        <when>2025-01-01T00:09:50.5808380Z</when>
        <gx:coord>12.051892 51.5318 376.00113</gx:coord>
        <when>2025-01-01T00:09:54.1008380Z</when>
        <gx:coord>12.054461 51.531048 375.43927</gx:coord>
        <when>2025-01-01T00:09:55.5808380Z</when>
        <gx:coord>12.055088 51.530865 375.93848</gx:coord>
        <when>2025-01-01T00:10:00.5808380Z</when>
        <gx:coord>12.058179 51.529995 371.75793</gx:coord>
        <when>2025-01-01T00:10:05.5808380Z</when>
        <gx:coord>12.061206 51.529144 372.45328</gx:coord>
        <when>2025-01-01T00:10:10.5808380Z</when>
        <gx:coord>12.064181 51.528267 372.051</gx:coord>
        <when>2025-01-01T00:10:15.5798380Z</when>
        <gx:coord>12.067184 51.527443 370.6689</gx:coord>
        <when>2025-01-01T00:10:20.5808380Z</when>
        <gx:coord>12.070298 51.526825 370.2116</gx:coord>
        <when>2025-01-01T00:10:21.0948380Z</when>
        <gx:coord>12.070298 51.526825 370.2116</gx:coord>
        <when>2025-01-01T00:10:23.0938380Z</when>
        <gx:coord>12.072262 51.52674 365.77017</gx:coord>
        <when>2025-01-01T00:10:24.0938380Z</when>
        <gx:coord>12.072262 51.52674 365.77017</gx:coord>
        <when>2025-01-01T00:10:25.5808380Z</when>
        <gx:coord>12.0735655 51.52687 363.27438</gx:coord>
        <when>2025-01-01T00:10:26.0988380Z</when>
        <gx:coord>12.0735655 51.52687 363.27438</gx:coord>
        <when>2025-01-01T00:10:28.0948380Z</when>
        <gx:coord>12.074793 51.527145 362.48627</gx:coord>
        <when>2025-01-01T00:10:28.0968380Z</when>
        <gx:coord>12.074793 51.527145 362.48627</gx:coord>
        <when>2025-01-01T00:10:30.0938380Z</when>
        <gx:coord>12.075899 51.527546 362.861</gx:coord>
        <when>2025-01-01T00:10:30.5808380Z</when>
        <gx:coord>12.076394 51.527782 363.25275</gx:coord>
        <when>2025-01-01T00:10:33.0998380Z</when>
        <gx:coord>12.077287 51.52831 361.49356</gx:coord>
        <when>2025-01-01T00:10:35.5808380Z</when>
        <gx:coord>12.078365 51.52923 355.1588</gx:coord>
        <when>2025-01-01T00:10:36.0928380Z</when>
        <gx:coord>12.078365 51.52923 355.1588</gx:coord>
        <when>2025-01-01T00:10:40.5808380Z</when>
        <gx:coord>12.079716 51.53093 344.03894</gx:coord>
        <when>2025-01-01T00:10:44.0938380Z</when>
        <gx:coord>12.0807705 51.5323 334.32675</gx:coord>
        <when>2025-01-01T00:10:45.5808380Z</when>
        <gx:coord>12.08105 51.53264 330.80524</gx:coord>
        <when>2025-01-01T00:10:46.0998380Z</when>
        <gx:coord>12.081337 51.53298 330.80524</gx:coord>
        <when>2025-01-01T00:10:50.5808380Z</when>
        <gx:coord>12.082567 51.53434 319.87357</gx:coord>
        <when>2025-01-01T00:10:55.5808380Z</when>
        <gx:coord>12.084169 51.53601 313.85568</gx:coord>
        <when>2025-01-01T00:11:00.5808380Z</when>
        <gx:coord>12.08562 51.537674 304.65253</gx:coord>
        <when>2025-01-01T00:11:01.0998380Z</when>
        <gx:coord>12.085848 51.538017 303.30038</gx:coord>
        <when>2025-01-01T00:11:02.0968380Z</when>
        <gx:coord>12.085848 51.538017 303.30038</gx:coord>
        <when>2025-01-01T00:11:04.0928380Z</when>
        <gx:coord>12.086181 51.538704 300.05783</gx:coord>
        <when>2025-01-01T00:11:05.0988380Z</when>
        <gx:coord>12.086276 51.53905 298.0542</gx:coord>
        <when>2025-01-01T00:11:05.5808380Z</when>
        <gx:coord>12.086339 51.5394 295.73526</gx:coord>
        <when>2025-01-01T00:11:08.0968380Z</when>
        <gx:coord>12.086356 51.540077 291.50592</gx:coord>
        <when>2025-01-01T00:11:10.5808380Z</when>
        <gx:coord>12.0861435 51.541058 283.84464</gx:coord>
        <when>2025-01-01T00:11:12.0938380Z</when>
        <gx:coord>12.086018 51.541374 281.55237</gx:coord>
        <when>2025-01-01T00:11:15.1018380Z</when>
        <gx:coord>12.085474 51.542255 274.25366</gx:coord>
        <when>2025-01-01T00:11:15.1018380Z</when>
        <gx:coord>12.085233 51.542526 271.3574</gx:coord>
        <when>2025-01-01T00:11:15.5808380Z</when>
        <gx:coord>12.085233 51.542526 271.3574</gx:coord>
        <when>2025-01-01T00:11:18.0948380Z</when>
        <gx:coord>12.084656 51.543026 265.42587</gx:coord>
        <when>2025-01-01T00:11:18.0968380Z</when>
        <gx:coord>12.084656 51.543026 265.42587</gx:coord>
        <when>2025-01-01T00:11:20.5808380Z</when>
        <gx:coord>12.083597 51.54366 254.69165</gx:coord>
        <when>2025-01-01T00:11:21.1008380Z</when>
        <gx:coord>12.083597 51.54366 254.69165</gx:coord>
        <when>2025-01-01T00:11:25.0938380Z</when>
        <gx:coord>12.08192 51.544296 242.48528</gx:coord>
        <when>2025-01-01T00:11:25.0948380Z</when>
        <gx:coord>12.08148 51.544434 240.64589</gx:coord>
        <when>2025-01-01T00:11:25.5808380Z</when>
        <gx:coord>12.08148 51.544434 240.64589</gx:coord>
        <when>2025-01-01T00:11:30.5798380Z</when>
        <gx:coord>12.0793495 51.545048 235.9405</gx:coord>
        <when>2025-01-01T00:11:35.5798380Z</when>
        <gx:coord>12.077357 51.545654 222.92467</gx:coord>
        <when>2025-01-01T00:11:40.0948380Z</when>
        <gx:coord>12.075367 51.546276 207.38954</gx:coord>
        <when>2025-01-01T00:11:40.5808380Z</when>
        <gx:coord>12.075367 51.546276 207.38954</gx:coord>
        <when>2025-01-01T00:11:45.5808380Z</when>
        <gx:coord>12.073299 51.546883 193.11882</gx:coord>
        <when>2025-01-01T00:11:50.5808380Z</when>
        <gx:coord>12.071197 51.54746 180.29198</gx:coord>
        <when>2025-01-01T00:11:52.0998380Z</when>
        <gx:coord>12.070354 51.5477 174.87508</gx:coord>
        <when>2025-01-01T00:11:54.1078380Z</when>
        <gx:coord>12.0695095 51.547943 171.61037</gx:coord>
        <when>2025-01-01T00:11:55.5798380Z</when>
        <gx:coord>12.069084 51.54807 164.62453</gx:coord>
        <when>2025-01-01T00:12:00.5798380Z</when>
        <gx:coord>12.066952 51.54869 152.12688</gx:coord>
        <when>2025-01-01T00:12:03.0938380Z</when>
        <gx:coord>12.0656595 51.549034 143.23221</gx:coord>
        <when>2025-01-01T00:12:05.5798380Z</when>
        <gx:coord>12.064797 51.549267 137.52058</gx:coord>
        <when>2025-01-01T00:12:10.5798380Z</when>
        <gx:coord>12.062657 51.549885 121.91146</gx:coord>
        <when>2025-01-01T00:12:14.0958380Z</when>
        <gx:coord>12.06099 51.550377 110.13596</gx:coord>
        <when>2025-01-01T00:12:15.5798380Z</when>
        <gx:coord>12.060581 51.55049 108.529274</gx:coord>
        <when>2025-01-01T00:12:19.0958380Z</when>
        <gx:coord>12.059414 51.550816 106.854195</gx:coord>
        <when>2025-01-01T00:12:20.5798380Z</when>
        <gx:coord>12.058692 51.551018 106.77067</gx:coord>
        <when>2025-01-01T00:12:25.5798380Z</when>
        <gx:coord>12.057055 51.551483 107.177284</gx:coord>
        <when>2025-01-01T00:12:30.5798380Z</when>
        <gx:coord>12.055313 51.551964 107.469025</gx:coord>
        <when>2025-01-01T00:12:35.5798380Z</when>
        <gx:coord>12.053234 51.552544 109.5532</gx:coord>
        <when>2025-01-01T00:12:36.0938380Z</when>
        <gx:coord>12.053234 51.552544 109.5532</gx:coord>
        <when>2025-01-01T00:12:40.5808380Z</when>
        <gx:coord>12.050965 51.55317 123.04408</gx:coord>
        <when>2025-01-01T00:12:44.0918380Z</when>
        <gx:coord>12.049229 51.55365 143.5994</gx:coord>
        <when>2025-01-01T00:12:45.5798380Z</when>
        <gx:coord>12.048808 51.553764 147.9811</gx:coord>
        <when>2025-01-01T00:12:50.5798380Z</when>
        <gx:coord>12.046732 51.55435 164.80505</gx:coord>
        <when>2025-01-01T00:12:54.1038380Z</when>
        <gx:coord>12.045064 51.554813 173.88777</gx:coord>
        <when>2025-01-01T00:12:54.1038380Z</when>
        <gx:coord>12.045064 51.554813 177.55663</gx:coord>
        <when>2025-01-01T00:12:55.5798380Z</when>
        <gx:coord>12.044644 51.554928 180.44135</gx:coord>
        <when>2025-01-01T00:13:00.5798380Z</when>
        <gx:coord>12.042519 51.55546 197.078</gx:coord>
        <when>2025-01-01T00:13:04.0958380Z</when>
        <gx:coord>12.040828 51.5559 210.52193</gx:coord>
        <when>2025-01-01T00:13:05.5798380Z</when>
        <gx:coord>12.040413 51.556023 213.95975</gx:coord>
        <when>2025-01-01T00:13:10.5798380Z</when>
        <gx:coord>12.038388 51.55667 231.70651</gx:coord>
        <when>2025-01-01T00:13:13.0998380Z</when>
        <gx:coord>12.037192 51.557056 242.3914</gx:coord>
        <when>2025-01-01T00:13:15.5798380Z</when>
        <gx:coord>12.036401 51.557304 251.03438</gx:coord>
        <when>2025-01-01T00:13:20.5798380Z</when>
        <gx:coord>12.0344715 51.55789 268.97208</gx:coord>
        <when>2025-01-01T00:13:22.0938380Z</when>
        <gx:coord>12.033712 51.55813 275.92993</gx:coord>
        <when>2025-01-01T00:13:25.5798380Z</when>
        <gx:coord>12.032576 51.558495 282.46817</gx:coord>
        <when>2025-01-01T00:13:31.1518380Z</when>
        <gx:coord>12.030262 51.559288 297.35678</gx:coord>
        <when>2025-01-01T00:13:35.5798380Z</when>
        <gx:coord>12.028643 51.559814 305.21368</gx:coord>
        <when>2025-01-01T00:13:36.0968380Z</when>
        <gx:coord>12.028227 51.55994 308.19052</gx:coord>
        <when>2025-01-01T00:13:40.5798380Z</when>
        <gx:coord>12.026565 51.560394 322.72256</gx:coord>
        <when>2025-01-01T00:13:45.5798380Z</when>
        <gx:coord>12.024417 51.560856 335.53717</gx:coord>
        <when>2025-01-01T00:13:47.0998380Z</when>
        <gx:coord>12.02351 51.56102 339.44586</gx:coord>
        <when>2025-01-01T00:13:50.5798380Z</when>
        <gx:coord>12.022091 51.56126 342.09653</gx:coord>
        <when>2025-01-01T00:13:54.0978380Z</when>
        <gx:coord>12.02009 51.561584 346.47397</gx:coord>
        <when>2025-01-01T00:13:55.5798380Z</when>
        <gx:coord>12.019575 51.56167 348.87006</gx:coord>
        <when>2025-01-01T00:14:00.5798380Z</when>
        <gx:coord>12.016939 51.56208 354.82684</gx:coord>
        <when>2025-01-01T00:14:02.0968380Z</when>
        <gx:coord>12.016407 51.562157 354.6409</gx:coord>
        <when>2025-01-01T00:14:05.5798380Z</when>
        <gx:coord>12.014271 51.562454 355.696</gx:coord>
        <when>2025-01-01T00:14:09.0938380Z</when>
        <gx:coord>12.012651 51.562603 357.03662</gx:coord>
        <when>2025-01-01T00:14:10.5798380Z</when>
        <gx:coord>12.011578 51.562603 359.52707</gx:coord>
        <when>2025-01-01T00:14:11.0958380Z</when>
        <gx:coord>12.011578 51.562603 359.52707</gx:coord>
        <when>2025-01-01T00:14:13.0998380Z</when>
        <gx:coord>12.010543 51.56246 363.34924</gx:coord>
        <when>2025-01-01T00:14:15.0988380Z</when>
        <gx:coord>12.009602 51.562176 367.11865</gx:coord>
        <when>2025-01-01T00:14:15.5798380Z</when>
        <gx:coord>12.009181 51.56198 368.75937</gx:coord>
        <when>2025-01-01T00:14:17.0968380Z</when>
        <gx:coord>12.0088005 51.561756 369.70682</gx:coord>
        <when>2025-01-01T00:14:17.0968380Z</when>
        <gx:coord>12.00846 51.5615 370.17197</gx:coord>
        <when>2025-01-01T00:14:19.0978380Z</when>
        <gx:coord>12.008167 51.56122 369.88474</gx:coord>
        <when>2025-01-01T00:14:20.5798380Z</when>
        <gx:coord>12.007717 51.560585 368.04807</gx:coord>
        <when>2025-01-01T00:14:21.0928380Z</when>
        <gx:coord>12.007717 51.560585 368.04807</gx:coord>
        <when>2025-01-01T00:14:21.0938380Z</when>
        <gx:coord>12.007717 51.560585 368.04807</gx:coord>
        <when>2025-01-01T00:14:25.5798380Z</when>
        <gx:coord>12.007154 51.558784 360.30884</gx:coord>
        <when>2025-01-01T00:14:30.5798380Z</when>
        <gx:coord>12.006616 51.556915 361.07877</gx:coord>
        <when>2025-01-01T00:14:35.5798380Z</when>
        <gx:coord>12.005637 51.55518 361.48746</gx:coord>
        <when>2025-01-01T00:14:40.5798380Z</when>
        <gx:coord>12.004562 51.553474 361.41333</gx:coord>
        <when>2025-01-01T00:14:45.5798380Z</when>
        <gx:coord>12.003604 51.551735 361.56827</gx:coord>
        <when>2025-01-01T00:14:50.0998380Z</when>
        <gx:coord>12.003014 51.55031 365.29407</gx:coord>
        <when>2025-01-01T00:14:50.5798380Z</when>
        <gx:coord>12.002951 51.54994 366.408</gx:coord>
        <when>2025-01-01T00:14:53.0888380Z</when>
        <gx:coord>12.002979 51.549187 368.4783</gx:coord>
        <when>2025-01-01T00:14:54.0948380Z</when>
        <gx:coord>12.0032215 51.548435 369.1209</gx:coord>
        <when>2025-01-01T00:14:55.0968380Z</when>
        <gx:coord>12.0032215 51.548435 369.67606</gx:coord>
        <when>2025-01-01T00:14:55.5798380Z</when>
        <gx:coord>12.003427 51.548065 369.9199</gx:coord>
        <when>2025-01-01T00:14:57.0908380Z</when>
        <gx:coord>12.003677 51.547703 369.6709</gx:coord>
        <when>2025-01-01T00:14:58.0948380Z</when>
        <gx:coord>12.003979 51.547344 369.2478</gx:coord>
        <when>2025-01-01T00:15:00.5798380Z</when>
        <gx:coord>12.005205 51.546364 368.38623</gx:coord>
        <when>2025-01-01T00:15:01.0978380Z</when>
        <gx:coord>12.005205 51.546364 368.38623</gx:coord>
        <when>2025-01-01T00:15:04.0898380Z</when>
        <gx:coord>12.006788 51.545547 368.24142</gx:coord>
        <when>2025-01-01T00:15:05.5788380Z</when>
        <gx:coord>12.007984 51.545105 368.7028</gx:coord>
        <when>2025-01-01T00:15:08.0938380Z</when>
        <gx:coord>12.009252 51.54473 368.3294</gx:coord>
        <when>2025-01-01T00:15:10.5798380Z</when>
        <gx:coord>12.011236 51.544262 367.19803</gx:coord>
        <when>2025-01-01T00:15:13.0928380Z</when>
        <gx:coord>12.01259 51.543983 366.84335</gx:coord>
        <when>2025-01-01T00:15:15.5798380Z</when>
        <gx:coord>12.014636 51.543564 366.50125</gx:coord>
        <when>2025-01-01T00:15:20.5798380Z</when>
        <gx:coord>12.017873 51.54265 369.5681</gx:coord>
        <when>2025-01-01T00:15:25.5798380Z</when>
        <gx:coord>12.020941 51.541573 372.728</gx:coord>
        <when>2025-01-01T00:15:30.5798380Z</when>
        <gx:coord>12.024078 51.540596 375.12653</gx:coord>
        <when>2025-01-01T00:15:34.0968380Z</when>
        <gx:coord>12.02663 51.539883 376.70435</gx:coord>
        <when>2025-01-01T00:15:35.5798380Z</when>
        <gx:coord>12.027273 51.5397 375.38977</gx:coord>
        <when>2025-01-01T00:15:40.5798380Z</when>
        <gx:coord>12.030499 51.538784 376.5496</gx:coord>
        <when>2025-01-01T00:15:45.5798380Z</when>
        <gx:coord>12.03373 51.537838 378.03394</gx:coord>
        <when>2025-01-01T00:15:50.5798380Z</when>
        <gx:coord>12.03699 51.53692 375.83478</gx:coord>
        <when>2025-01-01T00:15:55.5798380Z</when>
        <gx:coord>12.040303 51.535984 370.1915</gx:coord>
        <when>2025-01-01T00:16:00.5798380Z</when>
        <gx:coord>12.043634 51.535038 366.96268</gx:coord>
        <when>2025-01-01T00:16:05.5798380Z</when>
        <gx:coord>12.046979 51.534042 362.27066</gx:coord>
        <when>2025-01-01T00:16:10.5798380Z</when>
        <gx:coord>12.050307 51.533035 358.58115</gx:coord>
        <when>2025-01-01T00:16:11.0968380Z</when>
        <gx:coord>12.050955 51.532845 358.58115</gx:coord>
        <when>2025-01-01T00:16:15.5788380Z</when>
        <gx:coord>12.053483 51.532116 354.24008</gx:coord>
        <when>2025-01-01T00:16:20.5798380Z</when>
        <gx:coord>12.05658 51.531296 350.27856</gx:coord>
        <when>2025-01-01T00:16:25.5798380Z</when>
        <gx:coord>12.059577 51.53048 350.44232</gx:coord>
        <when>2025-01-01T00:16:30.5798380Z</when>
        <gx:coord>12.062488 51.529606 344.56912</gx:coord>
        <when>2025-01-01T00:16:35.5798380Z</when>
        <gx:coord>12.065407 51.52874 343.96252</gx:coord>
        <when>2025-01-01T00:16:37.1008380Z</when>
        <gx:coord>12.065985 51.52857 343.5431</gx:coord>
        <when>2025-01-01T00:16:40.5798380Z</when>
        <gx:coord>12.068313 51.5279 341.5522</gx:coord>
        <when>2025-01-01T00:16:44.0888380Z</when>
        <gx:coord>12.070149 51.527546 340.2415</gx:coord>
        <when>2025-01-01T00:16:44.0888380Z</when>
        <gx:coord>12.070785 51.52748 339.58554</gx:coord>
        <when>2025-01-01T00:16:45.5798380Z</when>
        <gx:coord>12.071425 51.527443 338.8937</gx:coord>
        <when>2025-01-01T00:16:47.0908380Z</when>
        <gx:coord>12.072069 51.52743 338.38354</gx:coord>
        <when>2025-01-01T00:16:50.0938380Z</when>
        <gx:coord>12.073968 51.527596 336.576</gx:coord>
        <when>2025-01-01T00:16:50.5798380Z</when>
        <gx:coord>12.074576 51.52771 335.59973</gx:coord>
        <when>2025-01-01T00:16:52.0968380Z</when>
        <gx:coord>12.075163 51.52786 334.40103</gx:coord>
        <when>2025-01-01T00:16:54.0918380Z</when>
        <gx:coord>12.076247 51.52826 332.052</gx:coord>
        <when>2025-01-01T00:16:55.0978380Z</when>
        <gx:coord>12.077186 51.528767 330.89423</gx:coord>
        <when>2025-01-01T00:16:55.5798380Z</when>
        <gx:coord>12.077186 51.528767 329.6461</gx:coord>
        <when>2025-01-01T00:16:56.0958380Z</when>
        <gx:coord>12.077186 51.528767 329.6461</gx:coord>
        <when>2025-01-01T00:16:59.0978380Z</when>
        <gx:coord>12.078272 51.52968 327.06216</gx:coord>
        <when>2025-01-01T00:17:00.5798380Z</when>
        <gx:coord>12.078842 51.530334 323.5391</gx:coord>
        <when>2025-01-01T00:17:05.5798380Z</when>
        <gx:coord>12.0802765 51.532036 313.54028</gx:coord>
        <when>2025-01-01T00:17:09.0958380Z</when>
        <gx:coord>12.081413 51.533424 308.20746</gx:coord>
        <when>2025-01-01T00:17:10.5798380Z</when>
        <gx:coord>12.08169 51.533768 306.7645</gx:coord>
        <when>2025-01-01T00:17:15.5798380Z</when>
        <gx:coord>12.083089 51.53547 299.01617</gx:coord>
        <when>2025-01-01T00:17:20.5798380Z</when>
        <gx:coord>12.084418 51.537144 296.45712</gx:coord>
        <when>2025-01-01T00:17:24.0958380Z</when>
        <gx:coord>12.085119 51.53812 294.9893</gx:coord>
        <when>2025-01-01T00:17:25.5798380Z</when>
        <gx:coord>12.08553 51.538773 292.143</gx:coord>
        <when>2025-01-01T00:17:26.0928380Z</when>
        <gx:coord>12.08553 51.538773 292.143</gx:coord>
        <when>2025-01-01T00:17:30.0918380Z</when>
        <gx:coord>12.086045 51.54011 281.77225</gx:coord>
        <when>2025-01-01T00:17:30.5798380Z</when>
        <gx:coord>12.086089 51.540447 278.4383</gx:coord>
        <when>2025-01-01T00:17:31.2258380Z</when>
        <gx:coord>12.086086 51.540787 274.82858</gx:coord>
        <when>2025-01-01T00:17:32.0968380Z</when>
        <gx:coord>12.086086 51.540787 274.82858</gx:coord>
        <when>2025-01-01T00:17:35.0998380Z</when>
        <gx:coord>12.085832 51.54177 266.97504</gx:coord>
        <when>2025-01-01T00:17:35.5798380Z</when>
        <gx:coord>12.085663 51.54208 265.2219</gx:coord>
        <when>2025-01-01T00:17:38.0998380Z</when>
        <gx:coord>12.085207 51.542656 261.65247</gx:coord>
        <when>2025-01-01T00:17:40.5798380Z</when>
        <gx:coord>12.084287 51.5434 254.55783</gx:coord>
        <when>2025-01-01T00:17:41.0968380Z</when>
        <gx:coord>12.084287 51.5434 254.55783</gx:coord>
        <when>2025-01-01T00:17:43.0868380Z</when>
        <gx:coord>12.083519 51.543785 250.00346</gx:coord>
        <when>2025-01-01T00:17:44.0948380Z</when>
        <gx:coord>12.083104 51.54395 247.64534</gx:coord>
        <when>2025-01-01T00:17:45.0938380Z</when>
        <gx:coord>12.08223 51.544228 242.13304</gx:coord>
        <when>2025-01-01T00:17:45.5798380Z</when>
        <gx:coord>12.08223 51.544228 242.13304</gx:coord>
        <when>2025-01-01T00:17:50.5798380Z</when>
        <gx:coord>12.079947 51.544888 227.43805</gx:coord>
        <when>2025-01-01T00:17:54.1058380Z</when>
        <gx:coord>12.078109 51.5454 225.13817</gx:coord>
        <when>2025-01-01T00:17:55.5788380Z</when>
        <gx:coord>12.077682 51.545525 225.9053</gx:coord>
        <when>2025-01-01T00:18:00.5798380Z</when>
        <gx:coord>12.075678 51.546192 216.30844</gx:coord>
        <when>2025-01-01T00:18:02.1028380Z</when>
        <gx:coord>12.074889 51.546448 210.94594</gx:coord>
        <when>2025-01-01T00:18:05.5798380Z</when>
        <gx:coord>12.073683 51.546803 202.62892</gx:coord>
        <when>2025-01-01T00:18:10.5798380Z</when>
        <gx:coord>12.071604 51.547344 187.89421</gx:coord>
        <when>2025-01-01T00:18:13.0918380Z</when>
        <gx:coord>12.070345 51.5477 179.54308</gx:coord>
        <when>2025-01-01T00:18:15.5798380Z</when>
        <gx:coord>12.069504 51.54794 174.37886</gx:coord>
        <when>2025-01-01T00:18:20.5798380Z</when>
        <gx:coord>12.067384 51.548546 158.4045</gx:coord>
        <when>2025-01-01T00:18:23.0928380Z</when>
        <gx:coord>12.066096 51.54891 147.69641</gx:coord>
        <when>2025-01-01T00:18:25.5798380Z</when>
        <gx:coord>12.065235 51.549152 141.36209</gx:coord>
        <when>2025-01-01T00:18:30.5798380Z</when>
        <gx:coord>12.0631275 51.549774 126.534904</gx:coord>
        <when>2025-01-01T00:18:33.0978380Z</when>
        <gx:coord>12.061894 51.55013 115.84226</gx:coord>
        <when>2025-01-01T00:18:35.5798380Z</when>
        <gx:coord>12.061078 51.55036 109.411575</gx:coord>
        <when>2025-01-01T00:18:39.0958380Z</when>
        <gx:coord>12.059912 51.55069 107.36159</gx:coord>
        <when>2025-01-01T00:18:40.5798380Z</when>
        <gx:coord>12.059188 51.55089 106.888695</gx:coord>
        <when>2025-01-01T00:18:45.5798380Z</when>
        <gx:coord>12.05755 51.55133 106.70651</gx:coord>
        <when>2025-01-01T00:18:46.1018380Z</when>
        <gx:coord>12.05755 51.55133 106.70651</gx:coord>
        <when>2025-01-01T00:18:50.5798380Z</when>
        <gx:coord>12.056048 51.55177 106.9071</gx:coord>
        <when>2025-01-01T00:18:55.1018380Z</when>
        <gx:coord>12.05466 51.55215 107.212845</gx:coord>
        <when>2025-01-01T00:18:55.5788380Z</when>
        <gx:coord>12.054275 51.552258 107.38454</gx:coord>
        <when>2025-01-01T00:18:57.1038380Z</when>
        <gx:coord>12.053469 51.552486 107.59213</gx:coord>
        <when>2025-01-01T00:19:00.5788380Z</when>
        <gx:coord>12.052167 51.552853 111.17574</gx:coord>
        <when>2025-01-01T00:19:02.0908380Z</when>
        <gx:coord>12.051725 51.55298 112.79093</gx:coord>
        <when>2025-01-01T00:19:05.5798380Z</when>
        <gx:coord>12.04992 51.553486 122.42211</gx:coord>
        <when>2025-01-01T00:19:10.5798380Z</when>
        <gx:coord>12.0476675 51.554108 143.72957</gx:coord>
        <when>2025-01-01T00:19:11.0928380Z</when>
        <gx:coord>12.047236 51.55423 147.99152</gx:coord>
        <when>2025-01-01T00:19:15.5798380Z</when>
        <gx:coord>12.045543 51.554714 162.89479</gx:coord>
        <when>2025-01-01T00:19:20.0918380Z</when>
        <gx:coord>12.043437 51.555286 180.1687</gx:coord>
        <when>2025-01-01T00:19:20.5798380Z</when>
        <gx:coord>12.043437 51.555286 180.1687</gx:coord>
        <when>2025-01-01T00:19:25.5798380Z</when>
        <gx:coord>12.04137 51.55585 197.52373</gx:coord>
        <when>2025-01-01T00:19:30.0938380Z</when>
        <gx:coord>12.0393095 51.55644 212.3721</gx:coord>
        <when>2025-01-01T00:19:30.5798380Z</when>
        <gx:coord>12.0393095 51.55644 212.3721</gx:coord>
        <when>2025-01-01T00:19:35.5798380Z</when>
        <gx:coord>12.037242 51.557022 227.80344</gx:coord>
        <when>2025-01-01T00:19:39.0938380Z</when>
        <gx:coord>12.035594 51.557476 243.02419</gx:coord>
        <when>2025-01-01T00:19:40.5798380Z</when>
        <gx:coord>12.035193 51.557602 246.41003</gx:coord>
        <when>2025-01-01T00:19:46.1498380Z</when>
        <gx:coord>12.032833 51.558414 263.8325</gx:coord>
        <when>2025-01-01T00:19:49.0938380Z</when>
        <gx:coord>12.031652 51.558792 274.1375</gx:coord>
        <when>2025-01-01T00:19:50.5798380Z</when>
        <gx:coord>12.031261 51.558914 277.82428</gx:coord>
        <when>2025-01-01T00:19:55.5798380Z</when>
        <gx:coord>12.029301 51.559505 289.9145</gx:coord>
        <when>2025-01-01T00:19:56.0968380Z</when>
        <gx:coord>12.028892 51.559624 289.9145</gx:coord>
        <when>2025-01-01T00:20:00.5798380Z</when>
        <gx:coord>12.027204 51.5601 300.3345</gx:coord>
        <when>2025-01-01T00:20:02.0938380Z</when>
        <gx:coord>12.026343 51.560333 306.2361</gx:coord>
        <when>2025-01-01T00:20:05.5798380Z</when>
        <gx:coord>12.025046 51.560684 315.74878</gx:coord>
        <when>2025-01-01T00:20:10.5798380Z</when>
        <gx:coord>12.022924 51.56124 336.63937</gx:coord>
        <when>2025-01-01T00:20:11.0968380Z</when>
        <gx:coord>12.022502 51.561348 339.86993</gx:coord>
        <when>2025-01-01T00:20:15.5798380Z</when>
        <gx:coord>12.02077 51.561752 350.25406</gx:coord>
        <when>2025-01-01T00:20:20.5798380Z</when>
        <gx:coord>12.018473 51.56229 353.34747</gx:coord>
        <when>2025-01-01T00:20:25.5798380Z</when>
        <gx:coord>12.01599 51.56288 358.69135</gx:coord>
        <when>2025-01-01T00:20:26.0968380Z</when>
        <gx:coord>12.01599 51.56288 358.69135</gx:coord>
        <when>2025-01-01T00:20:30.0958380Z</when>
        <gx:coord>12.013923 51.563183 365.13834</gx:coord>
        <when>2025-01-01T00:20:30.5798380Z</when>
        <gx:coord>12.013402 51.56319 366.38855</gx:coord>
        <when>2025-01-01T00:20:32.0988380Z</when>
        <gx:coord>12.012886 51.56317 367.69724</gx:coord>
        <when>2025-01-01T00:20:34.0988380Z</when>
        <gx:coord>12.011886 51.563023 369.91226</gx:coord>
        <when>2025-01-01T00:20:34.0988380Z</when>
        <gx:coord>12.011414 51.562897 371.4753</gx:coord>
        <when>2025-01-01T00:20:35.5798380Z</when>
        <gx:coord>12.010967 51.56274 372.77203</gx:coord>
        <when>2025-01-01T00:20:36.0948380Z</when>
        <gx:coord>12.010967 51.56274 372.77203</gx:coord>
        <when>2025-01-01T00:20:38.0978380Z</when>
        <gx:coord>12.0101595 51.562336 373.2305</gx:coord>
        <when>2025-01-01T00:20:40.0988380Z</when>
        <gx:coord>12.009493 51.561825 374.15387</gx:coord>
        <when>2025-01-01T00:20:40.5798380Z</when>
        <gx:coord>12.009217 51.561535 374.50168</gx:coord>
        <when>2025-01-01T00:20:43.0918380Z</when>
        <gx:coord>12.008771 51.560913 373.17935</gx:coord>
        <when>2025-01-01T00:20:44.0968380Z</when>
        <gx:coord>12.0086 51.56058 372.00766</gx:coord>
        <when>2025-01-01T00:20:45.5798380Z</when>
        <gx:coord>12.008288 51.559887 366.91245</gx:coord>
        <when>2025-01-01T00:20:50.5798380Z</when>
        <gx:coord>12.007583 51.55806 361.4336</gx:coord>
        <when>2025-01-01T00:20:55.5798380Z</when>
        <gx:coord>12.0066805 51.556286 366.12204</gx:coord>
        <when>2025-01-01T00:21:00.5798380Z</when>
        <gx:coord>12.005495 51.554646 365.6624</gx:coord>
        <when>2025-01-01T00:21:05.0998380Z</when>
        <gx:coord>12.004342 51.552948 361.74283</gx:coord>
        <when>2025-01-01T00:21:05.5798380Z</when>
        <gx:coord>12.004342 51.552948 360.8725</gx:coord>
        <when>2025-01-01T00:21:10.5798380Z</when>
        <gx:coord>12.003257 51.55119 359.77133</gx:coord>
        <when>2025-01-01T00:21:14.0908380Z</when>
        <gx:coord>12.002861 51.550087 365.93005</gx:coord>
        <when>2025-01-01T00:21:15.5798380Z</when>
        <gx:coord>12.002801 51.549335 369.35168</gx:coord>
        <when>2025-01-01T00:21:17.0948380Z</when>
        <gx:coord>12.002829 51.548954 369.85104</gx:coord>
        <when>2025-01-01T00:21:20.0948380Z</when>
        <gx:coord>12.003157 51.547802 367.20557</gx:coord>
        <when>2025-01-01T00:21:20.0978380Z</when>
        <gx:coord>12.003157 51.547802 367.20557</gx:coord>
        <when>2025-01-01T00:21:20.5798380Z</when>
        <gx:coord>12.003349 51.547413 365.61694</gx:coord>
        <when>2025-01-01T00:21:23.0908380Z</when>
        <gx:coord>12.003868 51.546646 362.53772</gx:coord>
        <when>2025-01-01T00:21:25.5798380Z</when>
        <gx:coord>12.004977 51.545567 363.81238</gx:coord>
        <when>2025-01-01T00:21:26.0938380Z</when>
        <gx:coord>12.004977 51.545567 363.81238</gx:coord>
        <when>2025-01-01T00:21:29.1018380Z</when>
        <gx:coord>12.006409 51.544624 367.16766</gx:coord>
        <when>2025-01-01T00:21:30.5798380Z</when>
        <gx:coord>12.007516 51.544098 370.3192</gx:coord>
        <when>2025-01-01T00:21:33.0968380Z</when>
        <gx:coord>12.008709 51.54365 370.39883</gx:coord>
        <when>2025-01-01T00:21:35.5798380Z</when>
        <gx:coord>12.01066 51.543118 367.87027</gx:coord>
        <when>2025-01-01T00:21:38.0898380Z</when>
        <gx:coord>12.012004 51.542805 366.78833</gx:coord>
        <when>2025-01-01T00:21:40.5798380Z</when>
        <gx:coord>12.014037 51.542347 366.27982</gx:coord>
        <when>2025-01-01T00:21:45.5798380Z</when>
        <gx:coord>12.017413 51.54153 363.68942</gx:coord>
        <when>2025-01-01T00:21:50.5808380Z</when>
        <gx:coord>12.020779 51.54067 365.41806</gx:coord>
        <when>2025-01-01T00:21:52.1058380Z</when>
        <gx:coord>12.022104 51.54031 366.34204</gx:coord>
        <when>2025-01-01T00:21:55.5798380Z</when>
        <gx:coord>12.024098 51.53977 367.8541</gx:coord>
        <when>2025-01-01T00:22:00.5798380Z</when>
        <gx:coord>12.027435 51.538857 368.1119</gx:coord>
        <when>2025-01-01T00:22:05.5798380Z</when>
        <gx:coord>12.030815 51.537937 364.71094</gx:coord>
        <when>2025-01-01T00:22:10.5798380Z</when>
        <gx:coord>12.034263 51.537025 365.88214</gx:coord>
        <when>2025-01-01T00:22:15.5798380Z</when>
        <gx:coord>12.037697 51.536133 367.41617</gx:coord>
        <when>2025-01-01T00:22:20.5798380Z</when>
        <gx:coord>12.041098 51.535194 365.5944</gx:coord>
        <when>2025-01-01T00:22:25.5798380Z</when>
        <gx:coord>12.044496 51.534225 363.7985</gx:coord>
        <when>2025-01-01T00:22:29.0978380Z</when>
        <gx:coord>12.047165 51.533436 365.16376</gx:coord>
        <when>2025-01-01T00:22:30.5798380Z</when>
        <gx:coord>12.047813 51.53324 366.7223</gx:coord>
        <when>2025-01-01T00:22:35.5798380Z</when>
        <gx:coord>12.050933 51.532303 369.58926</gx:coord>
        <when>2025-01-01T00:22:40.5798380Z</when>
        <gx:coord>12.053875 51.531414 366.40482</gx:coord>
        <when>2025-01-01T00:22:41.0938380Z</when>
        <gx:coord>12.053875 51.531414 366.40482</gx:coord>
        <when>2025-01-01T00:22:45.5798380Z</when>
        <gx:coord>12.056749 51.530552 368.99887</gx:coord>
        <when>2025-01-01T00:22:50.5808380Z</when>
        <gx:coord>12.059607 51.529755 368.1766</gx:coord>
        <when>2025-01-01T00:22:55.5808380Z</when>
        <gx:coord>12.062445 51.52895 370.06668</gx:coord>
        <when>2025-01-01T00:23:00.5808380Z</when>
        <gx:coord>12.065291 51.528156 366.4496</gx:coord>
        <when>2025-01-01T00:23:05.5808380Z</when>
        <gx:coord>12.068197 51.52741 367.56076</gx:coord>
        <when>2025-01-01T00:23:07.0988380Z</when>
        <gx:coord>12.068798 51.52729 367.46808</gx:coord>
        <when>2025-01-01T00:23:10.0998380Z</when>
        <gx:coord>12.07067 51.52708 364.88193</gx:coord>
        <when>2025-01-01T00:23:10.5808380Z</when>
        <gx:coord>12.071307 51.52706 364.49158</gx:coord>
        <when>2025-01-01T00:23:11.0998380Z</when>
        <gx:coord>12.071943 51.527073 364.49158</gx:coord>
        <when>2025-01-01T00:23:13.0918380Z</when>
        <gx:coord>12.072574 51.52711 363.81534</gx:coord>
        <when>2025-01-01T00:23:15.5808380Z</when>
        <gx:coord>12.074419 51.52739 361.2843</gx:coord>
        <when>2025-01-01T00:23:16.0948380Z</when>
        <gx:coord>12.074419 51.52739 361.2843</gx:coord>
        <when>2025-01-01T00:23:19.0938380Z</when>
        <gx:coord>12.076106 51.527916 357.88104</gx:coord>
        <when>2025-01-01T00:23:20.5808380Z</when>
        <gx:coord>12.077098 51.528393 356.03586</gx:coord>
        <when>2025-01-01T00:23:22.0958380Z</when>
        <gx:coord>12.077553 51.528656 355.40018</gx:coord>
        <when>2025-01-01T00:23:25.5808380Z</when>
        <gx:coord>12.079064 51.529854 352.2171</gx:coord>
        <when>2025-01-01T00:23:26.0928380Z</when>
        <gx:coord>12.079064 51.529854 352.2171</gx:coord>
        <when>2025-01-01T00:23:30.5798380Z</when>
        <gx:coord>12.080502 51.531532 343.04572</gx:coord>
        <when>2025-01-01T00:23:31.0928380Z</when>
        <gx:coord>12.080763 51.531876 340.7179</gx:coord>
        <when>2025-01-01T00:23:35.5798380Z</when>
        <gx:coord>12.081807 51.53326 331.70282</gx:coord>
        <when>2025-01-01T00:23:40.5808380Z</when>
        <gx:coord>12.083107 51.53497 320.79285</gx:coord>
        <when>2025-01-01T00:23:45.5808380Z</when>
        <gx:coord>12.084318 51.53666 311.2524</gx:coord>
        <when>2025-01-01T00:23:46.0928380Z</when>
        <gx:coord>12.0845585 51.53699 309.50735</gx:coord>
        <when>2025-01-01T00:23:50.5798380Z</when>
        <gx:coord>12.085513 51.538326 300.33292</gx:coord>
        <when>2025-01-01T00:23:53.0928380Z</when>
        <gx:coord>12.085956 51.538994 296.84235</gx:coord>
        <when>2025-01-01T00:23:55.0928380Z</when>
        <gx:coord>12.086359 51.539665 292.43726</gx:coord>
        <when>2025-01-01T00:23:55.5808380Z</when>
        <gx:coord>12.08653 51.54 290.1513</gx:coord>
        <when>2025-01-01T00:23:58.0958380Z</when>
        <gx:coord>12.086774 51.54068 286.00558</gx:coord>
        <when>2025-01-01T00:23:58.1028380Z</when>
        <gx:coord>12.086825 51.54102 286.00558</gx:coord>
        <when>2025-01-01T00:24:00.0948380Z</when>
        <gx:coord>12.086839 51.541355 282.43903</gx:coord>
        <when>2025-01-01T00:24:00.5808380Z</when>
        <gx:coord>12.086815 51.541683 280.21838</gx:coord>
        <when>2025-01-01T00:24:01.0958380Z</when>
        <gx:coord>12.086743 51.542004 278.11066</gx:coord>
        <when>2025-01-01T00:24:03.0958380Z</when>
        <gx:coord>12.086629 51.542313 275.99686</gx:coord>
        <when>2025-01-01T00:24:04.0968380Z</when>
        <gx:coord>12.086465 51.542606 273.72528</gx:coord>
        <when>2025-01-01T00:24:05.0958380Z</when>
        <gx:coord>12.086256 51.54288 271.17084</gx:coord>
        <when>2025-01-01T00:24:05.5808380Z</when>
        <gx:coord>12.085998 51.543133 268.58066</gx:coord>
        <when>2025-01-01T00:24:07.1018380Z</when>
        <gx:coord>12.085694 51.54336 265.65842</gx:coord>
        <when>2025-01-01T00:24:09.0948380Z</when>
        <gx:coord>12.0849905 51.543747 259.73572</gx:coord>
        <when>2025-01-01T00:24:10.5808380Z</when>
        <gx:coord>12.084166 51.544033 252.15747</gx:coord>
        <when>2025-01-01T00:24:12.0878380Z</when>
        <gx:coord>12.083729 51.544155 247.85388</gx:coord>
        <when>2025-01-01T00:24:12.0878380Z</when>
        <gx:coord>12.083276 51.54427 243.34833</gx:coord>
        <when>2025-01-01T00:24:16.1438380Z</when>
        <gx:coord>12.081354 51.54465 231.51067</gx:coord>
        <when>2025-01-01T00:24:20.5808380Z</when>
        <gx:coord>12.07946 51.54505 226.5597</gx:coord>
        <when>2025-01-01T00:24:25.5808380Z</when>
        <gx:coord>12.077304 51.545673 217.49387</gx:coord>
        <when>2025-01-01T00:24:27.0918380Z</when>
        <gx:coord>12.076491 51.545948 212.55675</gx:coord>
        <when>2025-01-01T00:24:30.5808380Z</when>
        <gx:coord>12.075289 51.54636 204.97614</gx:coord>
        <when>2025-01-01T00:24:35.5808380Z</when>
        <gx:coord>12.073253 51.546967 190.77644</gx:coord>
        <when>2025-01-01T00:24:39.0918380Z</when>
        <gx:coord>12.071585 51.547398 179.61606</gx:coord>
        <when>2025-01-01T00:24:40.5808380Z</when>
        <gx:coord>12.071168 51.54751 176.88788</gx:coord>
        <when>2025-01-01T00:24:45.5808380Z</when>
        <gx:coord>12.069085 51.548073 161.18535</gx:coord>
        <when>2025-01-01T00:24:50.0968380Z</when>
        <gx:coord>12.067002 51.548676 146.97896</gx:coord>
        <when>2025-01-01T00:24:50.5808380Z</when>
        <gx:coord>12.067002 51.548676 146.97896</gx:coord>
        <when>2025-01-01T00:24:55.5808380Z</when>
        <gx:coord>12.06493 51.549255 133.36395</gx:coord>
        <when>2025-01-01T00:24:58.0998380Z</when>
        <gx:coord>12.063701 51.54961 128.58861</gx:coord>
        <when>2025-01-01T00:25:00.5808380Z</when>
        <gx:coord>12.062882 51.54985 120.52203</gx:coord>
        <when>2025-01-01T00:25:02.0998380Z</when>
        <gx:coord>12.062063 51.550083 114.338745</gx:coord>
        <when>2025-01-01T00:25:05.5808380Z</when>
        <gx:coord>12.060852 51.550423 107.81533</gx:coord>
        <when>2025-01-01T00:25:07.0928380Z</when>
        <gx:coord>12.060466 51.55053 107.39595</gx:coord>
        <when>2025-01-01T00:25:10.5808380Z</when>
        <gx:coord>12.059035 51.550934 106.86532</gx:coord>
        <when>2025-01-01T00:25:14.0938380Z</when>
        <gx:coord>12.058071 51.551197 106.87842</gx:coord>
        <when>2025-01-01T00:25:15.5808380Z</when>
        <gx:coord>12.057481 51.55136 106.89539</gx:coord>
        <when>2025-01-01T00:25:18.0928380Z</when>
        <gx:coord>12.056956 51.551502 106.915886</gx:coord>
        <when>2025-01-01T00:25:20.5808380Z</when>
        <gx:coord>12.056363 51.551685 107.08363</gx:coord>
        <when>2025-01-01T00:25:21.0938380Z</when>
        <gx:coord>12.056363 51.551685 107.08363</gx:coord>
        <when>2025-01-01T00:25:24.0958380Z</when>
        <gx:coord>12.056008 51.551792 107.12619</gx:coord>
        <when>2025-01-01T00:25:25.0968380Z</when>
        <gx:coord>12.055942 51.551807 107.10569</gx:coord>
        <when>2025-01-01T00:25:25.5808380Z</when>
        <gx:coord>12.055897 51.551804 107.03726</gx:coord>
        <when>2025-01-01T00:25:26.0958380Z</when>
        <gx:coord>12.055897 51.551804 107.03726</gx:coord>
        <when>2025-01-01T00:25:27.0968380Z</when>
        <gx:coord>12.055865 51.551792 107.05924</gx:coord>
        <when>2025-01-01T00:25:28.0938380Z</when>
        <gx:coord>12.055851 51.551777 107.0406</gx:coord>
        <when>2025-01-01T00:25:30.0998380Z</when>
        <gx:coord>12.055846 51.55174 106.85389</gx:coord>
        <when>2025-01-01T00:25:30.5808380Z</when>
        <gx:coord>12.055846 51.55174 106.85389</gx:coord>
        <when>2025-01-01T00:25:35.5808380Z</when>
        <gx:coord>12.055847 51.551697 106.76367</gx:coord>
        <when>2025-01-01T00:25:38.0978380Z</when>
        <gx:coord>12.055838 51.551662 106.750496</gx:coord>
        <when>2025-01-01T00:25:40.5808380Z</when>
        <gx:coord>12.055802 51.5516 106.73778</gx:coord>
        <when>2025-01-01T00:25:45.5808380Z</when>
        <gx:coord>12.055723 51.551495 106.653404</gx:coord>
        <when>2025-01-01T00:25:50.1088380Z</when>
        <gx:coord>12.055674 51.551426 106.65312</gx:coord>
        <when>2025-01-01T00:25:50.5808380Z</when>
        <gx:coord>12.055674 51.551426 106.65312</gx:coord>
        <when>2025-01-01T00:25:51.0958380Z</when>
        <gx:coord>12.055674 51.551426 106.65312</gx:coord>
        <when>2025-01-01T00:25:55.5808380Z</when>
        <gx:coord>12.055673 51.551426 106.6236</gx:coord>
        <when>2025-01-01T00:26:00.5808380Z</when>
        <gx:coord>12.055673 51.551426 106.65369</gx:coord>
        <when>2025-01-01T00:26:05.5808380Z</when>
        <gx:coord>12.055673 51.551426 106.65807</gx:coord>
        <when>2025-01-01T00:26:10.5808380Z</when>
        <gx:coord>12.055673 51.551426 106.61948</gx:coord>
        <when>2025-01-01T00:26:15.5808380Z</when>
        <gx:coord>12.055673 51.551426 106.67923</gx:coord>
        <when>2025-01-01T00:26:20.5808380Z</when>
        <gx:coord>12.055671 51.551422 106.678986</gx:coord>
        <when>2025-01-01T00:26:22.0988380Z</when>
        <gx:coord>12.055665 51.551414 106.64584</gx:coord>
        <when>2025-01-01T00:26:25.5808380Z</when>
        <gx:coord>12.055617 51.551342 106.52705</gx:coord>
        <when>2025-01-01T00:26:30.5808380Z</when>
        <gx:coord>12.055508 51.55118 106.36913</gx:coord>
        <when>2025-01-01T00:26:35.5808380Z</when>
        <gx:coord>12.055381 51.551014 106.305885</gx:coord>
        <when>2025-01-01T00:26:40.0978380Z</when>
        <gx:coord>12.05532 51.550903 106.324295</gx:coord>
        <when>2025-01-01T00:26:40.5808380Z</when>
        <gx:coord>12.055321 51.550877 106.33327</gx:coord>
        <when>2025-01-01T00:26:41.0978380Z</when>
        <gx:coord>12.055321 51.550877 106.33327</gx:coord>
        <when>2025-01-01T00:26:42.1008380Z</when>
        <gx:coord>12.055331 51.550854 106.362274</gx:coord>
        <when>2025-01-01T00:26:44.0958380Z</when>
        <gx:coord>12.055374 51.5508 106.353546</gx:coord>
        <when>2025-01-01T00:26:45.0948380Z</when>
        <gx:coord>12.0554085 51.550774 106.328415</gx:coord>
        <when>2025-01-01T00:26:45.5818380Z</when>
        <gx:coord>12.055461 51.55075 106.26343</gx:coord>
        <when>2025-01-01T00:26:47.0988380Z</when>
        <gx:coord>12.05552 51.550728 106.2166</gx:coord>
        <when>2025-01-01T00:26:49.1018380Z</when>
        <gx:coord>12.055661 51.55069 106.19239</gx:coord>
        <when>2025-01-01T00:26:50.5808380Z</when>
        <gx:coord>12.055819 51.550648 106.232925</gx:coord>
        <when>2025-01-01T00:26:55.5818380Z</when>
        <gx:coord>12.0562725 51.55052 106.215805</gx:coord>
        <when>2025-01-01T00:27:00.5818380Z</when>
        <gx:coord>12.056762 51.55038 106.19873</gx:coord>
        <when>2025-01-01T00:27:05.5808380Z</when>
        <gx:coord>12.057227 51.55025 106.259056</gx:coord>
        <when>2025-01-01T00:27:10.5818380Z</when>
        <gx:coord>12.057638 51.55014 106.28422</gx:coord>
        <when>2025-01-01T00:27:15.5818380Z</when>
        <gx:coord>12.05795 51.55005 106.29321</gx:coord>
        <when>2025-01-01T00:27:20.0928380Z</when>
        <gx:coord>12.058094 51.549984 106.26189</gx:coord>
        <when>2025-01-01T00:27:20.1068380Z</when>
        <gx:coord>12.058087 51.549988 106.30766</gx:coord>
        <when>2025-01-01T00:27:20.5818380Z</when>
        <gx:coord>12.058087 51.549988 106.30766</gx:coord>
        <when>2025-01-01T00:27:25.5818380Z</when>
        <gx:coord>12.058088 51.549988 106.4029</gx:coord>
        <when>2025-01-01T00:27:30.5818380Z</when>
        <gx:coord>12.058088 51.549988 106.39003</gx:coord>
        <when>2025-01-01T00:27:35.5818380Z</when>
        <gx:coord>12.058089 51.549988 106.33087</gx:coord>
        <when>2025-01-01T00:27:40.5808380Z</when>
        <gx:coord>12.058089 51.549988 106.36395</gx:coord>
        <when>2025-01-01T00:27:45.5818380Z</when>
        <gx:coord>12.058088 51.549988 106.42771</gx:coord>
        <when>2025-01-01T00:27:50.5818380Z</when>
        <gx:coord>12.05809 51.549988 106.37561</gx:coord>
        <when>2025-01-01T00:27:55.5818380Z</when>
        <gx:coord>12.05809 51.549988 106.37561</gx:coord>
        <when>2025-01-01T00:27:58.6098380Z</when>
        <gx:coord>12.05809 51.549988 106.37561</gx:coord>
        <when>2025-01-01T00:27:58.8458380Z</when>
        <gx:coord>12.05809 51.549988 106.37561</gx:coord>
        <when>2025-01-01T00:27:59.0288380Z</when>
        <gx:coord>12.05809 51.549988 106.37561</gx:coord>
        <when>2025-01-01T00:27:59.6658380Z</when>
        <gx:coord>12.05809 51.549988 106.31293</gx:coord>
        <when>2025-01-01T00:28:00.5818380Z</when>
        <gx:coord>12.058087 51.549988 106.39453</gx:coord>
        <when>2025-01-01T00:28:02.4868380Z</when>
        <gx:coord>12.058086 51.549988 106.4718</gx:coord>
        <when>2025-01-01T00:28:03.5688380Z</when>
        <gx:coord>12.058087 51.549988 106.4286</gx:coord>
        <when>2025-01-01T00:28:05.5818380Z</when>
        <gx:coord>12.058087 51.549988 106.4627</gx:coord>
        <when>2025-01-01T00:28:08.8508380Z</when>
        <gx:coord>12.058087 51.549988 106.4627</gx:coord>
        <when>2025-01-01T00:28:10.5818380Z</when>
        <gx:coord>12.058085 51.549988 106.40185</gx:coord>
        <when>2025-01-01T00:28:10.8718380Z</when>
        <gx:coord>12.058085 51.549988 106.40185</gx:coord>
        <when>2025-01-01T00:28:11.5928380Z</when>
        <gx:coord>12.058085 51.549988 106.40185</gx:coord>
        <when>2025-01-01T00:28:15.5838380Z</when>
        <gx:coord>12.058085 51.549988 106.40642</gx:coord>
        <when>2025-01-01T00:28:20.5818380Z</when>
        <gx:coord>12.058086 51.549988 106.43323</gx:coord>
        <when>2025-01-01T00:28:23.7148380Z</when>
        <gx:coord>12.058086 51.549988 106.385574</gx:coord>
        <when>2025-01-01T00:28:25.5818380Z</when>
        <gx:coord>12.058087 51.549988 106.41101</gx:coord>
        <when>2025-01-01T00:28:30.5818380Z</when>
        <gx:coord>12.058086 51.549988 106.46884</gx:coord>
        <when>2025-01-01T00:28:33.1998380Z</when>
        <gx:coord>12.058086 51.549988 106.46884</gx:coord>
        <when>2025-01-01T00:28:35.5818380Z</when>
        <gx:coord>12.058085 51.549988 106.46884</gx:coord>
        <when>2025-01-01T00:28:37.7618380Z</when>
        <gx:coord>12.058086 51.549988 106.46884</gx:coord>
        <when>2025-01-01T00:28:40.5818380Z</when>
        <gx:coord>12.058086 51.549988 106.46884</gx:coord>
        <when>2025-01-01T00:28:41.7258380Z</when>
        <gx:coord>12.058085 51.549988 106.57403</gx:coord>
        <when>2025-01-01T00:28:44.8058380Z</when>
        <gx:coord>12.0580845 51.549988 106.458565</gx:coord>
        <when>2025-01-01T00:28:45.5818380Z</when>
        <gx:coord>12.058085 51.549988 106.58329</gx:coord>
        <when>2025-01-01T00:28:48.3878380Z</when>
        <gx:coord>12.0580845 51.549988 106.49174</gx:coord>
        <when>2025-01-01T00:28:50.3888380Z</when>
        <gx:coord>12.058085 51.549988 106.601456</gx:coord>
        <when>2025-01-01T00:28:50.5818380Z</when>
        <gx:coord>12.058085 51.549988 106.601456</gx:coord>
        <when>2025-01-01T00:28:55.5818380Z</when>
        <gx:coord>12.058085 51.549988 106.64839</gx:coord>
        <when>2025-01-01T00:28:57.0518380Z</when>
        <gx:coord>12.058085 51.549988 106.64839</gx:coord>
        <when>2025-01-01T00:28:57.2918380Z</when>
        <gx:coord>12.058085 51.549988 106.64839</gx:coord>
        <when>2025-01-01T00:28:57.8518380Z</when>
        <gx:coord>12.058085 51.549988 106.64839</gx:coord>
        <when>2025-01-01T00:29:00.5818380Z</when>
        <gx:coord>12.058083 51.549988 106.49518</gx:coord>
        <when>2025-01-01T00:29:00.9738380Z</when>
        <gx:coord>12.058083 51.549988 106.49518</gx:coord>
        <when>2025-01-01T00:29:05.5818380Z</when>
        <gx:coord>12.0580845 51.549988 106.59109</gx:coord>
        <when>2025-01-01T00:29:08.7518380Z</when>
        <gx:coord>12.0580845 51.549988 106.59109</gx:coord>
        <coordinates />
      </gx:Track>
    </Placemark>
    <Placemark>
      <name>Takeoff: 2025-01-01</name>
      <styleUrl>#downArrowIcon</styleUrl>
      <Point>
        <altitudeMode>relativeToGround</altitudeMode>
        <coordinates>12.060145,51.550606,20</coordinates>
      </Point>
    </Placemark>
    <Placemark>
      <name>Landing: 2025-01-01</name>
      <styleUrl>#downArrowIcon</styleUrl>
      <Point>
        <altitudeMode>relativeToGround</altitudeMode>
        <coordinates>12.055846,51.55174,20</coordinates>
      </Point>
    </Placemark>
    <Placemark>
      <name>Log Stop: 2025-01-01</name>
      <styleUrl>#downArrowIcon</styleUrl>
      <Point>
        <altitudeMode>relativeToGround</altitudeMode>
        <coordinates>12.0580845,51.549988,20</coordinates>
      </Point>
    </Placemark>
  </Document>
</kml>
