<?xml version="1.0" encoding="utf-8"?>
<kml xmlns:gx="http://www.google.com/kml/ext/2.2" creator="kml-heatmap" xmlns="http://www.opengis.net/kml/2.2">
  <Document>
    <name>SkyDemon Track Log</name>
    <Style id="skydemonLogStyle">
      <LineStyle>
        <color>7f00ffff</color>
        <width>4</width>
      </LineStyle>
      <PolyStyle>
        <color>7fffa400</color>
      </PolyStyle>
    </Style>
    <Style id="downArrowIcon">
      <IconStyle>
        <href>http://maps.google.com/mapfiles/kml/pal4/icon28.png</href>
      </IconStyle>
    </Style>
    <Placemark>
      <name>Log Start: 2025-01-01</name>
      <styleUrl>#downArrowIcon</styleUrl>
      <Point>
        <altitudeMode>relativeToGround</altitudeMode>
        <coordinates>13.349182,51.300316,20</coordinates>
      </Point>
    </Placemark>
    <Placemark>
      <name>EDAU Riesa-Goehlis - EDAQ Halle-Oppin</name>
      <styleUrl>#skydemonLogStyle</styleUrl>
      <gx:Track>
        <extrude>1</extrude>
        <altitudeMode>absolute</altitudeMode>
        <when>2025-01-01T00:00:00.8958780Z</when>
        <gx:coord>13.349182 51.300316 106.29201</gx:coord>
        <when>2025-01-01T00:00:05.8968780Z</when>
        <gx:coord>13.349182 51.300316 106.29201</gx:coord>
        <when>2025-01-01T00:00:10.8968780Z</when>
        <gx:coord>13.349182 51.300316 106.29201</gx:coord>
        <when>2025-01-01T00:00:15.8968780Z</when>
        <gx:coord>13.349182 51.300316 106.29201</gx:coord>
        <when>2025-01-01T00:00:20.8968780Z</when>
        <gx:coord>13.349182 51.300316 106.29201</gx:coord>
        <when>2025-01-01T00:00:25.8968780Z</when>
        <gx:coord>13.349182 51.300316 104.768005</gx:coord>
        <when>2025-01-01T00:00:30.8978780Z</when>
        <gx:coord>13.349182 51.300316 104.768005</gx:coord>
        <when>2025-01-01T00:00:35.8978780Z</when>
        <gx:coord>13.349182 51.300316 104.768005</gx:coord>
        <when>2025-01-01T00:00:40.8978780Z</when>
        <gx:coord>13.349182 51.300316 104.768005</gx:coord>
        <when>2025-01-01T00:00:45.8978780Z</when>
        <gx:coord>13.349204 51.300316 104.768005</gx:coord>
        <when>2025-01-01T00:00:50.8978780Z</when>
        <gx:coord>13.349182 51.300316 104.768005</gx:coord>
        <when>2025-01-01T00:00:55.8978780Z</when>
        <gx:coord>13.349204 51.300316 104.768005</gx:coord>
        <when>2025-01-01T00:01:00.8978780Z</when>
        <gx:coord>13.349204 51.300316 104.768005</gx:coord>
        <when>2025-01-01T00:01:05.8978780Z</when>
        <gx:coord>13.349204 51.300316 104.768005</gx:coord>
        <when>2025-01-01T00:01:10.8978780Z</when>
        <gx:coord>13.349204 51.300316 104.768005</gx:coord>
        <when>2025-01-01T00:01:15.1088780Z</when>
        <gx:coord>13.349182 51.300293 104.768005</gx:coord>
        <when>2025-01-01T00:01:15.8978780Z</when>
        <gx:coord>13.349161 51.300274 104.768005</gx:coord>
        <when>2025-01-01T00:01:20.8978780Z</when>
        <gx:coord>13.349075 51.300167 104.768005</gx:coord>
        <when>2025-01-01T00:01:21.1168780Z</when>
        <gx:coord>13.349075 51.300167 104.768005</gx:coord>
        <when>2025-01-01T00:01:25.8988780Z</when>
        <gx:coord>13.3489895 51.300014 104.768005</gx:coord>
        <when>2025-01-01T00:01:27.1188780Z</when>
        <gx:coord>13.3489685 51.299995 104.768005</gx:coord>
        <when>2025-01-01T00:01:30.8988780Z</when>
        <gx:coord>13.348861 51.299866 104.768005</gx:coord>
        <when>2025-01-01T00:01:32.1048780Z</when>
        <gx:coord>13.348839 51.299843 106.29201</gx:coord>
        <when>2025-01-01T00:01:34.1138780Z</when>
        <gx:coord>13.348818 51.299778 104.768005</gx:coord>
        <when>2025-01-01T00:01:35.8988780Z</when>
        <gx:coord>13.348818 51.299736 104.768005</gx:coord>
        <when>2025-01-01T00:01:39.1098780Z</when>
        <gx:coord>13.348839 51.299652 104.768005</gx:coord>
        <when>2025-01-01T00:01:40.8988780Z</when>
        <gx:coord>13.348861 51.299587 104.768005</gx:coord>
        <when>2025-01-01T00:01:45.1148780Z</when>
        <gx:coord>13.348883 51.299458 104.768005</gx:coord>
        <when>2025-01-01T00:01:45.8978780Z</when>
        <gx:coord>13.348883 51.299416 104.768005</gx:coord>
        <when>2025-01-01T00:01:49.1108780Z</when>
        <gx:coord>13.348861 51.29931 104.768005</gx:coord>
        <when>2025-01-01T00:01:50.8988780Z</when>
        <gx:coord>13.348839 51.29922 104.768005</gx:coord>
        <when>2025-01-01T00:01:54.1288780Z</when>
        <gx:coord>13.348797 51.29909 104.768005</gx:coord>
        <when>2025-01-01T00:01:55.8988780Z</when>
        <gx:coord>13.348775 51.299007 104.768005</gx:coord>
        <when>2025-01-01T00:02:00.8988780Z</when>
        <gx:coord>13.348689 51.29873 104.768005</gx:coord>
        <when>2025-01-01T00:02:05.8988780Z</when>
        <gx:coord>13.348581 51.298405 104.768005</gx:coord>
        <when>2025-01-01T00:02:10.8988780Z</when>
        <gx:coord>13.3484745 51.298084 106.29201</gx:coord>
        <when>2025-01-01T00:02:15.8988780Z</when>
        <gx:coord>13.348346 51.297718 106.29201</gx:coord>
        <when>2025-01-01T00:02:20.8988780Z</when>
        <gx:coord>13.34826 51.29744 106.29201</gx:coord>
        <when>2025-01-01T00:02:25.8988780Z</when>
        <gx:coord>13.348174 51.297184 106.29201</gx:coord>
        <when>2025-01-01T00:02:27.0948780Z</when>
        <gx:coord>13.348174 51.297142 106.29201</gx:coord>
        <when>2025-01-01T00:02:28.1098780Z</when>
        <gx:coord>13.348174 51.297096 106.29201</gx:coord>
        <when>2025-01-01T00:02:29.1028780Z</when>
        <gx:coord>13.348196 51.297054 106.29201</gx:coord>
        <when>2025-01-01T00:02:30.0988780Z</when>
        <gx:coord>13.348217 51.29703 106.29201</gx:coord>
        <when>2025-01-01T00:02:30.8988780Z</when>
        <gx:coord>13.34826 51.297012 106.29201</gx:coord>
        <when>2025-01-01T00:02:31.1098780Z</when>
        <gx:coord>13.34826 51.297012 106.29201</gx:coord>
        <when>2025-01-01T00:02:35.8998780Z</when>
        <gx:coord>13.348517 51.296906 106.29201</gx:coord>
        <when>2025-01-01T00:02:40.8998780Z</when>
        <gx:coord>13.348818 51.2968 106.29201</gx:coord>
        <when>2025-01-01T00:02:45.8998780Z</when>
        <gx:coord>13.349161 51.296688 106.29201</gx:coord>
        <when>2025-01-01T00:02:50.8998780Z</when>
        <gx:coord>13.349504 51.296562 107.815994</gx:coord>
        <when>2025-01-01T00:02:55.8998780Z</when>
        <gx:coord>13.349913 51.29641 107.815994</gx:coord>
        <when>2025-01-01T00:03:00.8998780Z</when>
        <gx:coord>13.350363 51.296238 107.815994</gx:coord>
        <when>2025-01-01T00:03:05.8998780Z</when>
        <gx:coord>13.350857 51.296066 107.815994</gx:coord>
        <when>2025-01-01T00:03:10.8998780Z</when>
        <gx:coord>13.351307 51.295895 106.29201</gx:coord>
        <when>2025-01-01T00:03:15.8998780Z</when>
        <gx:coord>13.351693 51.29577 106.29201</gx:coord>
        <when>2025-01-01T00:03:20.1118780Z</when>
        <gx:coord>13.351887 51.29568 106.29201</gx:coord>
        <when>2025-01-01T00:03:20.8998780Z</when>
        <gx:coord>13.351908 51.29566 106.29201</gx:coord>
        <when>2025-01-01T00:03:21.1228780Z</when>
        <gx:coord>13.351908 51.29566 106.29201</gx:coord>
        <when>2025-01-01T00:03:23.0838780Z</when>
        <gx:coord>13.351929 51.29564 106.29201</gx:coord>
        <when>2025-01-01T00:03:24.1058780Z</when>
        <gx:coord>13.351929 51.295616 106.29201</gx:coord>
        <when>2025-01-01T00:03:25.0968780Z</when>
        <gx:coord>13.351929 51.295593 106.29201</gx:coord>
        <when>2025-01-01T00:03:25.9008780Z</when>
        <gx:coord>13.351908 51.295593 106.29201</gx:coord>
        <when>2025-01-01T00:03:28.1008780Z</when>
        <gx:coord>13.351887 51.295574 106.29201</gx:coord>
        <when>2025-01-01T00:03:30.9008780Z</when>
        <gx:coord>13.351887 51.295574 106.29201</gx:coord>
        <when>2025-01-01T00:03:35.9008780Z</when>
        <gx:coord>13.351887 51.295574 106.29201</gx:coord>
        <when>2025-01-01T00:03:40.9008780Z</when>
        <gx:coord>13.351887 51.295574 106.29201</gx:coord>
        <when>2025-01-01T00:03:45.9008780Z</when>
        <gx:coord>13.351887 51.295574 106.29201</gx:coord>
        <when>2025-01-01T00:03:50.9008780Z</when>
        <gx:coord>13.351887 51.295574 106.29201</gx:coord>
        <when>2025-01-01T00:03:55.9008780Z</when>
        <gx:coord>13.351887 51.295574 106.29201</gx:coord>
        <when>2025-01-01T00:04:00.9008780Z</when>
        <gx:coord>13.351887 51.295574 106.29201</gx:coord>
        <when>2025-01-01T00:04:05.9008780Z</when>
        <gx:coord>13.351887 51.295574 106.29201</gx:coord>
        <when>2025-01-01T00:04:10.9008780Z</when>
        <gx:coord>13.351887 51.295574 106.29201</gx:coord>
        <when>2025-01-01T00:04:15.9008780Z</when>
        <gx:coord>13.351887 51.295574 106.29201</gx:coord>
        <when>2025-01-01T00:04:20.8998780Z</when>
        <gx:coord>13.351887 51.295574 106.29201</gx:coord>
        <when>2025-01-01T00:04:25.9008780Z</when>
        <gx:coord>13.351887 51.295574 106.29201</gx:coord>
        <when>2025-01-01T00:04:30.9008780Z</when>
        <gx:coord>13.351887 51.295574 106.29201</gx:coord>
        <when>2025-01-01T00:04:35.9018780Z</when>
        <gx:coord>13.351887 51.295574 106.29201</gx:coord>
        <when>2025-01-01T00:04:40.9018780Z</when>
        <gx:coord>13.351887 51.295574 106.29201</gx:coord>
        <when>2025-01-01T00:04:45.9018780Z</when>
        <gx:coord>13.351887 51.295574 106.29201</gx:coord>
        <when>2025-01-01T00:04:50.9018780Z</when>
        <gx:coord>13.351887 51.295574 106.29201</gx:coord>
        <when>2025-01-01T00:04:55.9018780Z</when>
        <gx:coord>13.351887 51.295574 106.29201</gx:coord>
        <when>2025-01-01T00:05:00.9018780Z</when>
        <gx:coord>13.351887 51.295574 106.29201</gx:coord>
        <when>2025-01-01T00:05:05.9018780Z</when>
        <gx:coord>13.351887 51.295574 106.29201</gx:coord>
        <when>2025-01-01T00:05:10.9018780Z</when>
        <gx:coord>13.351887 51.295574 106.29201</gx:coord>
        <when>2025-01-01T00:05:15.9018780Z</when>
        <gx:coord>13.351887 51.295574 106.29201</gx:coord>
        <when>2025-01-01T00:05:20.9028780Z</when>
        <gx:coord>13.351887 51.295574 106.29201</gx:coord>
        <when>2025-01-01T00:05:25.9028780Z</when>
        <gx:coord>13.351887 51.295574 106.29201</gx:coord>
        <when>2025-01-01T00:05:30.9028780Z</when>
        <gx:coord>13.351887 51.295574 106.29201</gx:coord>
        <when>2025-01-01T00:05:35.9028780Z</when>
        <gx:coord>13.351887 51.295574 106.29201</gx:coord>
        <when>2025-01-01T00:05:40.9028780Z</when>
        <gx:coord>13.351887 51.295574 106.29201</gx:coord>
        <when>2025-01-01T00:05:45.9028780Z</when>
        <gx:coord>13.351887 51.295574 106.29201</gx:coord>
        <when>2025-01-01T00:05:50.9028780Z</when>
        <gx:coord>13.351887 51.295574 106.29201</gx:coord>
        <when>2025-01-01T00:05:55.9028780Z</when>
        <gx:coord>13.351887 51.295574 106.29201</gx:coord>
        <when>2025-01-01T00:06:00.9028780Z</when>
        <gx:coord>13.351887 51.295574 106.29201</gx:coord>
        <when>2025-01-01T00:06:05.9028780Z</when>
        <gx:coord>13.351843 51.295532 106.29201</gx:coord>
        <when>2025-01-01T00:06:10.9028780Z</when>
        <gx:coord>13.351736 51.295425 106.29201</gx:coord>
        <when>2025-01-01T00:06:15.9028780Z</when>
        <gx:coord>13.351629 51.295296 106.29201</gx:coord>
        <when>2025-01-01T00:06:16.1318780Z</when>
        <gx:coord>13.351629 51.295296 106.29201</gx:coord>
        <when>2025-01-01T00:06:17.0988780Z</when>
        <gx:coord>13.351629 51.295273 106.29201</gx:coord>
        <when>2025-01-01T00:06:18.1028780Z</when>
        <gx:coord>13.351629 51.29525 106.29201</gx:coord>
        <when>2025-01-01T00:06:19.0888780Z</when>
        <gx:coord>13.351629 51.29523 106.29201</gx:coord>
        <when>2025-01-01T00:06:20.9028780Z</when>
        <gx:coord>13.351671 51.29519 106.29201</gx:coord>
        <when>2025-01-01T00:06:21.1248780Z</when>
        <gx:coord>13.351671 51.29519 106.29201</gx:coord>
        <when>2025-01-01T00:06:23.1258780Z</when>
        <gx:coord>13.351757 51.295124 106.29201</gx:coord>
        <when>2025-01-01T00:06:24.1138780Z</when>
        <gx:coord>13.351822 51.2951 106.29201</gx:coord>
        <when>2025-01-01T00:06:25.9028780Z</when>
        <gx:coord>13.351994 51.295036 106.29201</gx:coord>
        <when>2025-01-01T00:06:27.1168780Z</when>
        <gx:coord>13.352144 51.294994 106.29201</gx:coord>
        <when>2025-01-01T00:06:29.1268780Z</when>
        <gx:coord>13.352466 51.294888 107.815994</gx:coord>
        <when>2025-01-01T00:06:30.1178780Z</when>
        <gx:coord>13.352659 51.294823 107.815994</gx:coord>
        <when>2025-01-01T00:06:30.9038780Z</when>
        <gx:coord>13.352873 51.29474 107.815994</gx:coord>
        <when>2025-01-01T00:06:33.1118780Z</when>
        <gx:coord>13.353367 51.294563 107.815994</gx:coord>
        <when>2025-01-01T00:06:35.9038780Z</when>
        <gx:coord>13.354246 51.29422 107.815994</gx:coord>
        <when>2025-01-01T00:06:37.1128780Z</when>
        <gx:coord>13.3545685 51.294113 107.815994</gx:coord>
        <when>2025-01-01T00:06:40.9038780Z</when>
        <gx:coord>13.356028 51.2936 109.34</gx:coord>
        <when>2025-01-01T00:06:44.1128780Z</when>
        <gx:coord>13.357229 51.293148 112.38801</gx:coord>
        <when>2025-01-01T00:06:45.9038780Z</when>
        <gx:coord>13.358088 51.292847 116.96001</gx:coord>
        <when>2025-01-01T00:06:50.9038780Z</when>
        <gx:coord>13.360168 51.292118 141.344</gx:coord>
        <when>2025-01-01T00:06:55.1168780Z</when>
        <gx:coord>13.362122 51.29143 161.156</gx:coord>
        <when>2025-01-01T00:06:55.9038780Z</when>
        <gx:coord>13.362122 51.29143 161.156</gx:coord>
        <when>2025-01-01T00:07:00.9038780Z</when>
        <gx:coord>13.364096 51.290768 176.39601</gx:coord>
        <when>2025-01-01T00:07:05.1158780Z</when>
        <gx:coord>13.366113 51.290146 194.684</gx:coord>
        <when>2025-01-01T00:07:05.9038780Z</when>
        <gx:coord>13.366113 51.290146 194.684</gx:coord>
        <when>2025-01-01T00:07:10.9048780Z</when>
        <gx:coord>13.368109 51.28946 211.44801</gx:coord>
        <when>2025-01-01T00:07:13.1158780Z</when>
        <gx:coord>13.369225 51.28901 219.068</gx:coord>
        <when>2025-01-01T00:07:14.1238780Z</when>
        <gx:coord>13.369589 51.288837 226.68799</gx:coord>
        <when>2025-01-01T00:07:15.9048780Z</when>
        <gx:coord>13.369975 51.288685 229.736</gx:coord>
        <when>2025-01-01T00:07:20.9048780Z</when>
        <gx:coord>13.371927 51.287914 248.02399</gx:coord>
        <when>2025-01-01T00:07:23.1138780Z</when>
        <gx:coord>13.373108 51.28744 261.74</gx:coord>
        <when>2025-01-01T00:07:25.9048780Z</when>
        <gx:coord>13.373901 51.28712 270.884</gx:coord>
        <when>2025-01-01T00:07:29.0988780Z</when>
        <gx:coord>13.375446 51.28641 298.316</gx:coord>
        <when>2025-01-01T00:07:30.1148780Z</when>
        <gx:coord>13.375446 51.28641 298.316</gx:coord>
        <when>2025-01-01T00:07:30.9048780Z</when>
        <gx:coord>13.375812 51.286217 304.412</gx:coord>
        <when>2025-01-01T00:07:34.1178780Z</when>
        <gx:coord>13.376799 51.285576 319.652</gx:coord>
        <when>2025-01-01T00:07:35.1148780Z</when>
        <gx:coord>13.377378 51.285103 330.32</gx:coord>
        <when>2025-01-01T00:07:35.9048780Z</when>
        <gx:coord>13.377378 51.285103 330.32</gx:coord>
        <when>2025-01-01T00:07:40.9048780Z</when>
        <gx:coord>13.378752 51.283707 337.94</gx:coord>
        <when>2025-01-01T00:07:41.1168780Z</when>
        <gx:coord>13.378752 51.283707 337.94</gx:coord>
        <when>2025-01-01T00:07:41.1168780Z</when>
        <gx:coord>13.378752 51.283707 337.94</gx:coord>
        <when>2025-01-01T00:07:45.9048780Z</when>
        <gx:coord>13.3799095 51.282078 342.51202</gx:coord>
        <when>2025-01-01T00:07:50.1128780Z</when>
        <gx:coord>13.380812 51.28034 360.80002</gx:coord>
        <when>2025-01-01T00:07:50.9048780Z</when>
        <gx:coord>13.380812 51.28034 360.80002</gx:coord>
        <when>2025-01-01T00:07:55.9048780Z</when>
        <gx:coord>13.38167 51.278664 388.232</gx:coord>
        <when>2025-01-01T00:07:56.1168780Z</when>
        <gx:coord>13.381842 51.278343 391.28</gx:coord>
        <when>2025-01-01T00:08:00.9048780Z</when>
        <gx:coord>13.382528 51.277054 404.996</gx:coord>
        <when>2025-01-01T00:08:01.1168780Z</when>
        <gx:coord>13.382528 51.277054 404.996</gx:coord>
        <when>2025-01-01T00:08:05.1108780Z</when>
        <gx:coord>13.382936 51.27568 415.664</gx:coord>
        <when>2025-01-01T00:08:05.9048780Z</when>
        <gx:coord>13.382978 51.27532 418.712</gx:coord>
        <when>2025-01-01T00:08:06.1208780Z</when>
        <gx:coord>13.382999 51.274975 421.76</gx:coord>
        <when>2025-01-01T00:08:07.1288780Z</when>
        <gx:coord>13.382999 51.27461 421.76</gx:coord>
        <when>2025-01-01T00:08:10.9058780Z</when>
        <gx:coord>13.382914 51.273514 429.38</gx:coord>
        <when>2025-01-01T00:08:11.1318780Z</when>
        <gx:coord>13.382914 51.273514 429.38</gx:coord>
        <when>2025-01-01T00:08:14.1248780Z</when>
        <gx:coord>13.38257 51.272423 433.952</gx:coord>
        <when>2025-01-01T00:08:15.9058780Z</when>
        <gx:coord>13.382141 51.27169 441.57202</gx:coord>
        <when>2025-01-01T00:08:18.1158780Z</when>
        <gx:coord>13.381584 51.271027 449.19202</gx:coord>
        <when>2025-01-01T00:08:18.1168780Z</when>
        <gx:coord>13.381262 51.270706 453.764</gx:coord>
        <when>2025-01-01T00:08:20.9058780Z</when>
        <gx:coord>13.380532 51.270103 462.90802</gx:coord>
        <when>2025-01-01T00:08:22.1178780Z</when>
        <gx:coord>13.380125 51.269802 465.95602</gx:coord>
        <when>2025-01-01T00:08:25.9058780Z</when>
        <gx:coord>13.3783865 51.268753 478.148</gx:coord>
        <when>2025-01-01T00:08:30.1178780Z</when>
        <gx:coord>13.376648 51.267677 481.196</gx:coord>
        <when>2025-01-01T00:08:30.1178780Z</when>
        <gx:coord>13.376241 51.26738 484.24402</gx:coord>
        <when>2025-01-01T00:08:30.9058780Z</when>
        <gx:coord>13.376241 51.26738 484.24402</gx:coord>
        <when>2025-01-01T00:08:35.9058780Z</when>
        <gx:coord>13.37431 51.265854 501.00803</gx:coord>
        <when>2025-01-01T00:08:38.1168780Z</when>
        <gx:coord>13.373151 51.264954 516.248</gx:coord>
        <when>2025-01-01T00:08:40.9058780Z</when>
        <gx:coord>13.3724 51.26435 520.82</gx:coord>
        <when>2025-01-01T00:08:45.9048780Z</when>
        <gx:coord>13.370533 51.262764 529.964</gx:coord>
        <when>2025-01-01T00:08:48.1078780Z</when>
        <gx:coord>13.369825 51.262123 537.584</gx:coord>
        <when>2025-01-01T00:08:49.1118780Z</when>
        <gx:coord>13.369117 51.26148 546.728</gx:coord>
        <when>2025-01-01T00:08:50.9058780Z</when>
        <gx:coord>13.368773 51.261177 551.3</gx:coord>
        <when>2025-01-01T00:08:52.1218780Z</when>
        <gx:coord>13.368087 51.260555 554.348</gx:coord>
        <when>2025-01-01T00:08:55.9058780Z</when>
        <gx:coord>13.3671 51.25959 574.16</gx:coord>
        <when>2025-01-01T00:08:57.1218780Z</when>
        <gx:coord>13.366413 51.25897 580.256</gx:coord>
        <when>2025-01-01T00:09:00.9068780Z</when>
        <gx:coord>13.365383 51.258022 598.544</gx:coord>
        <when>2025-01-01T00:09:02.1138780Z</when>
        <gx:coord>13.364632 51.257442 612.26</gx:coord>
        <when>2025-01-01T00:09:04.1138780Z</when>
        <gx:coord>13.364246 51.257164 621.404</gx:coord>
        <when>2025-01-01T00:09:05.9068780Z</when>
        <gx:coord>13.363344 51.25669 638.168</gx:coord>
        <when>2025-01-01T00:09:06.1148780Z</when>
        <gx:coord>13.362873 51.256477 644.26404</gx:coord>
        <when>2025-01-01T00:09:08.1188780Z</when>
        <gx:coord>13.362358 51.256287 650.36</gx:coord>
        <when>2025-01-01T00:09:10.9068780Z</when>
        <gx:coord>13.360748 51.25575 664.076</gx:coord>
        <when>2025-01-01T00:09:12.1218780Z</when>
        <gx:coord>13.3596115 51.25547 674.744</gx:coord>
        <when>2025-01-01T00:09:13.1158780Z</when>
        <gx:coord>13.3596115 51.25547 674.744</gx:coord>
        <when>2025-01-01T00:09:15.9068780Z</when>
        <gx:coord>13.357809 51.255146 688.46</gx:coord>
        <when>2025-01-01T00:09:18.1148780Z</when>
        <gx:coord>13.356564 51.25502 696.08</gx:coord>
        <when>2025-01-01T00:09:20.9068780Z</when>
        <gx:coord>13.354633 51.254955 702.176</gx:coord>
        <when>2025-01-01T00:09:21.1288780Z</when>
        <gx:coord>13.353989 51.254974 705.224</gx:coord>
        <when>2025-01-01T00:09:22.1188780Z</when>
        <gx:coord>13.353989 51.254974 705.224</gx:coord>
        <when>2025-01-01T00:09:25.9068780Z</when>
        <gx:coord>13.351414 51.255234 715.892</gx:coord>
        <when>2025-01-01T00:09:26.1128780Z</when>
        <gx:coord>13.351414 51.255234 715.892</gx:coord>
        <when>2025-01-01T00:09:30.9068780Z</when>
        <gx:coord>13.34841 51.255985 732.656</gx:coord>
        <when>2025-01-01T00:09:31.1178780Z</when>
        <gx:coord>13.34841 51.255985 732.656</gx:coord>
        <when>2025-01-01T00:09:32.1158780Z</when>
        <gx:coord>13.347316 51.256413 735.70404</gx:coord>
        <when>2025-01-01T00:09:35.9068780Z</when>
        <gx:coord>13.345749 51.257122 737.228</gx:coord>
        <when>2025-01-01T00:09:39.1208780Z</when>
        <gx:coord>13.34414 51.257915 737.228</gx:coord>
        <when>2025-01-01T00:09:40.9068780Z</when>
        <gx:coord>13.343046 51.258472 735.70404</gx:coord>
        <when>2025-01-01T00:09:43.1108780Z</when>
        <gx:coord>13.341308 51.25931 734.18</gx:coord>
        <when>2025-01-01T00:09:45.9078780Z</when>
        <gx:coord>13.340084 51.259846 731.132</gx:coord>
        <when>2025-01-01T00:09:50.1198780Z</when>
        <gx:coord>13.337531 51.260876 728.084</gx:coord>
        <when>2025-01-01T00:09:50.9078780Z</when>
        <gx:coord>13.336887 51.261135 728.084</gx:coord>
        <when>2025-01-01T00:09:55.9078780Z</when>
        <gx:coord>13.333583 51.26242 728.084</gx:coord>
        <when>2025-01-01T00:10:00.9078780Z</when>
        <gx:coord>13.330343 51.263687 731.132</gx:coord>
        <when>2025-01-01T00:10:05.9078780Z</when>
        <gx:coord>13.327146 51.26493 738.752</gx:coord>
        <when>2025-01-01T00:10:10.9078780Z</when>
        <gx:coord>13.324056 51.26618 741.8</gx:coord>
        <when>2025-01-01T00:10:15.9078780Z</when>
        <gx:coord>13.321052 51.26744 737.228</gx:coord>
        <when>2025-01-01T00:10:19.1288780Z</when>
        <gx:coord>13.318712 51.268517 738.752</gx:coord>
        <when>2025-01-01T00:10:20.9078780Z</when>
        <gx:coord>13.318133 51.268795 743.32404</gx:coord>
        <when>2025-01-01T00:10:25.9078780Z</when>
        <gx:coord>13.315237 51.270126 743.32404</gx:coord>
        <when>2025-01-01T00:10:30.9068780Z</when>
        <gx:coord>13.312254 51.271454 743.32404</gx:coord>
        <when>2025-01-01T00:10:35.9078780Z</when>
        <gx:coord>13.309293 51.272808 744.848</gx:coord>
        <when>2025-01-01T00:10:40.9088780Z</when>
        <gx:coord>13.306289 51.274117 743.32404</gx:coord>
        <when>2025-01-01T00:10:45.0958780Z</when>
        <gx:coord>13.303907 51.27521 738.752</gx:coord>
        <when>2025-01-01T00:10:45.9088780Z</when>
        <gx:coord>13.303349 51.27553 738.752</gx:coord>
        <when>2025-01-01T00:10:50.9088780Z</when>
        <gx:coord>13.300753 51.277206 740.276</gx:coord>
        <when>2025-01-01T00:10:54.1128780Z</when>
        <gx:coord>13.299358 51.27828 735.70404</gx:coord>
        <when>2025-01-01T00:10:55.9088780Z</when>
        <gx:coord>13.298435 51.279007 732.656</gx:coord>
        <when>2025-01-01T00:10:56.1348780Z</when>
        <gx:coord>13.297985 51.279373 732.656</gx:coord>
        <when>2025-01-01T00:11:00.9088780Z</when>
        <gx:coord>13.296247 51.280876 728.084</gx:coord>
        <when>2025-01-01T00:11:05.9088780Z</when>
        <gx:coord>13.294079 51.282784 728.084</gx:coord>
        <when>2025-01-01T00:11:10.9088780Z</when>
        <gx:coord>13.292041 51.284718 735.70404</gx:coord>
        <when>2025-01-01T00:11:15.9088780Z</when>
        <gx:coord>13.290045 51.286625 737.228</gx:coord>
        <when>2025-01-01T00:11:20.9088780Z</when>
        <gx:coord>13.287943 51.288513 731.132</gx:coord>
        <when>2025-01-01T00:11:25.9098780Z</when>
        <gx:coord>13.285797 51.290424 728.084</gx:coord>
        <when>2025-01-01T00:11:30.9098780Z</when>
        <gx:coord>13.2835865 51.292313 721.98804</gx:coord>
        <when>2025-01-01T00:11:32.1208780Z</when>
        <gx:coord>13.282728 51.293064 720.464</gx:coord>
        <when>2025-01-01T00:11:35.9098780Z</when>
        <gx:coord>13.28142 51.2942 715.892</gx:coord>
        <when>2025-01-01T00:11:40.9098780Z</when>
        <gx:coord>13.279058 51.296047 711.32</gx:coord>
        <when>2025-01-01T00:11:45.9088780Z</when>
        <gx:coord>13.276613 51.297935 711.32</gx:coord>
        <when>2025-01-01T00:11:50.9098780Z</when>
        <gx:coord>13.274124 51.2998 714.36804</gx:coord>
        <when>2025-01-01T00:11:55.9098780Z</when>
        <gx:coord>13.271613 51.301647 715.892</gx:coord>
        <when>2025-01-01T00:12:00.9098780Z</when>
        <gx:coord>13.26906 51.30349 714.36804</gx:coord>
        <when>2025-01-01T00:12:05.9098780Z</when>
        <gx:coord>13.266441 51.305336 714.36804</gx:coord>
        <when>2025-01-01T00:12:07.1098780Z</when>
        <gx:coord>13.265369 51.306023 714.36804</gx:coord>
        <when>2025-01-01T00:12:10.9098780Z</when>
        <gx:coord>13.263695 51.307034 714.36804</gx:coord>
        <when>2025-01-01T00:12:15.1108780Z</when>
        <gx:coord>13.261421 51.308296 711.32</gx:coord>
        <when>2025-01-01T00:12:15.9108780Z</when>
        <gx:coord>13.260862 51.30862 709.796</gx:coord>
        <when>2025-01-01T00:12:20.1188780Z</when>
        <gx:coord>13.257944 51.310165 705.224</gx:coord>
        <when>2025-01-01T00:12:20.9108780Z</when>
        <gx:coord>13.257944 51.310165 705.224</gx:coord>
        <when>2025-01-01T00:12:25.9108780Z</when>
        <gx:coord>13.255048 51.311687 700.65204</gx:coord>
        <when>2025-01-01T00:12:30.9108780Z</when>
        <gx:coord>13.252044 51.313213 703.7</gx:coord>
        <when>2025-01-01T00:12:35.9108780Z</when>
        <gx:coord>13.24889 51.31465 704.964</gx:coord>
        <when>2025-01-01T00:12:40.9108780Z</when>
        <gx:coord>13.245692 51.316044 704.964</gx:coord>
        <when>2025-01-01T00:12:42.1248780Z</when>
        <gx:coord>13.244448 51.316647 706.48804</gx:coord>
        <when>2025-01-01T00:12:45.9108780Z</when>
        <gx:coord>13.24258 51.317547 703.44</gx:coord>
        <when>2025-01-01T00:12:50.9108780Z</when>
        <gx:coord>13.239384 51.319004 694.29596</gx:coord>
        <when>2025-01-01T00:12:55.9108780Z</when>
        <gx:coord>13.236187 51.32053 692.77203</gx:coord>
        <when>2025-01-01T00:13:00.9108780Z</when>
        <gx:coord>13.232989 51.322094 680.58</gx:coord>
        <when>2025-01-01T00:13:04.1148780Z</when>
        <gx:coord>13.230371 51.32332 674.484</gx:coord>
        <when>2025-01-01T00:13:05.9118780Z</when>
        <gx:coord>13.229706 51.32362 672.96</gx:coord>
        <when>2025-01-01T00:13:10.9118780Z</when>
        <gx:coord>13.2262945 51.325077 668.388</gx:coord>
        <when>2025-01-01T00:13:15.1128780Z</when>
        <gx:coord>13.222733 51.326385 665.34</gx:coord>
        <when>2025-01-01T00:13:15.9118780Z</when>
        <gx:coord>13.222733 51.326385 666.864</gx:coord>
        <when>2025-01-01T00:13:20.9108780Z</when>
        <gx:coord>13.219342 51.32778 665.34</gx:coord>
        <when>2025-01-01T00:13:25.9118780Z</when>
        <gx:coord>13.216081 51.32924 672.96</gx:coord>
        <when>2025-01-01T00:13:30.9118780Z</when>
        <gx:coord>13.212862 51.330677 669.912</gx:coord>
        <when>2025-01-01T00:13:35.9118780Z</when>
        <gx:coord>13.209729 51.33216 674.484</gx:coord>
        <when>2025-01-01T00:13:40.9118780Z</when>
        <gx:coord>13.206617 51.333595 685.15204</gx:coord>
        <when>2025-01-01T00:13:45.9118780Z</when>
        <gx:coord>13.203421 51.335014 679.056</gx:coord>
        <when>2025-01-01T00:13:49.1178780Z</when>
        <gx:coord>13.200846 51.33615 677.532</gx:coord>
        <when>2025-01-01T00:13:50.9118780Z</when>
        <gx:coord>13.200202 51.33643 676.008</gx:coord>
        <when>2025-01-01T00:13:55.9128780Z</when>
        <gx:coord>13.197026 51.337868 685.15204</gx:coord>
        <when>2025-01-01T00:14:00.9128780Z</when>
        <gx:coord>13.193958 51.339283 685.15204</gx:coord>
        <when>2025-01-01T00:14:05.9128780Z</when>
        <gx:coord>13.190889 51.340744 676.008</gx:coord>
        <when>2025-01-01T00:14:10.9128780Z</when>
        <gx:coord>13.187693 51.34216 688.2</gx:coord>
        <when>2025-01-01T00:14:15.9118780Z</when>
        <gx:coord>13.184517 51.343597 686.676</gx:coord>
        <when>2025-01-01T00:14:20.9128780Z</when>
        <gx:coord>13.181319 51.34503 680.58</gx:coord>
        <when>2025-01-01T00:14:24.1218780Z</when>
        <gx:coord>13.178766 51.346172 677.532</gx:coord>
        <when>2025-01-01T00:14:25.9128780Z</when>
        <gx:coord>13.178122 51.34645 674.484</gx:coord>
        <when>2025-01-01T00:14:30.9128780Z</when>
        <gx:coord>13.174904 51.347866 676.008</gx:coord>
        <when>2025-01-01T00:14:35.9128780Z</when>
        <gx:coord>13.171749 51.34928 680.58</gx:coord>
        <when>2025-01-01T00:14:40.9128780Z</when>
        <gx:coord>13.168573 51.350636 680.58</gx:coord>
        <when>2025-01-01T00:14:45.9138780Z</when>
        <gx:coord>13.165355 51.352028 659.24396</gx:coord>
        <when>2025-01-01T00:14:50.9138780Z</when>
        <gx:coord>13.162093 51.35349 659.24396</gx:coord>
        <when>2025-01-01T00:14:55.9138780Z</when>
        <gx:coord>13.158832 51.354946 665.34</gx:coord>
        <when>2025-01-01T00:14:58.1228780Z</when>
        <gx:coord>13.1569 51.355827 666.864</gx:coord>
        <when>2025-01-01T00:15:00.9138780Z</when>
        <gx:coord>13.155613 51.356407 665.34</gx:coord>
        <when>2025-01-01T00:15:05.9138780Z</when>
        <gx:coord>13.152351 51.35778 662.292</gx:coord>
        <when>2025-01-01T00:15:10.9138780Z</when>
        <gx:coord>13.149069 51.359108 666.864</gx:coord>
        <when>2025-01-01T00:15:15.9138780Z</when>
        <gx:coord>13.145742 51.36042 666.864</gx:coord>
        <when>2025-01-01T00:15:19.1178780Z</when>
        <gx:coord>13.1436825 51.361214 666.864</gx:coord>
        <when>2025-01-01T00:15:20.9138780Z</when>
        <gx:coord>13.142266 51.361706 671.43604</gx:coord>
        <when>2025-01-01T00:15:25.9138780Z</when>
        <gx:coord>13.138683 51.36295 676.008</gx:coord>
        <when>2025-01-01T00:15:30.9138780Z</when>
        <gx:coord>13.135099 51.364174 668.388</gx:coord>
        <when>2025-01-01T00:15:32.1248780Z</when>
        <gx:coord>13.133661 51.364666 666.864</gx:coord>
        <when>2025-01-01T00:15:35.9138780Z</when>
        <gx:coord>13.131537 51.36544 662.292</gx:coord>
        <when>2025-01-01T00:15:40.9138780Z</when>
        <gx:coord>13.127996 51.36677 660.768</gx:coord>
        <when>2025-01-01T00:15:45.9148780Z</when>
        <gx:coord>13.124456 51.3681 662.292</gx:coord>
        <when>2025-01-01T00:15:50.9138780Z</when>
        <gx:coord>13.1208515 51.369324 671.43604</gx:coord>
        <when>2025-01-01T00:15:55.9148780Z</when>
        <gx:coord>13.117332 51.37055 677.532</gx:coord>
        <when>2025-01-01T00:16:00.9148780Z</when>
        <gx:coord>13.113899 51.371834 671.43604</gx:coord>
        <when>2025-01-01T00:16:05.1178780Z</when>
        <gx:coord>13.110423 51.373142 665.34</gx:coord>
        <when>2025-01-01T00:16:05.9148780Z</when>
        <gx:coord>13.110423 51.373142 663.81604</gx:coord>
        <when>2025-01-01T00:16:10.9148780Z</when>
        <gx:coord>13.106968 51.37445 666.864</gx:coord>
        <when>2025-01-01T00:16:15.9148780Z</when>
        <gx:coord>13.103514 51.37574 662.292</gx:coord>
        <when>2025-01-01T00:16:20.9148780Z</when>
        <gx:coord>13.1000595 51.376984 669.912</gx:coord>
        <when>2025-01-01T00:16:25.9148780Z</when>
        <gx:coord>13.09669 51.3781 683.628</gx:coord>
        <when>2025-01-01T00:16:30.9148780Z</when>
        <gx:coord>13.0933 51.379173 677.532</gx:coord>
        <when>2025-01-01T00:16:35.9158780Z</when>
        <gx:coord>13.089888 51.380287 676.008</gx:coord>
        <when>2025-01-01T00:16:40.1248780Z</when>
        <gx:coord>13.086584 51.381447 682.104</gx:coord>
        <when>2025-01-01T00:16:40.9158780Z</when>
        <gx:coord>13.086584 51.381447 683.628</gx:coord>
        <when>2025-01-01T00:16:45.9158780Z</when>
        <gx:coord>13.083279 51.38254 686.676</gx:coord>
        <when>2025-01-01T00:16:50.9158780Z</when>
        <gx:coord>13.079996 51.383636 688.2</gx:coord>
        <when>2025-01-01T00:16:55.9158780Z</when>
        <gx:coord>13.07667 51.384773 689.724</gx:coord>
        <when>2025-01-01T00:17:00.9158780Z</when>
        <gx:coord>13.073387 51.385887 695.82</gx:coord>
        <when>2025-01-01T00:17:05.9158780Z</when>
        <gx:coord>13.070126 51.387047 692.77203</gx:coord>
        <when>2025-01-01T00:17:09.9768780Z</when>
        <gx:coord>13.068151 51.38778 686.676</gx:coord>
        <when>2025-01-01T00:17:14.9778780Z</when>
        <gx:coord>13.064203 51.38928 688.2</gx:coord>
        <when>2025-01-01T00:17:17.2408780Z</when>
        <gx:coord>13.062916 51.389774 688.2</gx:coord>
        <when>2025-01-01T00:17:17.5968780Z</when>
        <gx:coord>13.062916 51.389774 689.724</gx:coord>
        <when>2025-01-01T00:17:22.5978780Z</when>
        <gx:coord>13.05916 51.391296 692.77203</gx:coord>
        <when>2025-01-01T00:17:27.5978780Z</when>
        <gx:coord>13.055878 51.392433 692.77203</gx:coord>
        <when>2025-01-01T00:17:32.5978780Z</when>
        <gx:coord>13.052487 51.39357 688.2</gx:coord>
        <when>2025-01-01T00:17:37.5978780Z</when>
        <gx:coord>13.04899 51.39473 683.628</gx:coord>
        <when>2025-01-01T00:17:42.5978780Z</when>
        <gx:coord>13.045449 51.39589 682.104</gx:coord>
        <when>2025-01-01T00:17:47.5978780Z</when>
        <gx:coord>13.041908 51.39705 680.58</gx:coord>
        <when>2025-01-01T00:17:51.1188780Z</when>
        <gx:coord>13.039034 51.39795 679.056</gx:coord>
        <when>2025-01-01T00:17:52.5978780Z</when>
        <gx:coord>13.038303 51.398186 674.484</gx:coord>
        <when>2025-01-01T00:17:57.5988780Z</when>
        <gx:coord>13.034742 51.39934 668.388</gx:coord>
        <when>2025-01-01T00:18:02.5988780Z</when>
        <gx:coord>13.031158 51.400566 666.864</gx:coord>
        <when>2025-01-01T00:18:07.5988780Z</when>
        <gx:coord>13.027682 51.40179 665.34</gx:coord>
        <when>2025-01-01T00:18:12.5988780Z</when>
        <gx:coord>13.024249 51.403076 663.81604</gx:coord>
        <when>2025-01-01T00:18:17.6408780Z</when>
        <gx:coord>13.020838 51.404385 662.292</gx:coord>
        <when>2025-01-01T00:18:22.5988780Z</when>
        <gx:coord>13.017426 51.40561 663.81604</gx:coord>
        <when>2025-01-01T00:18:25.1248780Z</when>
        <gx:coord>13.015345 51.406338 663.81604</gx:coord>
        <when>2025-01-01T00:18:27.5988780Z</when>
        <gx:coord>13.013949 51.40681 662.292</gx:coord>
        <when>2025-01-01T00:18:32.5988780Z</when>
        <gx:coord>13.010473 51.408012 659.24396</gx:coord>
        <when>2025-01-01T00:18:37.5988780Z</when>
        <gx:coord>13.007019 51.40915 665.34</gx:coord>
        <when>2025-01-01T00:18:42.5988780Z</when>
        <gx:coord>13.00365 51.410263 669.912</gx:coord>
        <when>2025-01-01T00:18:47.5978780Z</when>
        <gx:coord>13.000324 51.41134 669.912</gx:coord>
        <when>2025-01-01T00:18:52.5998780Z</when>
        <gx:coord>12.996977 51.41241 677.532</gx:coord>
        <when>2025-01-01T00:19:00.1228780Z</when>
        <gx:coord>12.991697 51.414192 683.628</gx:coord>
        <when>2025-01-01T00:19:03.0948780Z</when>
        <gx:coord>12.990389 51.41462 697.344</gx:coord>
        <when>2025-01-01T00:19:04.1278780Z</when>
        <gx:coord>12.989101 51.41505 704.964</gx:coord>
        <when>2025-01-01T00:19:08.1268780Z</when>
        <gx:coord>12.987213 51.415714 708.012</gx:coord>
        <when>2025-01-01T00:19:13.0958780Z</when>
        <gx:coord>12.984016 51.41681 703.44</gx:coord>
        <when>2025-01-01T00:19:18.0958780Z</when>
        <gx:coord>12.980711 51.417946 715.63196</gx:coord>
        <when>2025-01-01T00:19:23.0968780Z</when>
        <gx:coord>12.977364 51.419106 721.728</gx:coord>
        <when>2025-01-01T00:19:28.0958780Z</when>
        <gx:coord>12.973952 51.42022 715.63196</gx:coord>
        <when>2025-01-01T00:19:33.1268780Z</when>
        <gx:coord>12.970476 51.421337 708.012</gx:coord>
        <when>2025-01-01T00:19:36.1318780Z</when>
        <gx:coord>12.967751 51.422237 712.584</gx:coord>
        <when>2025-01-01T00:19:38.0958780Z</when>
        <gx:coord>12.967086 51.422455 715.63196</gx:coord>
        <when>2025-01-01T00:19:43.0958780Z</when>
        <gx:coord>12.96376 51.42357 723.252</gx:coord>
        <when>2025-01-01T00:19:48.0958780Z</when>
        <gx:coord>12.960391 51.424664 724.776</gx:coord>
        <when>2025-01-01T00:19:53.0968780Z</when>
        <gx:coord>12.957001 51.4258 723.252</gx:coord>
        <when>2025-01-01T00:19:58.0968780Z</when>
        <gx:coord>12.953674 51.427025 717.156</gx:coord>
        <when>2025-01-01T00:20:03.1138780Z</when>
        <gx:coord>12.950349 51.42831 723.252</gx:coord>
        <when>2025-01-01T00:20:06.1278780Z</when>
        <gx:coord>12.947688 51.429363 735.44403</gx:coord>
        <when>2025-01-01T00:20:08.0968780Z</when>
        <gx:coord>12.947023 51.4296 740.016</gx:coord>
        <when>2025-01-01T00:20:11.1238780Z</when>
        <gx:coord>12.944363 51.430584 746.112</gx:coord>
        <when>2025-01-01T00:20:13.0968780Z</when>
        <gx:coord>12.943697 51.43082 744.588</gx:coord>
        <when>2025-01-01T00:20:18.0968780Z</when>
        <gx:coord>12.940329 51.432068 736.96796</gx:coord>
        <when>2025-01-01T00:20:23.0968780Z</when>
        <gx:coord>12.936895 51.433266 740.016</gx:coord>
        <when>2025-01-01T00:20:28.0968780Z</when>
        <gx:coord>12.933483 51.43449 738.492</gx:coord>
        <when>2025-01-01T00:20:33.1278780Z</when>
        <gx:coord>12.930093 51.43569 733.92</gx:coord>
        <when>2025-01-01T00:20:38.0968780Z</when>
        <gx:coord>12.9266815 51.436935 724.776</gx:coord>
        <when>2025-01-01T00:20:43.0968780Z</when>
        <gx:coord>12.923248 51.438225 717.156</gx:coord>
        <when>2025-01-01T00:20:45.1288780Z</when>
        <gx:coord>12.92123 51.438995 715.63196</gx:coord>
        <when>2025-01-01T00:20:48.0968780Z</when>
        <gx:coord>12.919879 51.43951 714.10803</gx:coord>
        <when>2025-01-01T00:20:52.1278780Z</when>
        <gx:coord>12.916532 51.440735 704.964</gx:coord>
        <when>2025-01-01T00:20:53.0968780Z</when>
        <gx:coord>12.916532 51.440735 704.964</gx:coord>
        <when>2025-01-01T00:20:58.0968780Z</when>
        <gx:coord>12.913184 51.441936 704.964</gx:coord>
        <when>2025-01-01T00:21:03.1318780Z</when>
        <gx:coord>12.909 51.44331 698.868</gx:coord>
        <when>2025-01-01T00:21:08.0968780Z</when>
        <gx:coord>12.906189 51.444275 698.868</gx:coord>
        <when>2025-01-01T00:21:13.0978780Z</when>
        <gx:coord>12.902713 51.445457 701.916</gx:coord>
        <when>2025-01-01T00:21:18.0978780Z</when>
        <gx:coord>12.89928 51.446655 704.964</gx:coord>
        <when>2025-01-01T00:21:19.1338780Z</when>
        <gx:coord>12.897906 51.44711 706.48804</gx:coord>
        <when>2025-01-01T00:21:23.0978780Z</when>
        <gx:coord>12.895846 51.447815 709.536</gx:coord>
        <when>2025-01-01T00:21:28.0978780Z</when>
        <gx:coord>12.892391 51.44891 711.06</gx:coord>
        <when>2025-01-01T00:21:33.1268780Z</when>
        <gx:coord>12.888872 51.44998 711.06</gx:coord>
        <when>2025-01-01T00:21:38.0978780Z</when>
        <gx:coord>12.885353 51.451077 711.06</gx:coord>
        <when>2025-01-01T00:21:43.0978780Z</when>
        <gx:coord>12.881856 51.452194 708.012</gx:coord>
        <when>2025-01-01T00:21:48.0978780Z</when>
        <gx:coord>12.878401 51.453396 709.536</gx:coord>
        <when>2025-01-01T00:21:53.0978780Z</when>
        <gx:coord>12.875011 51.454597 715.63196</gx:coord>
        <when>2025-01-01T00:21:54.1288780Z</when>
        <gx:coord>12.873659 51.45507 717.156</gx:coord>
        <when>2025-01-01T00:21:58.0978780Z</when>
        <gx:coord>12.871599 51.455734 718.68</gx:coord>
        <when>2025-01-01T00:22:03.1238780Z</when>
        <gx:coord>12.868209 51.456894 717.156</gx:coord>
        <when>2025-01-01T00:22:08.0978780Z</when>
        <gx:coord>12.864819 51.45805 715.63196</gx:coord>
        <when>2025-01-01T00:22:13.0978780Z</when>
        <gx:coord>12.86145 51.45925 715.63196</gx:coord>
        <when>2025-01-01T00:22:18.0978780Z</when>
        <gx:coord>12.858145 51.460476 717.156</gx:coord>
        <when>2025-01-01T00:22:23.1268780Z</when>
        <gx:coord>12.854883 51.46172 715.63196</gx:coord>
        <when>2025-01-01T00:22:28.0978780Z</when>
        <gx:coord>12.851515 51.46288 715.63196</gx:coord>
        <when>2025-01-01T00:22:29.1318780Z</when>
        <gx:coord>12.850121 51.46333 714.10803</gx:coord>
        <when>2025-01-01T00:22:33.1288780Z</when>
        <gx:coord>12.848039 51.464016 711.06</gx:coord>
        <when>2025-01-01T00:22:38.0978780Z</when>
        <gx:coord>12.844627 51.465176 708.012</gx:coord>
        <when>2025-01-01T00:22:43.0978780Z</when>
        <gx:coord>12.841258 51.466377 706.48804</gx:coord>
        <when>2025-01-01T00:22:48.0978780Z</when>
        <gx:coord>12.837933 51.46762 708.012</gx:coord>
        <when>2025-01-01T00:22:53.0988780Z</when>
        <gx:coord>12.834606 51.468864 712.584</gx:coord>
        <when>2025-01-01T00:22:58.0988780Z</when>
        <gx:coord>12.831302 51.470154 723.252</gx:coord>
        <when>2025-01-01T00:23:03.1288780Z</when>
        <gx:coord>12.827932 51.471355 730.872</gx:coord>
        <when>2025-01-01T00:23:04.1328780Z</when>
        <gx:coord>12.826581 51.471848 732.396</gx:coord>
        <when>2025-01-01T00:23:08.0988780Z</when>
        <gx:coord>12.824543 51.47258 729.348</gx:coord>
        <when>2025-01-01T00:23:13.0988780Z</when>
        <gx:coord>12.821088 51.47376 729.348</gx:coord>
        <when>2025-01-01T00:23:18.0988780Z</when>
        <gx:coord>12.817569 51.47483 727.82404</gx:coord>
        <when>2025-01-01T00:23:23.0988780Z</when>
        <gx:coord>12.813986 51.475925 715.63196</gx:coord>
        <when>2025-01-01T00:23:28.0988780Z</when>
        <gx:coord>12.810295 51.477062 701.916</gx:coord>
        <when>2025-01-01T00:23:30.1298780Z</when>
        <gx:coord>12.808771 51.477535 697.344</gx:coord>
        <when>2025-01-01T00:23:33.1288780Z</when>
        <gx:coord>12.806519 51.478264 695.82</gx:coord>
        <when>2025-01-01T00:23:37.1318780Z</when>
        <gx:coord>12.802784 51.479465 692.77203</gx:coord>
        <when>2025-01-01T00:23:38.0988780Z</when>
        <gx:coord>12.802784 51.479465 692.77203</gx:coord>
        <when>2025-01-01T00:23:43.0978780Z</when>
        <gx:coord>12.799072 51.480644 688.2</gx:coord>
        <when>2025-01-01T00:23:48.0988780Z</when>
        <gx:coord>12.795339 51.481785 686.676</gx:coord>
        <when>2025-01-01T00:23:53.0988780Z</when>
        <gx:coord>12.791648 51.4829 686.676</gx:coord>
        <when>2025-01-01T00:23:58.0988780Z</when>
        <gx:coord>12.787979 51.484035 680.58</gx:coord>
        <when>2025-01-01T00:24:01.1298780Z</when>
        <gx:coord>12.785017 51.48496 674.484</gx:coord>
        <when>2025-01-01T00:24:03.1308780Z</when>
        <gx:coord>12.783537 51.48543 672.96</gx:coord>
        <when>2025-01-01T00:24:08.0978780Z</when>
        <gx:coord>12.780619 51.486397 669.912</gx:coord>
        <when>2025-01-01T00:24:10.1268780Z</when>
        <gx:coord>12.77843 51.487125 666.864</gx:coord>
        <when>2025-01-01T00:24:13.0988780Z</when>
        <gx:coord>12.776949 51.48762 660.768</gx:coord>
        <when>2025-01-01T00:24:18.1268780Z</when>
        <gx:coord>12.77328 51.488865 653.148</gx:coord>
        <when>2025-01-01T00:24:23.0988780Z</when>
        <gx:coord>12.769589 51.490067 647.052</gx:coord>
        <when>2025-01-01T00:24:28.0988780Z</when>
        <gx:coord>12.765899 51.49127 645.528</gx:coord>
        <when>2025-01-01T00:24:28.1298780Z</when>
        <gx:coord>12.765169 51.491505 644.004</gx:coord>
        <when>2025-01-01T00:24:33.0988780Z</when>
        <gx:coord>12.762186 51.492405 640.956</gx:coord>
        <when>2025-01-01T00:24:38.0988780Z</when>
        <gx:coord>12.758495 51.493523 639.432</gx:coord>
        <when>2025-01-01T00:24:43.0988780Z</when>
        <gx:coord>12.7548485 51.49466 634.86</gx:coord>
        <when>2025-01-01T00:24:43.1378780Z</when>
        <gx:coord>12.754118 51.494896 634.86</gx:coord>
        <when>2025-01-01T00:24:48.0998780Z</when>
        <gx:coord>12.751222 51.495815 630.288</gx:coord>
        <when>2025-01-01T00:24:53.0988780Z</when>
        <gx:coord>12.74766 51.497017 641.94</gx:coord>
        <when>2025-01-01T00:24:58.0998780Z</when>
        <gx:coord>12.74412 51.498135 644.98804</gx:coord>
        <when>2025-01-01T00:25:01.1228780Z</when>
        <gx:coord>12.74193 51.498672 651.084</gx:coord>
        <when>2025-01-01T00:25:02.1278780Z</when>
        <gx:coord>12.741179 51.49882 649.56</gx:coord>
        <when>2025-01-01T00:25:03.1248780Z</when>
        <gx:coord>12.739677 51.499123 646.5121</gx:coord>
        <when>2025-01-01T00:25:08.0998780Z</when>
        <gx:coord>12.736545 51.499615 637.368</gx:coord>
        <when>2025-01-01T00:25:13.0998780Z</when>
        <gx:coord>12.7325535 51.500046 634.32</gx:coord>
        <when>2025-01-01T00:25:14.1228780Z</when>
        <gx:coord>12.73176 51.50013 634.32</gx:coord>
        <when>2025-01-01T00:25:17.1278780Z</when>
        <gx:coord>12.72854 51.500366 634.32</gx:coord>
        <when>2025-01-01T00:25:18.0988780Z</when>
        <gx:coord>12.72854 51.500366 635.844</gx:coord>
        <when>2025-01-01T00:25:23.0988780Z</when>
        <gx:coord>12.724528 51.500668 637.368</gx:coord>
        <when>2025-01-01T00:25:28.0988780Z</when>
        <gx:coord>12.720494 51.500965 648.036</gx:coord>
        <when>2025-01-01T00:25:33.1228780Z</when>
        <gx:coord>12.716438 51.501244 666.32404</gx:coord>
        <when>2025-01-01T00:25:38.0998780Z</when>
        <gx:coord>12.71234 51.501503 672.42</gx:coord>
        <when>2025-01-01T00:25:43.0998780Z</when>
        <gx:coord>12.708049 51.501823 670.896</gx:coord>
        <when>2025-01-01T00:25:48.0998780Z</when>
        <gx:coord>12.703714 51.50223 669.372</gx:coord>
        <when>2025-01-01T00:25:49.1338780Z</when>
        <gx:coord>12.701977 51.502403 667.8481</gx:coord>
        <when>2025-01-01T00:25:53.0998780Z</when>
        <gx:coord>12.699316 51.502617 667.8481</gx:coord>
        <when>2025-01-01T00:25:58.0998780Z</when>
        <gx:coord>12.694939 51.502876 673.9441</gx:coord>
        <when>2025-01-01T00:26:03.1258780Z</when>
        <gx:coord>12.690582 51.50309 664.8</gx:coord>
        <when>2025-01-01T00:26:08.0998780Z</when>
        <gx:coord>12.686205 51.50339 661.7521</gx:coord>
        <when>2025-01-01T00:26:13.0998780Z</when>
        <gx:coord>12.68187 51.503757 649.56</gx:coord>
        <when>2025-01-01T00:26:18.0998780Z</when>
        <gx:coord>12.677579 51.504143 638.8921</gx:coord>
        <when>2025-01-01T00:26:20.1128780Z</when>
        <gx:coord>12.675004 51.504356 638.8921</gx:coord>
        <when>2025-01-01T00:26:23.0998780Z</when>
        <gx:coord>12.67333 51.50451 640.4161</gx:coord>
        <when>2025-01-01T00:26:28.1008780Z</when>
        <gx:coord>12.669189 51.504894 643.464</gx:coord>
        <when>2025-01-01T00:26:33.0998780Z</when>
        <gx:coord>12.665048 51.50515 625.1761</gx:coord>
        <when>2025-01-01T00:26:38.0998780Z</when>
        <gx:coord>12.660928 51.505474 619.08</gx:coord>
        <when>2025-01-01T00:26:42.1078780Z</when>
        <gx:coord>12.656765 51.50577 612.984</gx:coord>
        <when>2025-01-01T00:26:43.1008780Z</when>
        <gx:coord>12.656765 51.50577 612.984</gx:coord>
        <when>2025-01-01T00:26:48.1008780Z</when>
        <gx:coord>12.652602 51.506138 614.508</gx:coord>
        <when>2025-01-01T00:26:52.1268780Z</when>
        <gx:coord>12.648482 51.506504 620.604</gx:coord>
        <when>2025-01-01T00:26:53.0998780Z</when>
        <gx:coord>12.648482 51.506504 620.604</gx:coord>
        <when>2025-01-01T00:26:58.1008780Z</when>
        <gx:coord>12.644448 51.506824 626.7001</gx:coord>
        <when>2025-01-01T00:27:03.1138780Z</when>
        <gx:coord>12.639728 51.507103 638.8921</gx:coord>
        <when>2025-01-01T00:27:04.1218780Z</when>
        <gx:coord>12.639728 51.507103 638.8921</gx:coord>
        <when>2025-01-01T00:27:08.1088780Z</when>
        <gx:coord>12.636638 51.507298 641.94</gx:coord>
        <when>2025-01-01T00:27:13.1088780Z</when>
        <gx:coord>12.632797 51.507618 640.4161</gx:coord>
        <when>2025-01-01T00:27:18.1128780Z</when>
        <gx:coord>12.628891 51.507942 638.8921</gx:coord>
        <when>2025-01-01T00:27:23.0998780Z</when>
        <gx:coord>12.624987 51.50824 640.4161</gx:coord>
        <when>2025-01-01T00:27:26.1298780Z</when>
        <gx:coord>12.621897 51.5085 640.4161</gx:coord>
        <when>2025-01-01T00:27:28.1008780Z</when>
        <gx:coord>12.621145 51.508564 641.94</gx:coord>
        <when>2025-01-01T00:27:33.0998780Z</when>
        <gx:coord>12.617326 51.50895 640.4161</gx:coord>
        <when>2025-01-01T00:27:38.1008780Z</when>
        <gx:coord>12.613485 51.509315 643.464</gx:coord>
        <when>2025-01-01T00:27:38.1258780Z</when>
        <gx:coord>12.612734 51.5094 644.98804</gx:coord>
        <when>2025-01-01T00:27:43.1008780Z</when>
        <gx:coord>12.609644 51.5097 646.5121</gx:coord>
        <when>2025-01-01T00:27:48.1008780Z</when>
        <gx:coord>12.605803 51.51015 648.036</gx:coord>
        <when>2025-01-01T00:27:53.1008780Z</when>
        <gx:coord>12.601962 51.5106 644.98804</gx:coord>
        <when>2025-01-01T00:27:58.1008780Z</when>
        <gx:coord>12.598057 51.51101 644.98804</gx:coord>
        <when>2025-01-01T00:28:01.1158780Z</when>
        <gx:coord>12.594924 51.51131 644.98804</gx:coord>
        <when>2025-01-01T00:28:03.1078780Z</when>
        <gx:coord>12.59413 51.511375 646.5121</gx:coord>
        <when>2025-01-01T00:28:08.1008780Z</when>
        <gx:coord>12.590181 51.51176 648.036</gx:coord>
        <when>2025-01-01T00:28:13.1008780Z</when>
        <gx:coord>12.586277 51.512062 655.656</gx:coord>
        <when>2025-01-01T00:28:18.1008780Z</when>
        <gx:coord>12.582393 51.51223 648.036</gx:coord>
        <when>2025-01-01T00:28:23.1018780Z</when>
        <gx:coord>12.57853 51.51249 648.036</gx:coord>
        <when>2025-01-01T00:28:28.1018780Z</when>
        <gx:coord>12.57469 51.51275 649.56</gx:coord>
        <when>2025-01-01T00:28:33.1008780Z</when>
        <gx:coord>12.570869 51.512962 655.656</gx:coord>
        <when>2025-01-01T00:28:36.1148780Z</when>
        <gx:coord>12.567823 51.513134 657.18</gx:coord>
        <when>2025-01-01T00:28:38.1018780Z</when>
        <gx:coord>12.567072 51.513153 657.18</gx:coord>
        <when>2025-01-01T00:28:43.1008780Z</when>
        <gx:coord>12.56321 51.51337 651.084</gx:coord>
        <when>2025-01-01T00:28:48.1018780Z</when>
        <gx:coord>12.559261 51.51365 641.94</gx:coord>
        <when>2025-01-01T00:28:53.1018780Z</when>
        <gx:coord>12.555292 51.51401 644.98804</gx:coord>
        <when>2025-01-01T00:28:58.1008780Z</when>
        <gx:coord>12.551344 51.5144 646.5121</gx:coord>
        <when>2025-01-01T00:29:03.1188780Z</when>
        <gx:coord>12.547374 51.514786 641.94</gx:coord>
        <when>2025-01-01T00:29:08.1008780Z</when>
        <gx:coord>12.54334 51.515236 635.844</gx:coord>
        <when>2025-01-01T00:29:10.1148780Z</when>
        <gx:coord>12.540915 51.515514 632.7961</gx:coord>
        <when>2025-01-01T00:29:13.1018780Z</when>
        <gx:coord>12.539263 51.51571 628.224</gx:coord>
        <when>2025-01-01T00:29:18.1008780Z</when>
        <gx:coord>12.535164 51.516094 626.7001</gx:coord>
        <when>2025-01-01T00:29:23.1018780Z</when>
        <gx:coord>12.531044 51.51646 629.748</gx:coord>
        <when>2025-01-01T00:29:28.1018780Z</when>
        <gx:coord>12.526989 51.516888 641.94</gx:coord>
        <when>2025-01-01T00:29:33.1008780Z</when>
        <gx:coord>12.52302 51.51736 634.32</gx:coord>
        <when>2025-01-01T00:29:38.1018780Z</when>
        <gx:coord>12.518148 51.517876 623.65204</gx:coord>
        <when>2025-01-01T00:29:43.1048780Z</when>
        <gx:coord>12.514844 51.518177 617.556</gx:coord>
        <when>2025-01-01T00:29:43.1228780Z</when>
        <gx:coord>12.514008 51.51822 617.556</gx:coord>
        <when>2025-01-01T00:29:48.1088780Z</when>
        <gx:coord>12.510681 51.518456 616.032</gx:coord>
        <when>2025-01-01T00:29:53.1008780Z</when>
        <gx:coord>12.506604 51.518753 625.1761</gx:coord>
        <when>2025-01-01T00:29:58.1018780Z</when>
        <gx:coord>12.50257 51.519077 623.65204</gx:coord>
        <when>2025-01-01T00:30:01.1238780Z</when>
        <gx:coord>12.499287 51.519333 609.93604</gx:coord>
        <when>2025-01-01T00:30:03.1208780Z</when>
        <gx:coord>12.498472 51.519398 608.412</gx:coord>
        <when>2025-01-01T00:30:08.1018780Z</when>
        <gx:coord>12.494394 51.51974 609.93604</gx:coord>
        <when>2025-01-01T00:30:13.1018780Z</when>
        <gx:coord>12.490318 51.520065 611.46</gx:coord>
        <when>2025-01-01T00:30:16.1288780Z</when>
        <gx:coord>12.487057 51.52032 606.888</gx:coord>
        <when>2025-01-01T00:30:18.1028780Z</when>
        <gx:coord>12.48624 51.52041 603.84</gx:coord>
        <when>2025-01-01T00:30:23.1018780Z</when>
        <gx:coord>12.4821205 51.520794 599.268</gx:coord>
        <when>2025-01-01T00:30:28.1018780Z</when>
        <gx:coord>12.4780655 51.52118 602.31604</gx:coord>
        <when>2025-01-01T00:30:33.1028780Z</when>
        <gx:coord>12.474074 51.52161 600.792</gx:coord>
        <when>2025-01-01T00:30:38.1018780Z</when>
        <gx:coord>12.470062 51.52206 591.648</gx:coord>
        <when>2025-01-01T00:30:43.1028780Z</when>
        <gx:coord>12.465984 51.522404 594.696</gx:coord>
        <when>2025-01-01T00:30:48.1028780Z</when>
        <gx:coord>12.461994 51.522724 597.744</gx:coord>
        <when>2025-01-01T00:30:49.1338780Z</when>
        <gx:coord>12.460427 51.522854 599.268</gx:coord>
        <when>2025-01-01T00:30:53.1028780Z</when>
        <gx:coord>12.458067 51.523067 606.888</gx:coord>
        <when>2025-01-01T00:30:58.1028780Z</when>
        <gx:coord>12.454162 51.52341 611.46</gx:coord>
        <when>2025-01-01T00:31:03.1328780Z</when>
        <gx:coord>12.450256 51.523712 617.556</gx:coord>
        <when>2025-01-01T00:31:08.1028780Z</when>
        <gx:coord>12.446373 51.524033 629.748</gx:coord>
        <when>2025-01-01T00:31:11.1318780Z</when>
        <gx:coord>12.443283 51.52431 640.4161</gx:coord>
        <when>2025-01-01T00:31:13.1028780Z</when>
        <gx:coord>12.442489 51.524376 638.8921</gx:coord>
        <when>2025-01-01T00:31:18.1028780Z</when>
        <gx:coord>12.43854 51.524807 634.32</gx:coord>
        <when>2025-01-01T00:31:23.1028780Z</when>
        <gx:coord>12.434506 51.525192 628.224</gx:coord>
        <when>2025-01-01T00:31:23.1378780Z</when>
        <gx:coord>12.433691 51.525234 628.224</gx:coord>
        <when>2025-01-01T00:31:28.1028780Z</when>
        <gx:coord>12.4304085 51.52543 628.224</gx:coord>
        <when>2025-01-01T00:31:33.1018780Z</when>
        <gx:coord>12.426224 51.52562 622.128</gx:coord>
        <when>2025-01-01T00:31:38.1028780Z</when>
        <gx:coord>12.422018 51.525814 623.65204</gx:coord>
        <when>2025-01-01T00:31:43.1028780Z</when>
        <gx:coord>12.417833 51.52601 625.1761</gx:coord>
        <when>2025-01-01T00:31:44.1228780Z</when>
        <gx:coord>12.416997 51.526028 626.7001</gx:coord>
        <when>2025-01-01T00:31:48.1028780Z</when>
        <gx:coord>12.413628 51.52618 616.032</gx:coord>
        <when>2025-01-01T00:31:53.1028780Z</when>
        <gx:coord>12.409401 51.526436 616.032</gx:coord>
        <when>2025-01-01T00:31:55.1288780Z</when>
        <gx:coord>12.406847 51.526608 616.032</gx:coord>
        <when>2025-01-01T00:31:58.1028780Z</when>
        <gx:coord>12.405152 51.526714 616.032</gx:coord>
        <when>2025-01-01T00:32:03.1158780Z</when>
        <gx:coord>12.400969 51.527016 620.604</gx:coord>
        <when>2025-01-01T00:32:08.1028780Z</when>
        <gx:coord>12.396763 51.527336 617.556</gx:coord>
        <when>2025-01-01T00:32:13.1028780Z</when>
        <gx:coord>12.392535 51.52762 616.032</gx:coord>
        <when>2025-01-01T00:32:18.1028780Z</when>
        <gx:coord>12.388372 51.527897 614.508</gx:coord>
        <when>2025-01-01T00:32:23.1028780Z</when>
        <gx:coord>12.384253 51.528133 611.46</gx:coord>
        <when>2025-01-01T00:32:25.1108780Z</when>
        <gx:coord>12.381784 51.528282 609.93604</gx:coord>
        <when>2025-01-01T00:32:27.1258780Z</when>
        <gx:coord>12.380133 51.52839 608.412</gx:coord>
        <when>2025-01-01T00:32:28.1028780Z</when>
        <gx:coord>12.380133 51.52839 608.412</gx:coord>
        <when>2025-01-01T00:32:33.1108780Z</when>
        <gx:coord>12.376013 51.528603 605.364</gx:coord>
        <when>2025-01-01T00:32:38.1208780Z</when>
        <gx:coord>12.371056 51.528904 612.984</gx:coord>
        <when>2025-01-01T00:32:43.1038780Z</when>
        <gx:coord>12.36773 51.529053 626.7001</gx:coord>
        <when>2025-01-01T00:32:48.1038780Z</when>
        <gx:coord>12.36361 51.52929 632.7961</gx:coord>
        <when>2025-01-01T00:32:53.1028780Z</when>
        <gx:coord>12.35949 51.529507 635.844</gx:coord>
        <when>2025-01-01T00:32:55.1248780Z</when>
        <gx:coord>12.357065 51.529613 640.4161</gx:coord>
        <when>2025-01-01T00:32:58.1028780Z</when>
        <gx:coord>12.355456 51.529697 640.4161</gx:coord>
        <when>2025-01-01T00:33:00.1298780Z</when>
        <gx:coord>12.353075 51.529804 641.94</gx:coord>
        <when>2025-01-01T00:33:03.1218780Z</when>
        <gx:coord>12.350693 51.529934 632.7961</gx:coord>
        <when>2025-01-01T00:33:08.1038780Z</when>
        <gx:coord>12.347538 51.530148 629.748</gx:coord>
        <when>2025-01-01T00:33:13.1038780Z</when>
        <gx:coord>12.34359 51.53047 628.224</gx:coord>
        <when>2025-01-01T00:33:18.1038780Z</when>
        <gx:coord>12.3396635 51.53075 626.7001</gx:coord>
        <when>2025-01-01T00:33:23.1038780Z</when>
        <gx:coord>12.335693 51.53103 625.1761</gx:coord>
        <when>2025-01-01T00:33:26.1228780Z</when>
        <gx:coord>12.332497 51.531265 609.93604</gx:coord>
        <when>2025-01-01T00:33:28.1038780Z</when>
        <gx:coord>12.331703 51.53133 608.412</gx:coord>
        <when>2025-01-01T00:33:33.1228780Z</when>
        <gx:coord>12.327647 51.53148 605.364</gx:coord>
        <when>2025-01-01T00:33:34.1308780Z</when>
        <gx:coord>12.326038 51.53148 605.364</gx:coord>
        <when>2025-01-01T00:33:37.1248780Z</when>
        <gx:coord>12.324408 51.531437 603.84</gx:coord>
        <when>2025-01-01T00:33:38.1038780Z</when>
        <gx:coord>12.323591 51.531395 602.31604</gx:coord>
        <when>2025-01-01T00:33:43.1038780Z</when>
        <gx:coord>12.31945 51.531136 596.22003</gx:coord>
        <when>2025-01-01T00:33:48.1038780Z</when>
        <gx:coord>12.315266 51.53088 597.744</gx:coord>
        <when>2025-01-01T00:33:53.1038780Z</when>
        <gx:coord>12.311125 51.5306 600.792</gx:coord>
        <when>2025-01-01T00:33:58.1038780Z</when>
        <gx:coord>12.307005 51.530342 600.792</gx:coord>
        <when>2025-01-01T00:34:03.1128780Z</when>
        <gx:coord>12.302864 51.530083 599.268</gx:coord>
        <when>2025-01-01T00:34:07.1288780Z</when>
        <gx:coord>12.298744 51.52985 599.268</gx:coord>
        <when>2025-01-01T00:34:08.1038780Z</when>
        <gx:coord>12.298744 51.52985 599.268</gx:coord>
        <when>2025-01-01T00:34:13.1048780Z</when>
        <gx:coord>12.294624 51.529633 599.268</gx:coord>
        <when>2025-01-01T00:34:18.1048780Z</when>
        <gx:coord>12.290504 51.52942 596.22003</gx:coord>
        <when>2025-01-01T00:34:23.1228780Z</when>
        <gx:coord>12.286341 51.529205 593.172</gx:coord>
        <when>2025-01-01T00:34:28.1048780Z</when>
        <gx:coord>12.282179 51.52901 596.22003</gx:coord>
        <when>2025-01-01T00:34:33.1218780Z</when>
        <gx:coord>12.278037 51.52884 597.744</gx:coord>
        <when>2025-01-01T00:34:38.1048780Z</when>
        <gx:coord>12.273917 51.52865 594.696</gx:coord>
        <when>2025-01-01T00:34:40.1268780Z</when>
        <gx:coord>12.271471 51.52854 596.22003</gx:coord>
        <when>2025-01-01T00:34:43.1038780Z</when>
        <gx:coord>12.26984 51.528454 599.268</gx:coord>
        <when>2025-01-01T00:34:48.1048780Z</when>
        <gx:coord>12.265849 51.528282 603.84</gx:coord>
        <when>2025-01-01T00:34:53.1048780Z</when>
        <gx:coord>12.261879 51.528088 606.888</gx:coord>
        <when>2025-01-01T00:34:58.1048780Z</when>
        <gx:coord>12.257953 51.52781 612.984</gx:coord>
        <when>2025-01-01T00:35:03.1048780Z</when>
        <gx:coord>12.254026 51.527554 612.984</gx:coord>
        <when>2025-01-01T00:35:08.1048780Z</when>
        <gx:coord>12.250099 51.527252 609.93604</gx:coord>
        <when>2025-01-01T00:35:13.1048780Z</when>
        <gx:coord>12.246151 51.52693 598.488</gx:coord>
        <when>2025-01-01T00:35:14.1258780Z</when>
        <gx:coord>12.244563 51.52676 598.488</gx:coord>
        <when>2025-01-01T00:35:18.1048780Z</when>
        <gx:coord>12.242182 51.526524 603.06</gx:coord>
        <when>2025-01-01T00:35:23.1048780Z</when>
        <gx:coord>12.23819 51.526115 607.63196</gx:coord>
        <when>2025-01-01T00:35:28.1048780Z</when>
        <gx:coord>12.23407 51.52575 615.25195</gx:coord>
        <when>2025-01-01T00:35:33.1048780Z</when>
        <gx:coord>12.22995 51.525406 619.824</gx:coord>
        <when>2025-01-01T00:35:38.1058780Z</when>
        <gx:coord>12.22583 51.52502 618.3</gx:coord>
        <when>2025-01-01T00:35:43.1098780Z</when>
        <gx:coord>12.220938 51.524548 615.25195</gx:coord>
        <when>2025-01-01T00:35:47.1158780Z</when>
        <gx:coord>12.217698 51.524227 612.204</gx:coord>
        <when>2025-01-01T00:35:48.1048780Z</when>
        <gx:coord>12.217698 51.524227 610.68</gx:coord>
        <when>2025-01-01T00:35:53.1048780Z</when>
        <gx:coord>12.213621 51.52384 607.63196</gx:coord>
        <when>2025-01-01T00:35:58.1048780Z</when>
        <gx:coord>12.209544 51.523434 607.63196</gx:coord>
        <when>2025-01-01T00:36:03.1218780Z</when>
        <gx:coord>12.205402 51.523026 604.584</gx:coord>
        <when>2025-01-01T00:36:08.1058780Z</when>
        <gx:coord>12.2012825 51.522594 612.204</gx:coord>
        <when>2025-01-01T00:36:13.1058780Z</when>
        <gx:coord>12.197142 51.522186 612.204</gx:coord>
        <when>2025-01-01T00:36:18.1058780Z</when>
        <gx:coord>12.193022 51.5218 618.3</gx:coord>
        <when>2025-01-01T00:36:20.1118780Z</when>
        <gx:coord>12.190554 51.521564 616.776</gx:coord>
        <when>2025-01-01T00:36:23.1058780Z</when>
        <gx:coord>12.188923 51.521416 615.25195</gx:coord>
        <when>2025-01-01T00:36:28.1058780Z</when>
        <gx:coord>12.184761 51.52105 613.72797</gx:coord>
        <when>2025-01-01T00:36:33.1058780Z</when>
        <gx:coord>12.180641 51.520664 615.25195</gx:coord>
        <when>2025-01-01T00:36:38.1058780Z</when>
        <gx:coord>12.176585 51.520237 618.3</gx:coord>
        <when>2025-01-01T00:36:43.1068780Z</when>
        <gx:coord>12.172551 51.519806 604.584</gx:coord>
        <when>2025-01-01T00:36:48.1058780Z</when>
        <gx:coord>12.168495 51.519333 598.488</gx:coord>
        <when>2025-01-01T00:36:53.1068780Z</when>
        <gx:coord>12.164375 51.51897 581.724</gx:coord>
        <when>2025-01-01T00:36:53.1178780Z</when>
        <gx:coord>12.163561 51.518906 581.724</gx:coord>
        <when>2025-01-01T00:36:58.1098780Z</when>
        <gx:coord>12.159483 51.518562 581.724</gx:coord>
        <when>2025-01-01T00:37:01.1078780Z</when>
        <gx:coord>12.157038 51.51839 578.67596</gx:coord>
        <when>2025-01-01T00:37:03.1088780Z</when>
        <gx:coord>12.1562 51.518326 577.152</gx:coord>
        <when>2025-01-01T00:37:08.1068780Z</when>
        <gx:coord>12.1521015 51.518024 569.532</gx:coord>
        <when>2025-01-01T00:37:13.1068780Z</when>
        <gx:coord>12.148004 51.517746 560.388</gx:coord>
        <when>2025-01-01T00:37:18.1138780Z</when>
        <gx:coord>12.143927 51.517467 555.816</gx:coord>
        <when>2025-01-01T00:37:21.1158780Z</when>
        <gx:coord>12.140644 51.51723 548.196</gx:coord>
        <when>2025-01-01T00:37:23.1088780Z</when>
        <gx:coord>12.139828 51.517166 546.672</gx:coord>
        <when>2025-01-01T00:37:26.1358780Z</when>
        <gx:coord>12.136459 51.516953 540.576</gx:coord>
        <when>2025-01-01T00:37:28.1068780Z</when>
        <gx:coord>12.135622 51.51691 536.00397</gx:coord>
        <when>2025-01-01T00:37:33.1058780Z</when>
        <gx:coord>12.131374 51.516693 523.81195</gx:coord>
        <when>2025-01-01T00:37:38.1068780Z</when>
        <gx:coord>12.127147 51.51646 520.764</gx:coord>
        <when>2025-01-01T00:37:43.1068780Z</when>
        <gx:coord>12.123005 51.5162 528.384</gx:coord>
        <when>2025-01-01T00:37:48.1068780Z</when>
        <gx:coord>12.118971 51.515923 536.00397</gx:coord>
        <when>2025-01-01T00:37:53.1078780Z</when>
        <gx:coord>12.115023 51.515602 545.148</gx:coord>
        <when>2025-01-01T00:37:58.1078780Z</when>
        <gx:coord>12.111118 51.5153 546.672</gx:coord>
        <when>2025-01-01T00:37:59.1168780Z</when>
        <gx:coord>12.1095295 51.51517 546.672</gx:coord>
        <when>2025-01-01T00:38:03.1208780Z</when>
        <gx:coord>12.10717 51.515022 551.24396</gx:coord>
        <when>2025-01-01T00:38:08.1078780Z</when>
        <gx:coord>12.103243 51.514786 554.292</gx:coord>
        <when>2025-01-01T00:38:13.1078780Z</when>
        <gx:coord>12.0993595 51.51459 557.33997</gx:coord>
        <when>2025-01-01T00:38:13.1098780Z</when>
        <gx:coord>12.0993595 51.51459 557.33997</gx:coord>
        <when>2025-01-01T00:38:18.1078780Z</when>
        <gx:coord>12.095497 51.514484 557.33997</gx:coord>
        <when>2025-01-01T00:38:23.1078780Z</when>
        <gx:coord>12.091635 51.514465 555.816</gx:coord>
        <when>2025-01-01T00:38:28.1078780Z</when>
        <gx:coord>12.087793 51.514484 554.292</gx:coord>
        <when>2025-01-01T00:38:33.1068780Z</when>
        <gx:coord>12.083952 51.51455 543.62396</gx:coord>
        <when>2025-01-01T00:38:34.1108780Z</when>
        <gx:coord>12.082407 51.514614 531.432</gx:coord>
        <when>2025-01-01T00:38:38.1078780Z</when>
        <gx:coord>12.08009 51.514698 525.336</gx:coord>
        <when>2025-01-01T00:38:43.1078780Z</when>
        <gx:coord>12.076185 51.514935 517.716</gx:coord>
        <when>2025-01-01T00:38:43.1128780Z</when>
        <gx:coord>12.075391 51.514977 516.19196</gx:coord>
        <when>2025-01-01T00:38:45.1038780Z</when>
        <gx:coord>12.074596 51.51504 514.66797</gx:coord>
        <when>2025-01-01T00:38:48.1078780Z</when>
        <gx:coord>12.072279 51.515236 516.19196</gx:coord>
        <when>2025-01-01T00:38:53.1078780Z</when>
        <gx:coord>12.068439 51.515556 517.716</gx:coord>
        <when>2025-01-01T00:38:58.1078780Z</when>
        <gx:coord>12.06464 51.5159 504</gx:coord>
        <when>2025-01-01T00:39:01.1078780Z</when>
        <gx:coord>12.06155 51.516224 485.71198</gx:coord>
        <when>2025-01-01T00:39:03.1248780Z</when>
        <gx:coord>12.060005 51.516396 478.09198</gx:coord>
        <when>2025-01-01T00:39:08.1088780Z</when>
        <gx:coord>12.057023 51.516804 470.472</gx:coord>
        <when>2025-01-01T00:39:08.1088780Z</when>
        <gx:coord>12.057023 51.516804 470.472</gx:coord>
        <when>2025-01-01T00:39:09.1148780Z</when>
        <gx:coord>12.055628 51.5171 470.472</gx:coord>
        <when>2025-01-01T00:39:13.1088780Z</when>
        <gx:coord>12.053698 51.51768 455.23203</gx:coord>
        <when>2025-01-01T00:39:13.1088780Z</when>
        <gx:coord>12.053698 51.51768 455.23203</gx:coord>
        <when>2025-01-01T00:39:13.1098780Z</when>
        <gx:coord>12.053097 51.517918 452.18402</gx:coord>
        <when>2025-01-01T00:39:14.0988780Z</when>
        <gx:coord>12.053097 51.517918 452.18402</gx:coord>
        <when>2025-01-01T00:39:16.1028780Z</when>
        <gx:coord>12.051981 51.51841 446.088</gx:coord>
        <when>2025-01-01T00:39:18.1288780Z</when>
        <gx:coord>12.050972 51.519012 438.46802</gx:coord>
        <when>2025-01-01T00:39:22.1168780Z</when>
        <gx:coord>12.049234 51.52028 424.752</gx:coord>
        <when>2025-01-01T00:39:22.1168780Z</when>
        <gx:coord>12.048847 51.520622 421.70398</gx:coord>
        <when>2025-01-01T00:39:23.1258780Z</when>
        <gx:coord>12.048504 51.520943 420.18002</gx:coord>
        <when>2025-01-01T00:39:25.1038780Z</when>
        <gx:coord>12.0481825 51.521286 418.656</gx:coord>
        <when>2025-01-01T00:39:26.1178780Z</when>
        <gx:coord>12.047882 51.521652 417.13202</gx:coord>
        <when>2025-01-01T00:39:28.1078780Z</when>
        <gx:coord>12.04741 51.52234 409.51202</gx:coord>
        <when>2025-01-01T00:39:32.1138780Z</when>
        <gx:coord>12.046701 51.52382 391.224</gx:coord>
        <when>2025-01-01T00:39:32.1138780Z</when>
        <gx:coord>12.046552 51.524185 388.17606</gx:coord>
        <when>2025-01-01T00:39:33.1078780Z</when>
        <gx:coord>12.046552 51.524185 388.17606</gx:coord>
        <when>2025-01-01T00:39:38.1088780Z</when>
        <gx:coord>12.045929 51.526028 379.03198</gx:coord>
        <when>2025-01-01T00:39:43.1088780Z</when>
        <gx:coord>12.04535 51.527874 368.364</gx:coord>
        <when>2025-01-01T00:39:46.1088780Z</when>
        <gx:coord>12.044921 51.529377 357.69598</gx:coord>
        <when>2025-01-01T00:39:48.1088780Z</when>
        <gx:coord>12.044835 51.529762 357.69598</gx:coord>
        <when>2025-01-01T00:39:53.1258780Z</when>
        <gx:coord>12.043762 51.531975 357.69598</gx:coord>
        <when>2025-01-01T00:39:54.1138780Z</when>
        <gx:coord>12.043762 51.531975 357.69598</gx:coord>
        <when>2025-01-01T00:39:54.1178780Z</when>
        <gx:coord>12.043484 51.532337 357.69598</gx:coord>
        <when>2025-01-01T00:39:58.1088780Z</when>
        <gx:coord>12.042475 51.533325 356.17203</gx:coord>
        <when>2025-01-01T00:39:58.1098780Z</when>
        <gx:coord>12.042475 51.533325 356.17203</gx:coord>
        <when>2025-01-01T00:40:03.1238780Z</when>
        <gx:coord>12.040308 51.534763 353.12402</gx:coord>
        <when>2025-01-01T00:40:05.1108780Z</when>
        <gx:coord>12.039364 51.535297 354.648</gx:coord>
        <when>2025-01-01T00:40:08.1408780Z</when>
        <gx:coord>12.037346 51.53622 360.74402</gx:coord>
        <when>2025-01-01T00:40:12.1168780Z</when>
        <gx:coord>12.035759 51.5368 362.268</gx:coord>
        <when>2025-01-01T00:40:13.1088780Z</when>
        <gx:coord>12.035222 51.536995 362.268</gx:coord>
        <when>2025-01-01T00:40:18.1088780Z</when>
        <gx:coord>12.032475 51.53781 359.21997</gx:coord>
        <when>2025-01-01T00:40:23.1088780Z</when>
        <gx:coord>12.029579 51.53858 357.69598</gx:coord>
        <when>2025-01-01T00:40:28.1078780Z</when>
        <gx:coord>12.026725 51.539333 368.364</gx:coord>
        <when>2025-01-01T00:40:33.1078780Z</when>
        <gx:coord>12.0233555 51.54019 368.364</gx:coord>
        <when>2025-01-01T00:40:38.1088780Z</when>
        <gx:coord>12.021082 51.540813 363.79202</gx:coord>
        <when>2025-01-01T00:40:38.1148780Z</when>
        <gx:coord>12.020523 51.540943 363.79202</gx:coord>
        <when>2025-01-01T00:40:43.1088780Z</when>
        <gx:coord>12.018164 51.541477 356.17203</gx:coord>
        <when>2025-01-01T00:40:45.1038780Z</when>
        <gx:coord>12.016983 51.541737 357.69598</gx:coord>
        <when>2025-01-01T00:40:48.1088780Z</when>
        <gx:coord>12.015266 51.542057 354.648</gx:coord>
        <when>2025-01-01T00:40:53.1088780Z</when>
        <gx:coord>12.012585 51.542618 350.07602</gx:coord>
        <when>2025-01-01T00:40:53.1108780Z</when>
        <gx:coord>12.012585 51.542618 350.07602</gx:coord>
        <when>2025-01-01T00:40:58.1218780Z</when>
        <gx:coord>12.009516 51.543304 347.028</gx:coord>
        <when>2025-01-01T00:41:03.1248780Z</when>
        <gx:coord>12.007563 51.54373 343.97998</gx:coord>
        <when>2025-01-01T00:41:07.0928780Z</when>
        <gx:coord>12.005632 51.544247 339.40802</gx:coord>
        <when>2025-01-01T00:41:08.1098780Z</when>
        <gx:coord>12.005203 51.54444 339.40802</gx:coord>
        <when>2025-01-01T00:41:10.1108780Z</when>
        <gx:coord>12.004409 51.544827 339.40802</gx:coord>
        <when>2025-01-01T00:41:12.1098780Z</when>
        <gx:coord>12.003765 51.5453 339.40802</gx:coord>
        <when>2025-01-01T00:41:12.1108780Z</when>
        <gx:coord>12.003765 51.5453 339.40802</gx:coord>
        <when>2025-01-01T00:41:13.1088780Z</when>
        <gx:coord>12.003508 51.545555 339.40802</gx:coord>
        <when>2025-01-01T00:41:15.1138780Z</when>
        <gx:coord>12.003121 51.546093 339.40802</gx:coord>
        <when>2025-01-01T00:41:18.1098780Z</when>
        <gx:coord>12.002778 51.54693 337.88397</gx:coord>
        <when>2025-01-01T00:41:18.1158780Z</when>
        <gx:coord>12.002778 51.54693 337.88397</gx:coord>
        <when>2025-01-01T00:41:20.1108780Z</when>
        <gx:coord>12.002735 51.547485 337.88397</gx:coord>
        <when>2025-01-01T00:41:23.1098780Z</when>
        <gx:coord>12.002886 51.548344 333.312</gx:coord>
        <when>2025-01-01T00:41:28.1098780Z</when>
        <gx:coord>12.003336 51.549805 331.78806</gx:coord>
        <when>2025-01-01T00:41:28.1118780Z</when>
        <gx:coord>12.003336 51.549805 331.78806</gx:coord>
        <when>2025-01-01T00:41:33.1088780Z</when>
        <gx:coord>12.00398 51.55126 333.312</gx:coord>
        <when>2025-01-01T00:41:38.1098780Z</when>
        <gx:coord>12.004709 51.552723 331.78806</gx:coord>
        <when>2025-01-01T00:41:43.1088780Z</when>
        <gx:coord>12.005375 51.55414 333.312</gx:coord>
        <when>2025-01-01T00:41:45.1158780Z</when>
        <gx:coord>12.00576 51.55493 331.78806</gx:coord>
        <when>2025-01-01T00:41:48.1098780Z</when>
        <gx:coord>12.00604 51.555428 330.26398</gx:coord>
        <when>2025-01-01T00:41:50.1158780Z</when>
        <gx:coord>12.006512 51.556133 324.16797</gx:coord>
        <when>2025-01-01T00:41:53.1098780Z</when>
        <gx:coord>12.006812 51.556606 319.596</gx:coord>
        <when>2025-01-01T00:41:57.1178780Z</when>
        <gx:coord>12.007477 51.55755 313.5</gx:coord>
        <when>2025-01-01T00:41:57.1188780Z</when>
        <gx:coord>12.007477 51.55755 313.5</gx:coord>
        <when>2025-01-01T00:41:58.1098780Z</when>
        <gx:coord>12.007648 51.557785 311.976</gx:coord>
        <when>2025-01-01T00:42:03.1288780Z</when>
        <gx:coord>12.008507 51.55892 302.83197</gx:coord>
        <when>2025-01-01T00:42:06.1108780Z</when>
        <gx:coord>12.009258 51.559845 292.164</gx:coord>
        <when>2025-01-01T00:42:08.1098780Z</when>
        <gx:coord>12.0096445 51.560295 287.59198</gx:coord>
        <when>2025-01-01T00:42:11.1208780Z</when>
        <gx:coord>12.010096 51.560726 286.068</gx:coord>
        <when>2025-01-01T00:42:13.1168780Z</when>
        <gx:coord>12.01091 51.561306 281.49597</gx:coord>
        <when>2025-01-01T00:42:14.1158780Z</when>
        <gx:coord>12.01091 51.561306 281.49597</gx:coord>
        <when>2025-01-01T00:42:17.1118780Z</when>
        <gx:coord>12.011984 51.561733 276.924</gx:coord>
        <when>2025-01-01T00:42:18.1098780Z</when>
        <gx:coord>12.012369 51.561844 275.40002</gx:coord>
        <when>2025-01-01T00:42:21.1158780Z</when>
        <gx:coord>12.013636 51.5621 273.87598</gx:coord>
        <when>2025-01-01T00:42:23.1328780Z</when>
        <gx:coord>12.014988 51.562187 272.352</gx:coord>
        <when>2025-01-01T00:42:25.1048780Z</when>
        <gx:coord>12.015459 51.562187 270.828</gx:coord>
        <when>2025-01-01T00:42:27.1188780Z</when>
        <gx:coord>12.016403 51.562164 269.30402</gx:coord>
        <when>2025-01-01T00:42:28.1098780Z</when>
        <gx:coord>12.016876 51.56214 269.30402</gx:coord>
        <when>2025-01-01T00:42:31.1168780Z</when>
        <gx:coord>12.018335 51.561993 264.732</gx:coord>
        <when>2025-01-01T00:42:33.1098780Z</when>
        <gx:coord>12.019258 51.56182 266.25598</gx:coord>
        <when>2025-01-01T00:42:35.1158780Z</when>
        <gx:coord>12.020545 51.56152 260.15997</gx:coord>
        <when>2025-01-01T00:42:38.1098780Z</when>
        <gx:coord>12.02136 51.561325 258.636</gx:coord>
        <when>2025-01-01T00:42:43.1098780Z</when>
        <gx:coord>12.023377 51.56092 249.49199</gx:coord>
        <when>2025-01-01T00:42:46.1158780Z</when>
        <gx:coord>12.024557 51.56062 243.39601</gx:coord>
        <when>2025-01-01T00:42:48.1318780Z</when>
        <gx:coord>12.025695 51.560276 237.30002</gx:coord>
        <when>2025-01-01T00:42:52.1148780Z</when>
        <gx:coord>12.027283 51.559784 226.632</gx:coord>
        <when>2025-01-01T00:42:53.1098780Z</when>
        <gx:coord>12.027283 51.559784 226.632</gx:coord>
        <when>2025-01-01T00:42:58.1328780Z</when>
        <gx:coord>12.029751 51.55914 212.91602</gx:coord>
        <when>2025-01-01T00:43:03.1198780Z</when>
        <gx:coord>12.0314455 51.55873 203.77202</gx:coord>
        <when>2025-01-01T00:43:03.1228780Z</when>
        <gx:coord>12.031875 51.558624 203.77202</gx:coord>
        <when>2025-01-01T00:43:07.1198780Z</when>
        <gx:coord>12.033569 51.55813 194.628</gx:coord>
        <when>2025-01-01T00:43:08.1108780Z</when>
        <gx:coord>12.0339775 51.558002 193.104</gx:coord>
        <when>2025-01-01T00:43:13.1108780Z</when>
        <gx:coord>12.035651 51.55753 185.484</gx:coord>
        <when>2025-01-01T00:43:18.1098780Z</when>
        <gx:coord>12.037733 51.55695 174.816</gx:coord>
        <when>2025-01-01T00:43:21.1128780Z</when>
        <gx:coord>12.039364 51.556458 162.624</gx:coord>
        <when>2025-01-01T00:43:23.1138780Z</when>
        <gx:coord>12.0402 51.55622 156.52802</gx:coord>
        <when>2025-01-01T00:43:28.1108780Z</when>
        <gx:coord>12.041917 51.555748 147.384</gx:coord>
        <when>2025-01-01T00:43:33.1098780Z</when>
        <gx:coord>12.044492 51.55504 132.144</gx:coord>
        <when>2025-01-01T00:43:34.1138780Z</when>
        <gx:coord>12.044899 51.55493 130.62</gx:coord>
        <when>2025-01-01T00:43:38.1208780Z</when>
        <gx:coord>12.046509 51.55446 121.476</gx:coord>
        <when>2025-01-01T00:43:42.1138780Z</when>
        <gx:coord>12.047625 51.554115 115.38001</gx:coord>
        <when>2025-01-01T00:43:43.1108780Z</when>
        <gx:coord>12.047989 51.55401 115.38001</gx:coord>
        <when>2025-01-01T00:43:48.1108780Z</when>
        <gx:coord>12.049642 51.55354 113.856</gx:coord>
        <when>2025-01-01T00:43:49.1138780Z</when>
        <gx:coord>12.049942 51.55345 113.856</gx:coord>
        <when>2025-01-01T00:43:53.1108780Z</when>
        <gx:coord>12.051079 51.55315 112.332</gx:coord>
        <when>2025-01-01T00:43:58.1098780Z</when>
        <gx:coord>12.052366 51.552807 110.808</gx:coord>
        <when>2025-01-01T00:44:01.1118780Z</when>
        <gx:coord>12.053053 51.552616 110.808</gx:coord>
        <when>2025-01-01T00:44:03.1218780Z</when>
        <gx:coord>12.053504 51.552486 110.808</gx:coord>
        <when>2025-01-01T00:44:08.1108780Z</when>
        <gx:coord>12.054512 51.55223 110.808</gx:coord>
        <when>2025-01-01T00:44:10.1138780Z</when>
        <gx:coord>12.054834 51.552143 110.808</gx:coord>
        <when>2025-01-01T00:44:13.1108780Z</when>
        <gx:coord>12.0552635 51.552013 110.808</gx:coord>
        <when>2025-01-01T00:44:16.1078780Z</when>
        <gx:coord>12.055586 51.55193 110.808</gx:coord>
        <when>2025-01-01T00:44:18.1108780Z</when>
        <gx:coord>12.055714 51.551888 110.808</gx:coord>
        <when>2025-01-01T00:44:18.1168780Z</when>
        <gx:coord>12.055714 51.551888 110.808</gx:coord>
        <when>2025-01-01T00:44:20.0928780Z</when>
        <gx:coord>12.055821 51.551823 110.808</gx:coord>
        <when>2025-01-01T00:44:21.0928780Z</when>
        <gx:coord>12.055843 51.551777 110.808</gx:coord>
        <when>2025-01-01T00:44:22.1178780Z</when>
        <gx:coord>12.055864 51.551735 110.808</gx:coord>
        <when>2025-01-01T00:44:23.1118780Z</when>
        <gx:coord>12.055843 51.55163 109.284004</gx:coord>
        <when>2025-01-01T00:44:24.1188780Z</when>
        <gx:coord>12.055843 51.55163 109.284004</gx:coord>
        <when>2025-01-01T00:44:28.1108780Z</when>
        <gx:coord>12.055736 51.551456 109.284004</gx:coord>
        <when>2025-01-01T00:44:31.1088780Z</when>
        <gx:coord>12.055693 51.55139 109.284004</gx:coord>
        <when>2025-01-01T00:44:32.1148780Z</when>
        <gx:coord>12.055672 51.55139 109.284004</gx:coord>
        <when>2025-01-01T00:44:33.1098780Z</when>
        <gx:coord>12.055672 51.55139 109.284004</gx:coord>
        <when>2025-01-01T00:44:38.1108780Z</when>
        <gx:coord>12.055672 51.55139 109.284004</gx:coord>
        <when>2025-01-01T00:44:43.1108780Z</when>
        <gx:coord>12.055672 51.55139 110.808</gx:coord>
        <when>2025-01-01T00:44:48.1108780Z</when>
        <gx:coord>12.055672 51.55139 110.808</gx:coord>
        <when>2025-01-01T00:44:53.1108780Z</when>
        <gx:coord>12.055628 51.551327 110.808</gx:coord>
        <when>2025-01-01T00:44:58.1108780Z</when>
        <gx:coord>12.0555 51.551155 109.284004</gx:coord>
        <when>2025-01-01T00:45:02.1158780Z</when>
        <gx:coord>12.055392 51.551006 109.284004</gx:coord>
        <when>2025-01-01T00:45:03.1148780Z</when>
        <gx:coord>12.05537 51.550964 109.284004</gx:coord>
        <when>2025-01-01T00:45:05.1158780Z</when>
        <gx:coord>12.055328 51.55092 109.284004</gx:coord>
        <when>2025-01-01T00:45:07.1178780Z</when>
        <gx:coord>12.055349 51.550858 109.284004</gx:coord>
        <when>2025-01-01T00:45:08.1108780Z</when>
        <gx:coord>12.055349 51.55081 109.284004</gx:coord>
        <when>2025-01-01T00:45:09.1268780Z</when>
        <gx:coord>12.05537 51.550793 109.284004</gx:coord>
        <when>2025-01-01T00:45:10.0998780Z</when>
        <gx:coord>12.055456 51.550728 109.284004</gx:coord>
        <when>2025-01-01T00:45:11.1168780Z</when>
        <gx:coord>12.055456 51.550728 109.284004</gx:coord>
        <when>2025-01-01T00:45:13.1108780Z</when>
        <gx:coord>12.055586 51.550682 109.284004</gx:coord>
        <when>2025-01-01T00:45:15.1158780Z</when>
        <gx:coord>12.055736 51.55064 109.284004</gx:coord>
        <when>2025-01-01T00:45:18.1298780Z</when>
        <gx:coord>12.056122 51.550533 109.284004</gx:coord>
        <when>2025-01-01T00:45:23.1218780Z</when>
        <gx:coord>12.056616 51.550404 109.284004</gx:coord>
        <when>2025-01-01T00:45:28.1108780Z</when>
        <gx:coord>12.057045 51.550278 109.284004</gx:coord>
        <when>2025-01-01T00:45:33.1248780Z</when>
        <gx:coord>12.057624 51.550125 109.284004</gx:coord>
        <when>2025-01-01T00:45:38.1108780Z</when>
        <gx:coord>12.057924 51.55004 109.284004</gx:coord>
        <when>2025-01-01T00:45:41.0928780Z</when>
        <gx:coord>12.058075 51.549976 109.284004</gx:coord>
        <when>2025-01-01T00:45:43.0938780Z</when>
        <gx:coord>12.058139 51.54991 109.284004</gx:coord>
        <when>2025-01-01T00:45:43.1108780Z</when>
        <gx:coord>12.058161 51.54987 109.284004</gx:coord>
        <when>2025-01-01T00:45:45.1168780Z</when>
        <gx:coord>12.058161 51.549828 109.284004</gx:coord>
        <when>2025-01-01T00:45:48.1118780Z</when>
        <gx:coord>12.058117 51.549717 109.284004</gx:coord>
        <when>2025-01-01T00:45:53.1118780Z</when>
        <gx:coord>12.05801 51.549484 109.284004</gx:coord>
        <when>2025-01-01T00:45:58.1288780Z</when>
        <gx:coord>12.057903 51.549225 109.284004</gx:coord>
        <when>2025-01-01T00:46:01.1068780Z</when>
        <gx:coord>12.057881 51.54916 109.284004</gx:coord>
        <when>2025-01-01T00:46:02.0938780Z</when>
        <gx:coord>12.057903 51.54914 109.284004</gx:coord>
        <when>2025-01-01T00:46:03.1228780Z</when>
        <gx:coord>12.057924 51.549118 109.284004</gx:coord>
        <when>2025-01-01T00:46:04.0928780Z</when>
        <gx:coord>12.057945 51.549095 109.284004</gx:coord>
        <when>2025-01-01T00:46:05.0948780Z</when>
        <gx:coord>12.057989 51.549076 109.284004</gx:coord>
        <when>2025-01-01T00:46:07.1048780Z</when>
        <gx:coord>12.058117 51.549053 109.284004</gx:coord>
        <when>2025-01-01T00:46:08.1118780Z</when>
        <gx:coord>12.058182 51.54903 109.284004</gx:coord>
        <when>2025-01-01T00:46:13.1108780Z</when>
        <gx:coord>12.058504 51.54899 109.284004</gx:coord>
        <when>2025-01-01T00:46:18.1118780Z</when>
        <gx:coord>12.058911 51.548923 110.808</gx:coord>
        <when>2025-01-01T00:46:23.1108780Z</when>
        <gx:coord>12.059319 51.54886 110.808</gx:coord>
        <when>2025-01-01T00:46:28.1268780Z</when>
        <gx:coord>12.059834 51.548775 110.808</gx:coord>
        <when>2025-01-01T00:46:33.1108780Z</when>
        <gx:coord>12.060199 51.548733 110.808</gx:coord>
        <when>2025-01-01T00:46:38.1118780Z</when>
        <gx:coord>12.060692 51.548645 110.808</gx:coord>
        <when>2025-01-01T00:46:43.1118780Z</when>
        <gx:coord>12.061143 51.54858 110.808</gx:coord>
        <when>2025-01-01T00:46:46.1258780Z</when>
        <gx:coord>12.0613365 51.54854 110.808</gx:coord>
        <when>2025-01-01T00:46:47.0978780Z</when>
        <gx:coord>12.0613785 51.54854 110.808</gx:coord>
        <when>2025-01-01T00:46:48.0948780Z</when>
        <gx:coord>12.0614 51.548515 110.808</gx:coord>
        <when>2025-01-01T00:46:48.1108780Z</when>
        <gx:coord>12.061422 51.548496 110.808</gx:coord>
        <when>2025-01-01T00:46:49.0918780Z</when>
        <gx:coord>12.061422 51.548496 110.808</gx:coord>
        <when>2025-01-01T00:46:51.1118780Z</when>
        <gx:coord>12.061443 51.548454 110.808</gx:coord>
        <when>2025-01-01T00:46:53.1118780Z</when>
        <gx:coord>12.061443 51.54841 110.808</gx:coord>
        <when>2025-01-01T00:46:53.1238780Z</when>
        <gx:coord>12.061443 51.54841 110.808</gx:coord>
        <when>2025-01-01T00:46:58.1258780Z</when>
        <gx:coord>12.0613785 51.548195 110.808</gx:coord>
        <when>2025-01-01T00:47:03.1108780Z</when>
        <gx:coord>12.0613365 51.54798 110.808</gx:coord>
        <when>2025-01-01T00:47:05.1008780Z</when>
        <gx:coord>12.0613365 51.54796 110.808</gx:coord>
        <when>2025-01-01T00:47:06.1008780Z</when>
        <gx:coord>12.061315 51.547935 110.808</gx:coord>
        <when>2025-01-01T00:47:07.0958780Z</when>
        <gx:coord>12.061293 51.547916 110.808</gx:coord>
        <when>2025-01-01T00:47:08.0938780Z</when>
        <gx:coord>12.061272 51.547894 110.808</gx:coord>
        <when>2025-01-01T00:47:08.1128780Z</when>
        <gx:coord>12.061251 51.547894 110.808</gx:coord>
        <when>2025-01-01T00:47:09.1208780Z</when>
        <gx:coord>12.061251 51.547894 110.808</gx:coord>
        <when>2025-01-01T00:47:11.0918780Z</when>
        <gx:coord>12.061207 51.547894 110.808</gx:coord>
        <when>2025-01-01T00:47:13.1118780Z</when>
        <gx:coord>12.061121 51.547894 110.808</gx:coord>
        <when>2025-01-01T00:47:14.1098780Z</when>
        <gx:coord>12.061079 51.547894 110.808</gx:coord>
        <when>2025-01-01T00:47:18.0908780Z</when>
        <gx:coord>12.060949 51.547935 110.808</gx:coord>
        <when>2025-01-01T00:47:18.1108780Z</when>
        <gx:coord>12.060949 51.547935 110.808</gx:coord>
        <when>2025-01-01T00:47:23.1198780Z</when>
        <gx:coord>12.0608635 51.547935 110.808</gx:coord>
        <when>2025-01-01T00:47:28.1118780Z</when>
        <gx:coord>12.0608 51.54796 110.808</gx:coord>
        <when>2025-01-01T00:47:33.1138780Z</when>
        <gx:coord>12.060671 51.54798 110.808</gx:coord>
        <when>2025-01-01T00:47:38.1188780Z</when>
        <gx:coord>12.060478 51.548 110.808</gx:coord>
        <when>2025-01-01T00:47:43.1138780Z</when>
        <gx:coord>12.0603485 51.548023 110.808</gx:coord>
        <when>2025-01-01T00:47:48.1108780Z</when>
        <gx:coord>12.060307 51.548023 110.808</gx:coord>
        <when>2025-01-01T00:47:53.1118780Z</when>
        <gx:coord>12.060307 51.548023 110.808</gx:coord>
        <when>2025-01-01T00:47:58.1118780Z</when>
        <gx:coord>12.060307 51.548046 110.808</gx:coord>
        <when>2025-01-01T00:48:03.1118780Z</when>
        <gx:coord>12.060285 51.548046 110.808</gx:coord>
        <when>2025-01-01T00:48:06.0328780Z</when>
        <gx:coord>12.060285 51.548046 110.808</gx:coord>
        <coordinates />
      </gx:Track>
    </Placemark>
    <Placemark>
      <name>Takeoff: 2025-01-01</name>
      <styleUrl>#downArrowIcon</styleUrl>
      <Point>
        <altitudeMode>relativeToGround</altitudeMode>
        <coordinates>13.352466,51.294888,20</coordinates>
      </Point>
    </Placemark>
    <Placemark>
      <name>Landing: 2025-01-01</name>
      <styleUrl>#downArrowIcon</styleUrl>
      <Point>
        <altitudeMode>relativeToGround</altitudeMode>
        <coordinates>12.055672,51.55139,20</coordinates>
      </Point>
    </Placemark>
    <Placemark>
      <name>Log Stop: 2025-01-01</name>
      <styleUrl>#downArrowIcon</styleUrl>
      <Point>
        <altitudeMode>relativeToGround</altitudeMode>
        <coordinates>12.060285,51.548046,20</coordinates>
      </Point>
    </Placemark>
  </Document>
</kml>
