<?xml version="1.0" encoding="utf-8"?>
<kml xmlns:gx="http://www.google.com/kml/ext/2.2" creator="kml-heatmap" xmlns="http://www.opengis.net/kml/2.2">
  <Document>
    <name>SkyDemon Track Log</name>
    <Style id="skydemonLogStyle">
      <LineStyle>
        <color>7f00ffff</color>
        <width>4</width>
      </LineStyle>
      <PolyStyle>
        <color>7fffa400</color>
      </PolyStyle>
    </Style>
    <Style id="downArrowIcon">
      <IconStyle>
        <href>http://maps.google.com/mapfiles/kml/pal4/icon28.png</href>
      </IconStyle>
    </Style>
    <Placemark>
      <name>Log Start: 2025-01-01</name>
      <styleUrl>#downArrowIcon</styleUrl>
      <Point>
        <altitudeMode>relativeToGround</altitudeMode>
        <coordinates>12.057724,51.548096,20</coordinates>
      </Point>
    </Placemark>
    <Placemark>
      <name>EDAQ Halle-Oppin - EDAQ Halle-Oppin</name>
      <styleUrl>#skydemonLogStyle</styleUrl>
      <gx:Track>
        <extrude>1</extrude>
        <altitudeMode>absolute</altitudeMode>
        <when>2025-01-01T00:00:00.5196670Z</when>
        <gx:coord>12.057724 51.548096 108.48333</gx:coord>
        <when>2025-01-01T00:00:01.8546670Z</when>
        <gx:coord>12.057724 51.548096 108.48333</gx:coord>
        <when>2025-01-01T00:00:01.8836670Z</when>
        <gx:coord>12.057702 51.548103 112.73276</gx:coord>
        <when>2025-01-01T00:00:05.5206670Z</when>
        <gx:coord>12.057746 51.54811 107.552444</gx:coord>
        <when>2025-01-01T00:00:10.5206670Z</when>
        <gx:coord>12.058162 51.548347 107.32519</gx:coord>
        <when>2025-01-01T00:00:15.5206670Z</when>
        <gx:coord>12.058174 51.548355 107.40483</gx:coord>
        <when>2025-01-01T00:00:20.5206670Z</when>
        <gx:coord>12.058172 51.548363 107.35398</gx:coord>
        <when>2025-01-01T00:00:25.5206670Z</when>
        <gx:coord>12.058176 51.548363 107.2836</gx:coord>
        <when>2025-01-01T00:00:30.5206670Z</when>
        <gx:coord>12.058176 51.548363 107.240425</gx:coord>
        <when>2025-01-01T00:00:35.5206670Z</when>
        <gx:coord>12.05816 51.548347 107.267525</gx:coord>
        <when>2025-01-01T00:00:40.5216670Z</when>
        <gx:coord>12.05815 51.548347 107.08422</gx:coord>
        <when>2025-01-01T00:00:45.5216670Z</when>
        <gx:coord>12.058154 51.548355 107.0722</gx:coord>
        <when>2025-01-01T00:00:50.5216670Z</when>
        <gx:coord>12.05816 51.548355 107.035034</gx:coord>
        <when>2025-01-01T00:00:55.5216670Z</when>
        <gx:coord>12.058161 51.54835 106.97831</gx:coord>
        <when>2025-01-01T00:01:00.5216670Z</when>
        <gx:coord>12.058153 51.54835 106.97181</gx:coord>
        <when>2025-01-01T00:01:05.5216670Z</when>
        <gx:coord>12.058165 51.54835 106.95816</gx:coord>
        <when>2025-01-01T00:01:10.5216670Z</when>
        <gx:coord>12.058163 51.548347 106.93884</gx:coord>
        <when>2025-01-01T00:01:15.5216670Z</when>
        <gx:coord>12.058157 51.54835 106.87889</gx:coord>
        <when>2025-01-01T00:01:20.5206670Z</when>
        <gx:coord>12.058166 51.548355 106.88737</gx:coord>
        <when>2025-01-01T00:01:25.5206670Z</when>
        <gx:coord>12.058167 51.548347 106.89273</gx:coord>
        <when>2025-01-01T00:01:30.5206670Z</when>
        <gx:coord>12.058162 51.548344 107.00692</gx:coord>
        <when>2025-01-01T00:01:35.5206670Z</when>
        <gx:coord>12.058171 51.54834 107.217186</gx:coord>
        <when>2025-01-01T00:01:40.5206670Z</when>
        <gx:coord>12.058169 51.548344 107.293724</gx:coord>
        <when>2025-01-01T00:01:45.5206670Z</when>
        <gx:coord>12.058167 51.548347 107.31505</gx:coord>
        <when>2025-01-01T00:01:50.0996670Z</when>
        <gx:coord>12.058118 51.548363 107.20223</gx:coord>
        <when>2025-01-01T00:01:50.5206670Z</when>
        <gx:coord>12.058093 51.548367 107.198494</gx:coord>
        <when>2025-01-01T00:01:53.0976670Z</when>
        <gx:coord>12.058054 51.54837 107.20436</gx:coord>
        <when>2025-01-01T00:01:54.0986670Z</when>
        <gx:coord>12.058037 51.548367 107.3379</gx:coord>
        <when>2025-01-01T00:01:54.1206670Z</when>
        <gx:coord>12.0580435 51.54837 107.283844</gx:coord>
        <when>2025-01-01T00:01:54.9926670Z</when>
        <gx:coord>12.0580435 51.54837 107.283844</gx:coord>
        <when>2025-01-01T00:01:55.5206670Z</when>
        <gx:coord>12.058036 51.54837 107.27877</gx:coord>
        <when>2025-01-01T00:01:55.6926670Z</when>
        <gx:coord>12.058036 51.54837 107.27877</gx:coord>
        <when>2025-01-01T00:01:56.0326670Z</when>
        <gx:coord>12.058036 51.54837 107.27877</gx:coord>
        <when>2025-01-01T00:01:56.6526670Z</when>
        <gx:coord>12.058025 51.54837 107.280106</gx:coord>
        <when>2025-01-01T00:01:57.1326670Z</when>
        <gx:coord>12.058013 51.54838 107.35215</gx:coord>
        <when>2025-01-01T00:01:57.7136670Z</when>
        <gx:coord>12.058013 51.54838 107.35215</gx:coord>
        <when>2025-01-01T00:01:58.0956670Z</when>
        <gx:coord>12.058013 51.54838 107.35215</gx:coord>
        <when>2025-01-01T00:01:59.0976670Z</when>
        <gx:coord>12.058014 51.548397 107.199646</gx:coord>
        <when>2025-01-01T00:02:00.0996670Z</when>
        <gx:coord>12.05802 51.54842 107.2564</gx:coord>
        <when>2025-01-01T00:02:00.5206670Z</when>
        <gx:coord>12.058029 51.548447 107.14325</gx:coord>
        <when>2025-01-01T00:02:01.0966670Z</when>
        <gx:coord>12.058029 51.548447 107.14325</gx:coord>
        <when>2025-01-01T00:02:02.0946670Z</when>
        <gx:coord>12.058042 51.54847 107.243546</gx:coord>
        <when>2025-01-01T00:02:05.5206670Z</when>
        <gx:coord>12.058099 51.548553 107.26601</gx:coord>
        <when>2025-01-01T00:02:10.5206670Z</when>
        <gx:coord>12.058167 51.548717 107.45184</gx:coord>
        <when>2025-01-01T00:02:15.5206670Z</when>
        <gx:coord>12.058249 51.5489 107.54885</gx:coord>
        <when>2025-01-01T00:02:18.1006670Z</when>
        <gx:coord>12.058271 51.54896 107.585976</gx:coord>
        <when>2025-01-01T00:02:19.0886670Z</when>
        <gx:coord>12.058263 51.54899 107.63958</gx:coord>
        <when>2025-01-01T00:02:20.1206670Z</when>
        <gx:coord>12.058241 51.54901 107.5704</gx:coord>
        <when>2025-01-01T00:02:20.5206670Z</when>
        <gx:coord>12.058205 51.54903 107.681</gx:coord>
        <when>2025-01-01T00:02:21.0996670Z</when>
        <gx:coord>12.058205 51.54903 107.681</gx:coord>
        <when>2025-01-01T00:02:23.0926670Z</when>
        <gx:coord>12.058115 51.549053 107.387</gx:coord>
        <when>2025-01-01T00:02:25.5206670Z</when>
        <gx:coord>12.057973 51.549084 107.39807</gx:coord>
        <when>2025-01-01T00:02:26.0976670Z</when>
        <gx:coord>12.057973 51.549084 107.39807</gx:coord>
        <when>2025-01-01T00:02:27.0956670Z</when>
        <gx:coord>12.057933 51.549103 107.362495</gx:coord>
        <when>2025-01-01T00:02:28.0946670Z</when>
        <gx:coord>12.0578985 51.549126 107.46313</gx:coord>
        <when>2025-01-01T00:02:29.0976670Z</when>
        <gx:coord>12.057877 51.549152 107.44868</gx:coord>
        <when>2025-01-01T00:02:30.0966670Z</when>
        <gx:coord>12.057863 51.549183 107.599045</gx:coord>
        <when>2025-01-01T00:02:30.5206670Z</when>
        <gx:coord>12.057862 51.549213 107.566925</gx:coord>
        <when>2025-01-01T00:02:31.1016670Z</when>
        <gx:coord>12.057862 51.549213 107.566925</gx:coord>
        <when>2025-01-01T00:02:33.0996670Z</when>
        <gx:coord>12.057886 51.54928 107.522194</gx:coord>
        <when>2025-01-01T00:02:35.0986670Z</when>
        <gx:coord>12.057933 51.549362 107.72535</gx:coord>
        <when>2025-01-01T00:02:35.5206670Z</when>
        <gx:coord>12.057955 51.549408 107.74114</gx:coord>
        <when>2025-01-01T00:02:40.5206670Z</when>
        <gx:coord>12.05807 51.549683 107.847496</gx:coord>
        <when>2025-01-01T00:02:45.5196670Z</when>
        <gx:coord>12.0582 51.54999 107.77337</gx:coord>
        <when>2025-01-01T00:02:50.5206670Z</when>
        <gx:coord>12.058331 51.550293 107.88694</gx:coord>
        <when>2025-01-01T00:02:55.5206670Z</when>
        <gx:coord>12.058403 51.550514 107.84514</gx:coord>
        <when>2025-01-01T00:02:57.0966670Z</when>
        <gx:coord>12.058423 51.55054 107.801384</gx:coord>
        <when>2025-01-01T00:03:00.0956670Z</when>
        <gx:coord>12.058466 51.55058 107.81102</gx:coord>
        <when>2025-01-01T00:03:00.5206670Z</when>
        <gx:coord>12.058464 51.55058 107.76627</gx:coord>
        <when>2025-01-01T00:03:05.5206670Z</when>
        <gx:coord>12.058465 51.550575 107.6192</gx:coord>
        <when>2025-01-01T00:03:10.5206670Z</when>
        <gx:coord>12.058466 51.550575 107.43882</gx:coord>
        <when>2025-01-01T00:03:15.5206670Z</when>
        <gx:coord>12.058467 51.550575 107.38956</gx:coord>
        <when>2025-01-01T00:03:20.5206670Z</when>
        <gx:coord>12.058468 51.55058 107.36672</gx:coord>
        <when>2025-01-01T00:03:25.5206670Z</when>
        <gx:coord>12.058468 51.550575 107.40818</gx:coord>
        <when>2025-01-01T00:03:30.5206670Z</when>
        <gx:coord>12.058467 51.550575 107.407684</gx:coord>
        <when>2025-01-01T00:03:35.5206670Z</when>
        <gx:coord>12.058468 51.550575 107.42404</gx:coord>
        <when>2025-01-01T00:03:40.5206670Z</when>
        <gx:coord>12.058468 51.550575 107.504166</gx:coord>
        <when>2025-01-01T00:03:45.5206670Z</when>
        <gx:coord>12.058468 51.550575 107.410446</gx:coord>
        <when>2025-01-01T00:03:50.5206670Z</when>
        <gx:coord>12.058468 51.550575 107.448616</gx:coord>
        <when>2025-01-01T00:03:55.5206670Z</when>
        <gx:coord>12.058468 51.550575 107.521774</gx:coord>
        <when>2025-01-01T00:04:00.5206670Z</when>
        <gx:coord>12.058469 51.550575 107.533134</gx:coord>
        <when>2025-01-01T00:04:05.5206670Z</when>
        <gx:coord>12.058469 51.550575 107.67424</gx:coord>
        <when>2025-01-01T00:04:10.5206670Z</when>
        <gx:coord>12.058469 51.550575 107.57441</gx:coord>
        <when>2025-01-01T00:04:15.5206670Z</when>
        <gx:coord>12.058469 51.550575 107.59618</gx:coord>
        <when>2025-01-01T00:04:20.5206670Z</when>
        <gx:coord>12.058469 51.550575 107.67561</gx:coord>
        <when>2025-01-01T00:04:25.5206670Z</when>
        <gx:coord>12.058469 51.550575 107.550705</gx:coord>
        <when>2025-01-01T00:04:30.5206670Z</when>
        <gx:coord>12.05847 51.550575 107.536224</gx:coord>
        <when>2025-01-01T00:04:35.5206670Z</when>
        <gx:coord>12.05847 51.550575 107.57307</gx:coord>
        <when>2025-01-01T00:04:40.5206670Z</when>
        <gx:coord>12.058469 51.550575 107.619125</gx:coord>
        <when>2025-01-01T00:04:45.5206670Z</when>
        <gx:coord>12.05847 51.550575 107.63444</gx:coord>
        <when>2025-01-01T00:04:50.5206670Z</when>
        <gx:coord>12.05847 51.550575 107.732155</gx:coord>
        <when>2025-01-01T00:04:55.5206670Z</when>
        <gx:coord>12.058471 51.550575 107.75737</gx:coord>
        <when>2025-01-01T00:05:00.5206670Z</when>
        <gx:coord>12.05847 51.550575 107.861336</gx:coord>
        <when>2025-01-01T00:05:05.5206670Z</when>
        <gx:coord>12.058471 51.550575 107.89279</gx:coord>
        <when>2025-01-01T00:05:10.5206670Z</when>
        <gx:coord>12.058471 51.550575 107.944885</gx:coord>
        <when>2025-01-01T00:05:15.5206670Z</when>
        <gx:coord>12.05847 51.550575 107.94518</gx:coord>
        <when>2025-01-01T00:05:20.5206670Z</when>
        <gx:coord>12.058469 51.550575 107.94769</gx:coord>
        <when>2025-01-01T00:05:25.5206670Z</when>
        <gx:coord>12.05847 51.550575 107.965706</gx:coord>
        <when>2025-01-01T00:05:30.5206670Z</when>
        <gx:coord>12.058497 51.550613 107.95427</gx:coord>
        <when>2025-01-01T00:05:32.0936670Z</when>
        <gx:coord>12.058504 51.550632 107.98974</gx:coord>
        <when>2025-01-01T00:05:35.5206670Z</when>
        <gx:coord>12.058532 51.550728 108.07084</gx:coord>
        <when>2025-01-01T00:05:40.7726670Z</when>
        <gx:coord>12.058608 51.55089 108.17989</gx:coord>
        <when>2025-01-01T00:05:42.0926670Z</when>
        <gx:coord>12.058628 51.55092 108.2301</gx:coord>
        <when>2025-01-01T00:05:43.0916670Z</when>
        <gx:coord>12.058656 51.55094 108.31641</gx:coord>
        <when>2025-01-01T00:05:44.0956670Z</when>
        <gx:coord>12.05869 51.550957 108.319885</gx:coord>
        <when>2025-01-01T00:05:45.0976670Z</when>
        <gx:coord>12.05873 51.55097 108.303</gx:coord>
        <when>2025-01-01T00:05:45.5206670Z</when>
        <gx:coord>12.058777 51.550976 108.3673</gx:coord>
        <when>2025-01-01T00:05:46.0946670Z</when>
        <gx:coord>12.058777 51.550976 108.3673</gx:coord>
        <when>2025-01-01T00:05:47.0976670Z</when>
        <gx:coord>12.058831 51.55098 108.379684</gx:coord>
        <when>2025-01-01T00:05:49.0936670Z</when>
        <gx:coord>12.058953 51.550964 108.35254</gx:coord>
        <when>2025-01-01T00:05:50.0996670Z</when>
        <gx:coord>12.05902 51.55095 108.3039</gx:coord>
        <when>2025-01-01T00:05:50.5206670Z</when>
        <gx:coord>12.059091 51.550926 108.319595</gx:coord>
        <when>2025-01-01T00:05:52.0926670Z</when>
        <gx:coord>12.059168 51.550903 108.27244</gx:coord>
        <when>2025-01-01T00:05:55.5206670Z</when>
        <gx:coord>12.059536 51.55079 108.195526</gx:coord>
        <when>2025-01-01T00:06:00.5206670Z</when>
        <gx:coord>12.060068 51.550636 108.08713</gx:coord>
        <when>2025-01-01T00:06:05.5206670Z</when>
        <gx:coord>12.060584 51.55046 107.87893</gx:coord>
        <when>2025-01-01T00:06:06.0976670Z</when>
        <gx:coord>12.060584 51.55046 107.87893</gx:coord>
        <when>2025-01-01T00:06:10.5206670Z</when>
        <gx:coord>12.06097 51.55027 107.55573</gx:coord>
        <when>2025-01-01T00:06:12.0946670Z</when>
        <gx:coord>12.061038 51.550247 107.53848</gx:coord>
        <when>2025-01-01T00:06:13.1076670Z</when>
        <gx:coord>12.061103 51.550243 107.57403</gx:coord>
        <when>2025-01-01T00:06:14.0936670Z</when>
        <gx:coord>12.061152 51.550247 107.610085</gx:coord>
        <when>2025-01-01T00:06:15.0946670Z</when>
        <gx:coord>12.061177 51.550262 107.712685</gx:coord>
        <when>2025-01-01T00:06:15.5196670Z</when>
        <gx:coord>12.061195 51.55028 107.72772</gx:coord>
        <when>2025-01-01T00:06:16.0956670Z</when>
        <gx:coord>12.061195 51.55028 107.72772</gx:coord>
        <when>2025-01-01T00:06:17.0926670Z</when>
        <gx:coord>12.061199 51.5503 107.74082</gx:coord>
        <when>2025-01-01T00:06:20.5206670Z</when>
        <gx:coord>12.061134 51.550346 107.86011</gx:coord>
        <when>2025-01-01T00:06:23.1136670Z</when>
        <gx:coord>12.061062 51.550365 107.81786</gx:coord>
        <when>2025-01-01T00:06:25.0976670Z</when>
        <gx:coord>12.06105 51.550365 107.7954</gx:coord>
        <when>2025-01-01T00:06:25.5206670Z</when>
        <gx:coord>12.061046 51.550365 107.80053</gx:coord>
        <when>2025-01-01T00:06:30.5206670Z</when>
        <gx:coord>12.061036 51.55037 107.80689</gx:coord>
        <when>2025-01-01T00:06:31.1006670Z</when>
        <gx:coord>12.061036 51.55037 107.80689</gx:coord>
        <when>2025-01-01T00:06:32.0946670Z</when>
        <gx:coord>12.061012 51.55038 107.83372</gx:coord>
        <when>2025-01-01T00:06:33.0946670Z</when>
        <gx:coord>12.060945 51.550396 107.753105</gx:coord>
        <when>2025-01-01T00:06:35.5206670Z</when>
        <gx:coord>12.060639 51.550484 107.74277</gx:coord>
        <when>2025-01-01T00:06:36.0986670Z</when>
        <gx:coord>12.060639 51.550484 107.74277</gx:coord>
        <when>2025-01-01T00:06:39.1036670Z</when>
        <gx:coord>12.060117 51.55063 107.75731</gx:coord>
        <when>2025-01-01T00:06:39.1046670Z</when>
        <gx:coord>12.060117 51.55063 107.75731</gx:coord>
        <when>2025-01-01T00:06:40.5206670Z</when>
        <gx:coord>12.059644 51.55076 107.79192</gx:coord>
        <when>2025-01-01T00:06:42.0926670Z</when>
        <gx:coord>12.059373 51.55083 107.79646</gx:coord>
        <when>2025-01-01T00:06:45.5216670Z</when>
        <gx:coord>12.058075 51.551193 107.8433</gx:coord>
        <when>2025-01-01T00:06:46.0996670Z</when>
        <gx:coord>12.058075 51.551193 107.8433</gx:coord>
        <when>2025-01-01T00:06:50.5216670Z</when>
        <gx:coord>12.056032 51.55177 107.89356</gx:coord>
        <when>2025-01-01T00:06:51.0996670Z</when>
        <gx:coord>12.056032 51.55177 107.89356</gx:coord>
        <when>2025-01-01T00:06:55.5216670Z</when>
        <gx:coord>12.053622 51.5524 113.41584</gx:coord>
        <when>2025-01-01T00:07:00.5216670Z</when>
        <gx:coord>12.051129 51.553165 126.08909</gx:coord>
        <when>2025-01-01T00:07:05.0956670Z</when>
        <gx:coord>12.048539 51.553894 143.26743</gx:coord>
        <when>2025-01-01T00:07:05.5216670Z</when>
        <gx:coord>12.048539 51.553894 143.26743</gx:coord>
        <when>2025-01-01T00:07:10.5216670Z</when>
        <gx:coord>12.04612 51.554615 172.13104</gx:coord>
        <when>2025-01-01T00:07:11.0996670Z</when>
        <gx:coord>12.045652 51.55475 175.70422</gx:coord>
        <when>2025-01-01T00:07:15.5216670Z</when>
        <gx:coord>12.043774 51.555264 186.61012</gx:coord>
        <when>2025-01-01T00:07:20.5216670Z</when>
        <gx:coord>12.041354 51.55585 200.37617</gx:coord>
        <when>2025-01-01T00:07:24.0926670Z</when>
        <gx:coord>12.039346 51.5563 206.79166</gx:coord>
        <when>2025-01-01T00:07:25.5216670Z</when>
        <gx:coord>12.038842 51.55642 208.78635</gx:coord>
        <when>2025-01-01T00:07:30.5216670Z</when>
        <gx:coord>12.036339 51.557056 231.99873</gx:coord>
        <when>2025-01-01T00:07:32.0966670Z</when>
        <gx:coord>12.035357 51.557312 237.12903</gx:coord>
        <when>2025-01-01T00:07:32.0966670Z</when>
        <gx:coord>12.035357 51.557312 242.09935</gx:coord>
        <when>2025-01-01T00:07:35.5216670Z</when>
        <gx:coord>12.033903 51.557682 257.4512</gx:coord>
        <when>2025-01-01T00:07:40.5216670Z</when>
        <gx:coord>12.031505 51.558323 270.65604</gx:coord>
        <when>2025-01-01T00:07:42.0986670Z</when>
        <gx:coord>12.030534 51.558582 273.38235</gx:coord>
        <when>2025-01-01T00:07:45.5206670Z</when>
        <gx:coord>12.029063 51.55895 278.63483</gx:coord>
        <when>2025-01-01T00:07:50.5206670Z</when>
        <gx:coord>12.026593 51.55961 297.62094</gx:coord>
        <when>2025-01-01T00:07:51.0986670Z</when>
        <gx:coord>12.026101 51.55976 303.92474</gx:coord>
        <when>2025-01-01T00:07:55.5206670Z</when>
        <gx:coord>12.024141 51.5604 330.7542</gx:coord>
        <when>2025-01-01T00:07:56.0956670Z</when>
        <gx:coord>12.023652 51.560562 336.63007</gx:coord>
        <when>2025-01-01T00:08:00.5216670Z</when>
        <gx:coord>12.021659 51.561237 358.61548</gx:coord>
        <when>2025-01-01T00:08:02.0946670Z</when>
        <gx:coord>12.021152 51.56141 363.47873</gx:coord>
        <when>2025-01-01T00:08:02.0956670Z</when>
        <gx:coord>12.020634 51.561577 367.17233</gx:coord>
        <when>2025-01-01T00:08:05.5216670Z</when>
        <gx:coord>12.01896 51.562042 372.1557</gx:coord>
        <when>2025-01-01T00:08:07.0966670Z</when>
        <gx:coord>12.018356 51.56216 373.7522</gx:coord>
        <when>2025-01-01T00:08:09.0906670Z</when>
        <gx:coord>12.017093 51.56229 376.8211</gx:coord>
        <when>2025-01-01T00:08:10.5216670Z</when>
        <gx:coord>12.015787 51.56224 381.15594</gx:coord>
        <when>2025-01-01T00:08:11.0956670Z</when>
        <gx:coord>12.015787 51.56224 381.15594</gx:coord>
        <when>2025-01-01T00:08:12.0936670Z</when>
        <gx:coord>12.0151415 51.562157 381.7906</gx:coord>
        <when>2025-01-01T00:08:13.1006670Z</when>
        <gx:coord>12.014513 51.562023 382.12686</gx:coord>
        <when>2025-01-01T00:08:15.0876670Z</when>
        <gx:coord>12.013357 51.561604 383.68372</gx:coord>
        <when>2025-01-01T00:08:15.5216670Z</when>
        <gx:coord>12.012826 51.56134 383.91736</gx:coord>
        <when>2025-01-01T00:08:17.0926670Z</when>
        <gx:coord>12.012336 51.561043 384.78812</gx:coord>
        <when>2025-01-01T00:08:20.0896670Z</when>
        <gx:coord>12.011109 51.560017 385.4399</gx:coord>
        <when>2025-01-01T00:08:20.5216670Z</when>
        <gx:coord>12.010774 51.559643 384.08896</gx:coord>
        <when>2025-01-01T00:08:25.5216670Z</when>
        <gx:coord>12.009242 51.557667 368.4358</gx:coord>
        <when>2025-01-01T00:08:28.0986670Z</when>
        <gx:coord>12.008305 51.556454 366.76163</gx:coord>
        <when>2025-01-01T00:08:30.5216670Z</when>
        <gx:coord>12.007679 51.555637 362.55563</gx:coord>
        <when>2025-01-01T00:08:35.5216670Z</when>
        <gx:coord>12.006073 51.5536 352.9886</gx:coord>
        <when>2025-01-01T00:08:40.5216670Z</when>
        <gx:coord>12.004569 51.55153 344.69388</gx:coord>
        <when>2025-01-01T00:08:41.0936670Z</when>
        <gx:coord>12.004569 51.55153 344.69388</gx:coord>
        <when>2025-01-01T00:08:44.0936670Z</when>
        <gx:coord>12.003978 51.550224 341.27032</gx:coord>
        <when>2025-01-01T00:08:45.5216670Z</when>
        <gx:coord>12.003842 51.54932 341.98087</gx:coord>
        <when>2025-01-01T00:08:47.0926670Z</when>
        <gx:coord>12.003859 51.548866 342.0911</gx:coord>
        <when>2025-01-01T00:08:50.1076670Z</when>
        <gx:coord>12.004153 51.547558 344.3454</gx:coord>
        <when>2025-01-01T00:08:50.5206670Z</when>
        <gx:coord>12.004347 51.547146 344.89407</gx:coord>
        <when>2025-01-01T00:08:52.0946670Z</when>
        <gx:coord>12.004601 51.54675 346.558</gx:coord>
        <when>2025-01-01T00:08:55.1036670Z</when>
        <gx:coord>12.005634 51.545673 347.6292</gx:coord>
        <when>2025-01-01T00:08:55.5216670Z</when>
        <gx:coord>12.006067 51.54536 348.5308</gx:coord>
        <when>2025-01-01T00:08:58.0926670Z</when>
        <gx:coord>12.00705 51.544804 350.997</gx:coord>
        <when>2025-01-01T00:09:00.5216670Z</when>
        <gx:coord>12.008761 51.54415 354.01874</gx:coord>
        <when>2025-01-01T00:09:01.1036670Z</when>
        <gx:coord>12.008761 51.54415 354.01874</gx:coord>
        <when>2025-01-01T00:09:05.5216670Z</when>
        <gx:coord>12.011896 51.543373 359.49088</gx:coord>
        <when>2025-01-01T00:09:10.5216670Z</when>
        <gx:coord>12.015088 51.54266 363.84705</gx:coord>
        <when>2025-01-01T00:09:15.5216670Z</when>
        <gx:coord>12.018309 51.54191 354.8598</gx:coord>
        <when>2025-01-01T00:09:18.0976670Z</when>
        <gx:coord>12.020188 51.541397 354.0112</gx:coord>
        <when>2025-01-01T00:09:20.5216670Z</when>
        <gx:coord>12.0214205 51.54106 354.8924</gx:coord>
        <when>2025-01-01T00:09:25.5216670Z</when>
        <gx:coord>12.024441 51.540234 354.73825</gx:coord>
        <when>2025-01-01T00:09:30.5216670Z</when>
        <gx:coord>12.027424 51.539436 352.09564</gx:coord>
        <when>2025-01-01T00:09:35.5216670Z</when>
        <gx:coord>12.030445 51.53866 353.88657</gx:coord>
        <when>2025-01-01T00:09:40.5216670Z</when>
        <gx:coord>12.033495 51.537876 361.88983</gx:coord>
        <when>2025-01-01T00:09:45.5216670Z</when>
        <gx:coord>12.036491 51.53701 372.99484</gx:coord>
        <when>2025-01-01T00:09:50.5216670Z</when>
        <gx:coord>12.039473 51.53614 376.25043</gx:coord>
        <when>2025-01-01T00:09:55.5216670Z</when>
        <gx:coord>12.042455 51.535267 373.87357</gx:coord>
        <when>2025-01-01T00:09:59.0986670Z</when>
        <gx:coord>12.044871 51.534607 373.32785</gx:coord>
        <when>2025-01-01T00:10:00.5216670Z</when>
        <gx:coord>12.045484 51.534443 372.6759</gx:coord>
        <when>2025-01-01T00:10:05.5216670Z</when>
        <gx:coord>12.048553 51.533615 379.4964</gx:coord>
        <when>2025-01-01T00:10:10.5216670Z</when>
        <gx:coord>12.051544 51.53275 384.96252</gx:coord>
        <when>2025-01-01T00:10:15.5216670Z</when>
        <gx:coord>12.054409 51.531956 382.05267</gx:coord>
        <when>2025-01-01T00:10:20.5216670Z</when>
        <gx:coord>12.057197 51.53122 388.56305</gx:coord>
        <when>2025-01-01T00:10:21.0886670Z</when>
        <gx:coord>12.057197 51.53122 388.56305</gx:coord>
        <when>2025-01-01T00:10:25.5216670Z</when>
        <gx:coord>12.059772 51.53058 391.00415</gx:coord>
        <when>2025-01-01T00:10:30.5216670Z</when>
        <gx:coord>12.062258 51.52997 389.35565</gx:coord>
        <when>2025-01-01T00:10:35.5216670Z</when>
        <gx:coord>12.064727 51.52937 387.12823</gx:coord>
        <when>2025-01-01T00:10:40.5226670Z</when>
        <gx:coord>12.067177 51.528816 380.7878</gx:coord>
        <when>2025-01-01T00:10:45.0976670Z</when>
        <gx:coord>12.069612 51.52826 374.22775</gx:coord>
        <when>2025-01-01T00:10:45.5226670Z</when>
        <gx:coord>12.069612 51.52826 372.57132</gx:coord>
        <when>2025-01-01T00:10:50.5226670Z</when>
        <gx:coord>12.072039 51.527725 364.7825</gx:coord>
        <when>2025-01-01T00:10:55.1016670Z</when>
        <gx:coord>12.07394 51.52728 361.25958</gx:coord>
        <when>2025-01-01T00:10:55.5226670Z</when>
        <gx:coord>12.0744095 51.52718 362.2622</gx:coord>
        <when>2025-01-01T00:10:56.0946670Z</when>
        <gx:coord>12.0744095 51.52718 362.2622</gx:coord>
        <when>2025-01-01T00:10:59.0986670Z</when>
        <gx:coord>12.075801 51.527004 366.9168</gx:coord>
        <when>2025-01-01T00:11:00.5226670Z</when>
        <gx:coord>12.07671 51.527054 368.57343</gx:coord>
        <when>2025-01-01T00:11:01.0936670Z</when>
        <gx:coord>12.07671 51.527054 368.57343</gx:coord>
        <when>2025-01-01T00:11:03.0956670Z</when>
        <gx:coord>12.077567 51.527256 366.9244</gx:coord>
        <when>2025-01-01T00:11:05.0946670Z</when>
        <gx:coord>12.078311 51.52763 363.66403</gx:coord>
        <when>2025-01-01T00:11:05.5226670Z</when>
        <gx:coord>12.078623 51.52787 361.54736</gx:coord>
        <when>2025-01-01T00:11:07.0936670Z</when>
        <gx:coord>12.078891 51.528133 358.15842</gx:coord>
        <when>2025-01-01T00:11:10.5226670Z</when>
        <gx:coord>12.079702 51.52935 347.5615</gx:coord>
        <when>2025-01-01T00:11:14.0956670Z</when>
        <gx:coord>12.080485 51.530617 336.5677</gx:coord>
        <when>2025-01-01T00:11:15.5226670Z</when>
        <gx:coord>12.080699 51.53093 334.1211</gx:coord>
        <when>2025-01-01T00:11:20.5226670Z</when>
        <gx:coord>12.08185 51.532482 322.83408</gx:coord>
        <when>2025-01-01T00:11:25.5226670Z</when>
        <gx:coord>12.083085 51.534 313.85577</gx:coord>
        <when>2025-01-01T00:11:29.0906670Z</when>
        <gx:coord>12.084105 51.535175 305.86246</gx:coord>
        <when>2025-01-01T00:11:30.5226670Z</when>
        <gx:coord>12.0843525 51.535465 303.8964</gx:coord>
        <when>2025-01-01T00:11:35.5226670Z</when>
        <gx:coord>12.085563 51.53693 294.1186</gx:coord>
        <when>2025-01-01T00:11:40.5236670Z</when>
        <gx:coord>12.086681 51.53844 277.94766</gx:coord>
        <when>2025-01-01T00:11:41.0926670Z</when>
        <gx:coord>12.086681 51.53844 277.94766</gx:coord>
        <when>2025-01-01T00:11:41.0926670Z</when>
        <gx:coord>12.086843 51.538765 275.22626</gx:coord>
        <when>2025-01-01T00:11:44.0926670Z</when>
        <gx:coord>12.087051 51.539448 270.33774</gx:coord>
        <when>2025-01-01T00:11:45.0976670Z</when>
        <gx:coord>12.087083 51.5398 269.17603</gx:coord>
        <when>2025-01-01T00:11:45.5236670Z</when>
        <gx:coord>12.087061 51.540146 267.28018</gx:coord>
        <when>2025-01-01T00:11:48.0926670Z</when>
        <gx:coord>12.086875 51.54084 261.37247</gx:coord>
        <when>2025-01-01T00:11:48.0976670Z</when>
        <gx:coord>12.086722 51.54118 261.37247</gx:coord>
        <when>2025-01-01T00:11:50.5236670Z</when>
        <gx:coord>12.086275 51.54183 254.18213</gx:coord>
        <when>2025-01-01T00:11:51.0946670Z</when>
        <gx:coord>12.086275 51.54183 254.18213</gx:coord>
        <when>2025-01-01T00:11:54.0916670Z</when>
        <gx:coord>12.08533 51.542694 247.55984</gx:coord>
        <when>2025-01-01T00:11:55.0956670Z</when>
        <gx:coord>12.084571 51.543217 243.52942</gx:coord>
        <when>2025-01-01T00:11:55.5236670Z</when>
        <gx:coord>12.084571 51.543217 243.52942</gx:coord>
        <when>2025-01-01T00:11:58.0946670Z</when>
        <gx:coord>12.0837145 51.543686 241.42744</gx:coord>
        <when>2025-01-01T00:12:00.5236670Z</when>
        <gx:coord>12.082339 51.54429 237.6043</gx:coord>
        <when>2025-01-01T00:12:02.0916670Z</when>
        <gx:coord>12.081858 51.544453 235.06418</gx:coord>
        <when>2025-01-01T00:12:05.5236670Z</when>
        <gx:coord>12.079853 51.544994 225.55803</gx:coord>
        <when>2025-01-01T00:12:10.0976670Z</when>
        <gx:coord>12.07734 51.545616 212.07619</gx:coord>
        <when>2025-01-01T00:12:10.5236670Z</when>
        <gx:coord>12.07734 51.545616 212.07619</gx:coord>
        <when>2025-01-01T00:12:15.5236670Z</when>
        <gx:coord>12.074918 51.54628 203.33606</gx:coord>
        <when>2025-01-01T00:12:20.5236670Z</when>
        <gx:coord>12.07254 51.546974 194.03047</gx:coord>
        <when>2025-01-01T00:12:25.0936670Z</when>
        <gx:coord>12.070201 51.54765 180.59648</gx:coord>
        <when>2025-01-01T00:12:25.5236670Z</when>
        <gx:coord>12.070201 51.54765 180.59648</gx:coord>
        <when>2025-01-01T00:12:30.5236670Z</when>
        <gx:coord>12.067875 51.548332 160.90594</gx:coord>
        <when>2025-01-01T00:12:33.0946670Z</when>
        <gx:coord>12.066476 51.54875 148.69936</gx:coord>
        <when>2025-01-01T00:12:35.5236670Z</when>
        <gx:coord>12.065544 51.54905 141.79126</gx:coord>
        <when>2025-01-01T00:12:40.0976670Z</when>
        <gx:coord>12.0632305 51.549744 126.73091</gx:coord>
        <when>2025-01-01T00:12:40.5226670Z</when>
        <gx:coord>12.0632305 51.549744 123.625435</gx:coord>
        <when>2025-01-01T00:12:42.0956670Z</when>
        <gx:coord>12.062326 51.55 116.6622</gx:coord>
        <when>2025-01-01T00:12:45.5236670Z</when>
        <gx:coord>12.061003 51.55037 109.17241</gx:coord>
        <when>2025-01-01T00:12:50.0926670Z</when>
        <gx:coord>12.059369 51.55083 106.8976</gx:coord>
        <when>2025-01-01T00:12:50.5236670Z</when>
        <gx:coord>12.058989 51.550938 107.416916</gx:coord>
        <when>2025-01-01T00:12:55.5236670Z</when>
        <gx:coord>12.057213 51.551422 107.425255</gx:coord>
        <when>2025-01-01T00:13:00.5236670Z</when>
        <gx:coord>12.055563 51.551888 107.638145</gx:coord>
        <when>2025-01-01T00:13:05.5236670Z</when>
        <gx:coord>12.053603 51.552433 108.343666</gx:coord>
        <when>2025-01-01T00:13:07.0956670Z</when>
        <gx:coord>12.053161 51.55256 108.54142</gx:coord>
        <when>2025-01-01T00:13:10.5236670Z</when>
        <gx:coord>12.051246 51.55309 112.37621</gx:coord>
        <when>2025-01-01T00:13:15.5236670Z</when>
        <gx:coord>12.048741 51.553825 127.69446</gx:coord>
        <when>2025-01-01T00:13:19.0926670Z</when>
        <gx:coord>12.046751 51.55436 147.85423</gx:coord>
        <when>2025-01-01T00:13:20.5236670Z</when>
        <gx:coord>12.046272 51.554497 152.09225</gx:coord>
        <when>2025-01-01T00:13:25.5236670Z</when>
        <gx:coord>12.0439 51.555206 172.72354</gx:coord>
        <when>2025-01-01T00:13:27.0946670Z</when>
        <gx:coord>12.0429535 51.55548 180.03954</gx:coord>
        <when>2025-01-01T00:13:30.5236670Z</when>
        <gx:coord>12.041512 51.555878 187.31908</gx:coord>
        <when>2025-01-01T00:13:35.5246670Z</when>
        <gx:coord>12.039105 51.556576 202.7152</gx:coord>
        <when>2025-01-01T00:13:36.0976670Z</when>
        <gx:coord>12.038622 51.556713 202.7152</gx:coord>
        <when>2025-01-01T00:13:38.0936670Z</when>
        <gx:coord>12.037654 51.556995 211.0624</gx:coord>
        <when>2025-01-01T00:13:40.5246670Z</when>
        <gx:coord>12.036681 51.55729 216.5257</gx:coord>
        <when>2025-01-01T00:13:45.5246670Z</when>
        <gx:coord>12.034238 51.558033 239.64719</gx:coord>
        <when>2025-01-01T00:13:46.0966670Z</when>
        <gx:coord>12.033754 51.55818 245.26884</gx:coord>
        <when>2025-01-01T00:13:50.5236670Z</when>
        <gx:coord>12.031863 51.55876 266.3591</gx:coord>
        <when>2025-01-01T00:13:53.0956670Z</when>
        <gx:coord>12.03047 51.559185 277.5409</gx:coord>
        <when>2025-01-01T00:13:55.5236670Z</when>
        <gx:coord>12.029548 51.559464 282.2057</gx:coord>
        <when>2025-01-01T00:14:00.5246670Z</when>
        <gx:coord>12.027265 51.56018 295.71426</gx:coord>
        <when>2025-01-01T00:14:04.0946670Z</when>
        <gx:coord>12.025489 51.560738 309.26215</gx:coord>
        <when>2025-01-01T00:14:05.5246670Z</when>
        <gx:coord>12.025043 51.56087 311.4166</gx:coord>
        <when>2025-01-01T00:14:10.5246670Z</when>
        <gx:coord>12.022716 51.56149 322.8394</gx:coord>
        <when>2025-01-01T00:14:15.5246670Z</when>
        <gx:coord>12.02031 51.562084 329.4097</gx:coord>
        <when>2025-01-01T00:14:20.5246670Z</when>
        <gx:coord>12.017779 51.56269 327.884</gx:coord>
        <when>2025-01-01T00:14:21.0926670Z</when>
        <gx:coord>12.017779 51.56269 327.884</gx:coord>
        <when>2025-01-01T00:14:23.0956670Z</when>
        <gx:coord>12.016676 51.5628 332.38492</gx:coord>
        <when>2025-01-01T00:14:25.0956670Z</when>
        <gx:coord>12.015556 51.562763 337.9053</gx:coord>
        <when>2025-01-01T00:14:25.0956670Z</when>
        <gx:coord>12.015008 51.562683 342.2471</gx:coord>
        <when>2025-01-01T00:14:25.5246670Z</when>
        <gx:coord>12.015008 51.562683 342.2471</gx:coord>
        <when>2025-01-01T00:14:27.0956670Z</when>
        <gx:coord>12.014477 51.56257 345.95227</gx:coord>
        <when>2025-01-01T00:14:29.0946670Z</when>
        <gx:coord>12.013476 51.562237 354.2243</gx:coord>
        <when>2025-01-01T00:14:29.0996670Z</when>
        <gx:coord>12.013012 51.562035 354.2243</gx:coord>
        <when>2025-01-01T00:14:30.5246670Z</when>
        <gx:coord>12.012587 51.561806 364.29352</gx:coord>
        <when>2025-01-01T00:14:31.0966670Z</when>
        <gx:coord>12.012587 51.561806 364.29352</gx:coord>
        <when>2025-01-01T00:14:32.0946670Z</when>
        <gx:coord>12.011855 51.561283 373.4374</gx:coord>
        <when>2025-01-01T00:14:33.1036670Z</when>
        <gx:coord>12.011855 51.561283 373.4374</gx:coord>
        <when>2025-01-01T00:14:35.0946670Z</when>
        <gx:coord>12.01127 51.560684 376.49374</gx:coord>
        <when>2025-01-01T00:14:35.5246670Z</when>
        <gx:coord>12.011027 51.56036 375.25644</gx:coord>
        <when>2025-01-01T00:14:36.0966670Z</when>
        <gx:coord>12.011027 51.56036 375.25644</gx:coord>
        <when>2025-01-01T00:14:40.5246670Z</when>
        <gx:coord>12.009953 51.558556 370.51187</gx:coord>
        <when>2025-01-01T00:14:42.0946670Z</when>
        <gx:coord>12.009692 51.55818 371.42545</gx:coord>
        <when>2025-01-01T00:14:45.5246670Z</when>
        <gx:coord>12.008507 51.556698 378.17938</gx:coord>
        <when>2025-01-01T00:14:50.5246670Z</when>
        <gx:coord>12.006919 51.554848 380.705</gx:coord>
        <when>2025-01-01T00:14:55.5246670Z</when>
        <gx:coord>12.005319 51.55295 367.23514</gx:coord>
        <when>2025-01-01T00:15:00.5236670Z</when>
        <gx:coord>12.003989 51.550938 359.75446</gx:coord>
        <when>2025-01-01T00:15:01.0926670Z</when>
        <gx:coord>12.003989 51.550938 359.75446</gx:coord>
        <when>2025-01-01T00:15:03.0926670Z</when>
        <gx:coord>12.003809 51.55009 361.91666</gx:coord>
        <when>2025-01-01T00:15:05.0946670Z</when>
        <gx:coord>12.00386 51.549263 362.81143</gx:coord>
        <when>2025-01-01T00:15:05.5246670Z</when>
        <gx:coord>12.003988 51.54887 363.41595</gx:coord>
        <when>2025-01-01T00:15:07.0976670Z</when>
        <gx:coord>12.004178 51.548485 363.53723</gx:coord>
        <when>2025-01-01T00:15:09.0966670Z</when>
        <gx:coord>12.004757 51.547787 361.8882</gx:coord>
        <when>2025-01-01T00:15:10.5246670Z</when>
        <gx:coord>12.005517 51.547165 357.4984</gx:coord>
        <when>2025-01-01T00:15:12.0936670Z</when>
        <gx:coord>12.005952 51.546883 354.35938</gx:coord>
        <when>2025-01-01T00:15:15.5256670Z</when>
        <gx:coord>12.007911 51.545853 345.0193</gx:coord>
        <when>2025-01-01T00:15:16.0976670Z</when>
        <gx:coord>12.008437 51.545628 345.0193</gx:coord>
        <when>2025-01-01T00:15:17.1046670Z</when>
        <gx:coord>12.008437 51.545628 343.16995</gx:coord>
        <when>2025-01-01T00:15:17.1046670Z</when>
        <gx:coord>12.008978 51.545414 340.96457</gx:coord>
        <when>2025-01-01T00:15:20.5256670Z</when>
        <gx:coord>12.010693 51.544853 333.99567</gx:coord>
        <when>2025-01-01T00:15:24.0886670Z</when>
        <gx:coord>12.012506 51.54436 337.6399</gx:coord>
        <when>2025-01-01T00:15:25.5256670Z</when>
        <gx:coord>12.013723 51.544052 338.15735</gx:coord>
        <when>2025-01-01T00:15:30.5256670Z</when>
        <gx:coord>12.016807 51.543278 330.28827</gx:coord>
        <when>2025-01-01T00:15:35.5246670Z</when>
        <gx:coord>12.019787 51.542503 337.4974</gx:coord>
        <when>2025-01-01T00:15:40.5256670Z</when>
        <gx:coord>12.022674 51.541756 347.0468</gx:coord>
        <when>2025-01-01T00:15:45.5256670Z</when>
        <gx:coord>12.02546 51.541004 349.44006</gx:coord>
        <when>2025-01-01T00:15:50.5256670Z</when>
        <gx:coord>12.028274 51.54021 350.77853</gx:coord>
        <when>2025-01-01T00:15:55.5256670Z</when>
        <gx:coord>12.0311365 51.539474 357.9371</gx:coord>
        <when>2025-01-01T00:15:59.0946670Z</when>
        <gx:coord>12.033401 51.538837 363.18942</gx:coord>
        <when>2025-01-01T00:16:00.5256670Z</when>
        <gx:coord>12.033944 51.53866 365.4784</gx:coord>
        <when>2025-01-01T00:16:05.5256670Z</when>
        <gx:coord>12.036631 51.53775 365.4616</gx:coord>
        <when>2025-01-01T00:16:10.5256670Z</when>
        <gx:coord>12.039383 51.53688 363.06076</gx:coord>
        <when>2025-01-01T00:16:15.5246670Z</when>
        <gx:coord>12.042203 51.536026 357.94403</gx:coord>
        <when>2025-01-01T00:16:20.5256670Z</when>
        <gx:coord>12.045087 51.535122 357.61826</gx:coord>
        <when>2025-01-01T00:16:25.5256670Z</when>
        <gx:coord>12.04802 51.534206 363.58087</gx:coord>
        <when>2025-01-01T00:16:29.0946670Z</when>
        <gx:coord>12.050297 51.53351 373.73303</gx:coord>
        <when>2025-01-01T00:16:30.5256670Z</when>
        <gx:coord>12.050846 51.533337 376.77396</gx:coord>
        <when>2025-01-01T00:16:34.0936670Z</when>
        <gx:coord>12.052437 51.532845 390.61063</gx:coord>
        <when>2025-01-01T00:16:35.5256670Z</when>
        <gx:coord>12.053457 51.53254 396.46396</gx:coord>
        <when>2025-01-01T00:16:40.5256670Z</when>
        <gx:coord>12.055954 51.531788 394.04303</gx:coord>
        <when>2025-01-01T00:16:43.0966670Z</when>
        <gx:coord>12.057402 51.53135 391.43353</gx:coord>
        <when>2025-01-01T00:16:45.5256670Z</when>
        <gx:coord>12.058355 51.53105 392.20996</gx:coord>
        <when>2025-01-01T00:16:50.5256670Z</when>
        <gx:coord>12.06073 51.53034 382.5368</gx:coord>
        <when>2025-01-01T00:16:55.5256670Z</when>
        <gx:coord>12.063115 51.529663 372.25925</gx:coord>
        <when>2025-01-01T00:17:00.5256670Z</when>
        <gx:coord>12.0655 51.52905 363.2897</gx:coord>
        <when>2025-01-01T00:17:05.0926670Z</when>
        <gx:coord>12.067364 51.528587 355.88382</gx:coord>
        <when>2025-01-01T00:17:05.5256670Z</when>
        <gx:coord>12.067828 51.528477 354.94553</gx:coord>
        <when>2025-01-01T00:17:10.5266670Z</when>
        <gx:coord>12.070189 51.527985 347.61288</gx:coord>
        <when>2025-01-01T00:17:14.0906670Z</when>
        <gx:coord>12.072122 51.527596 343.15146</gx:coord>
        <when>2025-01-01T00:17:15.5266670Z</when>
        <gx:coord>12.07262 51.527523 342.70596</gx:coord>
        <when>2025-01-01T00:17:16.0916670Z</when>
        <gx:coord>12.07262 51.527523 342.70596</gx:coord>
        <when>2025-01-01T00:17:18.0966670Z</when>
        <gx:coord>12.073619 51.527454 343.98218</gx:coord>
        <when>2025-01-01T00:17:20.0936670Z</when>
        <gx:coord>12.074584 51.527523 347.6921</gx:coord>
        <when>2025-01-01T00:17:20.5266670Z</when>
        <gx:coord>12.075033 51.52761 348.7893</gx:coord>
        <when>2025-01-01T00:17:22.0976670Z</when>
        <gx:coord>12.075449 51.527737 349.64682</gx:coord>
        <when>2025-01-01T00:17:24.0916670Z</when>
        <gx:coord>12.076161 51.528088 351.6161</gx:coord>
        <when>2025-01-01T00:17:25.5266670Z</when>
        <gx:coord>12.076746 51.528526 347.7265</gx:coord>
        <when>2025-01-01T00:17:27.0896670Z</when>
        <gx:coord>12.077002 51.528774 344.33557</gx:coord>
        <when>2025-01-01T00:17:30.5266670Z</when>
        <gx:coord>12.077999 51.52986 331.8758</gx:coord>
        <when>2025-01-01T00:17:35.5266670Z</when>
        <gx:coord>12.079268 51.531315 324.04172</gx:coord>
        <when>2025-01-01T00:17:40.5266670Z</when>
        <gx:coord>12.080615 51.532772 315.80096</gx:coord>
        <when>2025-01-01T00:17:41.0936670Z</when>
        <gx:coord>12.080907 51.533062 312.65216</gx:coord>
        <when>2025-01-01T00:17:45.5266670Z</when>
        <gx:coord>12.082097 51.534214 301.88412</gx:coord>
        <when>2025-01-01T00:17:50.0946670Z</when>
        <gx:coord>12.083663 51.535656 291.37122</gx:coord>
        <when>2025-01-01T00:17:50.5266670Z</when>
        <gx:coord>12.083663 51.535656 289.91702</gx:coord>
        <when>2025-01-01T00:17:53.0866670Z</when>
        <gx:coord>12.084606 51.536522 280.2887</gx:coord>
        <when>2025-01-01T00:17:55.5266670Z</when>
        <gx:coord>12.085234 51.5371 277.25284</gx:coord>
        <when>2025-01-01T00:18:00.5266670Z</when>
        <gx:coord>12.086728 51.53856 270.914</gx:coord>
        <when>2025-01-01T00:18:04.0906670Z</when>
        <gx:coord>12.087451 51.539482 274.99686</gx:coord>
        <when>2025-01-01T00:18:05.5266670Z</when>
        <gx:coord>12.087654 51.54013 277.62463</gx:coord>
        <when>2025-01-01T00:18:06.0936670Z</when>
        <gx:coord>12.087654 51.54013 277.62463</gx:coord>
        <when>2025-01-01T00:18:07.0926670Z</when>
        <gx:coord>12.087669 51.54046 276.92773</gx:coord>
        <when>2025-01-01T00:18:09.0926670Z</when>
        <gx:coord>12.087555 51.541103 274.3995</gx:coord>
        <when>2025-01-01T00:18:10.5266670Z</when>
        <gx:coord>12.08724 51.541725 269.9004</gx:coord>
        <when>2025-01-01T00:18:11.0986670Z</when>
        <gx:coord>12.08724 51.541725 269.9004</gx:coord>
        <when>2025-01-01T00:18:13.0866670Z</when>
        <gx:coord>12.086729 51.54231 264.7214</gx:coord>
        <when>2025-01-01T00:18:15.5256670Z</when>
        <gx:coord>12.085618 51.543076 255.55289</gx:coord>
        <when>2025-01-01T00:18:16.0946670Z</when>
        <gx:coord>12.085618 51.543076 255.55289</gx:coord>
        <when>2025-01-01T00:18:17.0896670Z</when>
        <gx:coord>12.085196 51.543312 250.98346</gx:coord>
        <when>2025-01-01T00:18:17.0906670Z</when>
        <gx:coord>12.084744 51.543533 246.03877</gx:coord>
        <when>2025-01-01T00:18:20.0906670Z</when>
        <gx:coord>12.0837755 51.54394 241.4789</gx:coord>
        <when>2025-01-01T00:18:20.5266670Z</when>
        <gx:coord>12.083275 51.544136 240.0635</gx:coord>
        <when>2025-01-01T00:18:25.5266670Z</when>
        <gx:coord>12.080584 51.54492 226.1058</gx:coord>
        <when>2025-01-01T00:18:27.0916670Z</when>
        <gx:coord>12.080028 51.545063 223.45581</gx:coord>
        <when>2025-01-01T00:18:29.0926670Z</when>
        <gx:coord>12.078375 51.545475 214.76929</gx:coord>
        <when>2025-01-01T00:18:30.5276670Z</when>
        <gx:coord>12.077833 51.545616 211.34653</gx:coord>
        <when>2025-01-01T00:18:35.5276670Z</when>
        <gx:coord>12.075153 51.54631 200.84514</gx:coord>
        <when>2025-01-01T00:18:40.5276670Z</when>
        <gx:coord>12.072588 51.546978 187.73596</gx:coord>
        <when>2025-01-01T00:18:42.0926670Z</when>
        <gx:coord>12.0716095 51.547264 181.33711</gx:coord>
        <when>2025-01-01T00:18:45.5276670Z</when>
        <gx:coord>12.070195 51.547695 170.17496</gx:coord>
        <when>2025-01-01T00:18:48.0936670Z</when>
        <gx:coord>12.069291 51.547974 165.48885</gx:coord>
        <when>2025-01-01T00:18:50.5266670Z</when>
        <gx:coord>12.06799 51.548378 156.30888</gx:coord>
        <when>2025-01-01T00:18:52.0936670Z</when>
        <gx:coord>12.067132 51.54864 149.28789</gx:coord>
        <when>2025-01-01T00:18:53.0986670Z</when>
        <gx:coord>12.0667 51.54877 149.28789</gx:coord>
        <when>2025-01-01T00:18:55.5276670Z</when>
        <gx:coord>12.065828 51.54902 140.86766</gx:coord>
        <when>2025-01-01T00:19:00.5276670Z</when>
        <gx:coord>12.063624 51.54962 127.665474</gx:coord>
        <when>2025-01-01T00:19:04.0926670Z</when>
        <gx:coord>12.061836 51.550114 116.1232</gx:coord>
        <when>2025-01-01T00:19:05.5276670Z</when>
        <gx:coord>12.061392 51.55024 113.176796</gx:coord>
        <when>2025-01-01T00:19:10.5276670Z</when>
        <gx:coord>12.059233 51.55086 107.73526</gx:coord>
        <when>2025-01-01T00:19:15.0926670Z</when>
        <gx:coord>12.057638 51.551323 107.3107</gx:coord>
        <when>2025-01-01T00:19:15.5276670Z</when>
        <gx:coord>12.057259 51.551426 107.98728</gx:coord>
        <when>2025-01-01T00:19:20.5276670Z</when>
        <gx:coord>12.055519 51.551907 107.07439</gx:coord>
        <when>2025-01-01T00:19:22.0946670Z</when>
        <gx:coord>12.055196 51.55199 107.14537</gx:coord>
        <when>2025-01-01T00:19:25.5276670Z</when>
        <gx:coord>12.054016 51.55229 107.520195</gx:coord>
        <when>2025-01-01T00:19:28.0916670Z</when>
        <gx:coord>12.053508 51.552437 107.83121</gx:coord>
        <when>2025-01-01T00:19:30.5276670Z</when>
        <gx:coord>12.052849 51.552616 108.11477</gx:coord>
        <when>2025-01-01T00:19:35.5276670Z</when>
        <gx:coord>12.051859 51.55287 108.68096</gx:coord>
        <when>2025-01-01T00:19:40.0916670Z</when>
        <gx:coord>12.051147 51.553062 109.155045</gx:coord>
        <when>2025-01-01T00:19:40.5276670Z</when>
        <gx:coord>12.050979 51.553104 109.26828</gx:coord>
        <when>2025-01-01T00:19:45.5276670Z</when>
        <gx:coord>12.050192 51.553314 109.942024</gx:coord>
        <when>2025-01-01T00:19:50.5276670Z</when>
        <gx:coord>12.049501 51.553505 110.61192</gx:coord>
        <when>2025-01-01T00:19:55.5286670Z</when>
        <gx:coord>12.048906 51.553684 111.06671</gx:coord>
        <when>2025-01-01T00:19:59.0966670Z</when>
        <gx:coord>12.048591 51.553776 111.33308</gx:coord>
        <when>2025-01-01T00:20:00.5286670Z</when>
        <gx:coord>12.048397 51.553837 111.53852</gx:coord>
        <when>2025-01-01T00:20:05.5276670Z</when>
        <gx:coord>12.047957 51.553955 111.90641</gx:coord>
        <when>2025-01-01T00:20:10.5286670Z</when>
        <gx:coord>12.04757 51.554054 112.2162</gx:coord>
        <when>2025-01-01T00:20:15.5286670Z</when>
        <gx:coord>12.047223 51.55414 112.38728</gx:coord>
        <when>2025-01-01T00:20:18.0966670Z</when>
        <gx:coord>12.047096 51.554165 112.481705</gx:coord>
        <when>2025-01-01T00:20:19.0906670Z</when>
        <gx:coord>12.047038 51.55418 112.50955</gx:coord>
        <when>2025-01-01T00:20:20.0916670Z</when>
        <gx:coord>12.046984 51.554188 112.48603</gx:coord>
        <when>2025-01-01T00:20:20.5286670Z</when>
        <gx:coord>12.046929 51.554188 112.53959</gx:coord>
        <when>2025-01-01T00:20:22.0896670Z</when>
        <gx:coord>12.046873 51.55418 112.50717</gx:coord>
        <when>2025-01-01T00:20:25.0926670Z</when>
        <gx:coord>12.046736 51.554146 112.627525</gx:coord>
        <when>2025-01-01T00:20:25.0936670Z</when>
        <gx:coord>12.046736 51.554146 112.627525</gx:coord>
        <when>2025-01-01T00:20:25.5286670Z</when>
        <gx:coord>12.046714 51.55414 112.695366</gx:coord>
        <when>2025-01-01T00:20:26.0946670Z</when>
        <gx:coord>12.046714 51.55414 112.695366</gx:coord>
        <when>2025-01-01T00:20:26.1126670Z</when>
        <gx:coord>12.046692 51.554134 112.69218</gx:coord>
        <when>2025-01-01T00:20:26.6506670Z</when>
        <gx:coord>12.046692 51.554134 112.69218</gx:coord>
        <when>2025-01-01T00:20:27.2316670Z</when>
        <gx:coord>12.04667 51.554142 112.65155</gx:coord>
        <when>2025-01-01T00:20:27.9516670Z</when>
        <gx:coord>12.04667 51.554142 112.65155</gx:coord>
        <when>2025-01-01T00:20:28.6526670Z</when>
        <gx:coord>12.046653 51.55415 112.627975</gx:coord>
        <when>2025-01-01T00:20:29.3726670Z</when>
        <gx:coord>12.046642 51.554165 112.6521</gx:coord>
        <when>2025-01-01T00:20:29.8726670Z</when>
        <gx:coord>12.046642 51.554165 112.6521</gx:coord>
        <when>2025-01-01T00:20:30.5286670Z</when>
        <gx:coord>12.0466385 51.554176 112.636566</gx:coord>
        <when>2025-01-01T00:20:30.7136670Z</when>
        <gx:coord>12.0466385 51.554176 112.636566</gx:coord>
        <when>2025-01-01T00:20:31.5416670Z</when>
        <gx:coord>12.046642 51.55419 112.66171</gx:coord>
        <when>2025-01-01T00:20:32.4356670Z</when>
        <gx:coord>12.04665 51.554203 112.69246</gx:coord>
        <when>2025-01-01T00:20:33.7356670Z</when>
        <gx:coord>12.046662 51.55421 112.70573</gx:coord>
        <when>2025-01-01T00:20:35.5286670Z</when>
        <gx:coord>12.046682 51.55421 112.66842</gx:coord>
        <when>2025-01-01T00:20:40.5286670Z</when>
        <gx:coord>12.04669 51.554207 112.56982</gx:coord>
        <when>2025-01-01T00:20:45.5286670Z</when>
        <gx:coord>12.04669 51.554207 112.56982</gx:coord>
        <when>2025-01-01T00:20:50.5276670Z</when>
        <gx:coord>12.046695 51.554207 112.57133</gx:coord>
        <when>2025-01-01T00:20:55.5286670Z</when>
        <gx:coord>12.046699 51.554203 112.60396</gx:coord>
        <when>2025-01-01T00:21:00.5286670Z</when>
        <gx:coord>12.0467 51.554203 112.58914</gx:coord>
        <when>2025-01-01T00:21:05.5286670Z</when>
        <gx:coord>12.0467 51.554203 112.58914</gx:coord>
        <when>2025-01-01T00:21:10.5286670Z</when>
        <gx:coord>12.0467 51.554203 112.58914</gx:coord>
        <when>2025-01-01T00:21:15.5286670Z</when>
        <gx:coord>12.0467 51.554203 112.58914</gx:coord>
        <when>2025-01-01T00:21:20.5286670Z</when>
        <gx:coord>12.0467 51.554203 112.58914</gx:coord>
        <when>2025-01-01T00:21:25.5286670Z</when>
        <gx:coord>12.0467 51.554203 112.58914</gx:coord>
        <when>2025-01-01T00:21:30.5296670Z</when>
        <gx:coord>12.046705 51.554203 112.480385</gx:coord>
        <when>2025-01-01T00:21:35.5296670Z</when>
        <gx:coord>12.046707 51.554203 112.430374</gx:coord>
        <when>2025-01-01T00:21:40.5296670Z</when>
        <gx:coord>12.046709 51.5542 112.425644</gx:coord>
        <when>2025-01-01T00:21:45.5296670Z</when>
        <gx:coord>12.046709 51.5542 112.425644</gx:coord>
        <when>2025-01-01T00:21:50.5296670Z</when>
        <gx:coord>12.046709 51.5542 112.425644</gx:coord>
        <when>2025-01-01T00:21:55.5296670Z</when>
        <gx:coord>12.046709 51.5542 112.425644</gx:coord>
        <when>2025-01-01T00:22:00.5296670Z</when>
        <gx:coord>12.046709 51.5542 112.425644</gx:coord>
        <when>2025-01-01T00:22:05.5296670Z</when>
        <gx:coord>12.046712 51.5542 112.220055</gx:coord>
        <when>2025-01-01T00:22:10.5296670Z</when>
        <gx:coord>12.046713 51.5542 112.15359</gx:coord>
        <when>2025-01-01T00:22:15.5296670Z</when>
        <gx:coord>12.046713 51.5542 112.15359</gx:coord>
        <when>2025-01-01T00:22:20.5296670Z</when>
        <gx:coord>12.046713 51.5542 112.15359</gx:coord>
        <when>2025-01-01T00:22:25.5296670Z</when>
        <gx:coord>12.046713 51.5542 112.15359</gx:coord>
        <when>2025-01-01T00:22:30.5296670Z</when>
        <gx:coord>12.046714 51.5542 112.15339</gx:coord>
        <when>2025-01-01T00:22:35.5296670Z</when>
        <gx:coord>12.046715 51.5542 112.111435</gx:coord>
        <when>2025-01-01T00:22:38.1766670Z</when>
        <gx:coord>12.046715 51.5542 112.111435</gx:coord>
        <when>2025-01-01T00:22:39.5576670Z</when>
        <gx:coord>12.046738 51.554188 112.103226</gx:coord>
        <when>2025-01-01T00:22:40.5296670Z</when>
        <gx:coord>12.046752 51.554184 112.10633</gx:coord>
        <when>2025-01-01T00:22:42.0966670Z</when>
        <gx:coord>12.046771 51.554184 112.066055</gx:coord>
        <when>2025-01-01T00:22:44.0876670Z</when>
        <gx:coord>12.0468235 51.55418 112.04416</gx:coord>
        <when>2025-01-01T00:22:45.5296670Z</when>
        <gx:coord>12.0469 51.554176 112.01107</gx:coord>
        <when>2025-01-01T00:22:50.0916670Z</when>
        <gx:coord>12.047087 51.554176 112.054054</gx:coord>
        <when>2025-01-01T00:22:50.5296670Z</when>
        <gx:coord>12.047137 51.55418 112.083755</gx:coord>
        <when>2025-01-01T00:22:55.0926670Z</when>
        <gx:coord>12.047326 51.55421 112.195786</gx:coord>
        <when>2025-01-01T00:22:55.5296670Z</when>
        <gx:coord>12.047359 51.554207 112.15098</gx:coord>
        <when>2025-01-01T00:22:57.0916670Z</when>
        <gx:coord>12.047387 51.554203 112.08569</gx:coord>
        <when>2025-01-01T00:23:00.5306670Z</when>
        <gx:coord>12.047435 51.554184 112.00454</gx:coord>
        <when>2025-01-01T00:23:05.5306670Z</when>
        <gx:coord>12.047524 51.55416 111.76411</gx:coord>
        <when>2025-01-01T00:23:08.0916670Z</when>
        <gx:coord>12.047666 51.55412 111.44786</gx:coord>
        <when>2025-01-01T00:23:10.5306670Z</when>
        <gx:coord>12.048079 51.553997 111.05287</gx:coord>
        <when>2025-01-01T00:23:11.0936670Z</when>
        <gx:coord>12.048079 51.553997 111.05287</gx:coord>
        <when>2025-01-01T00:23:12.1026670Z</when>
        <gx:coord>12.048269 51.553944 111.03414</gx:coord>
        <when>2025-01-01T00:23:14.0926670Z</when>
        <gx:coord>12.048722 51.553814 110.76822</gx:coord>
        <when>2025-01-01T00:23:15.5306670Z</when>
        <gx:coord>12.049264 51.55365 109.57166</gx:coord>
        <when>2025-01-01T00:23:18.0936670Z</when>
        <gx:coord>12.049898 51.55347 109.319695</gx:coord>
        <when>2025-01-01T00:23:20.5306670Z</when>
        <gx:coord>12.05101 51.553173 109.06488</gx:coord>
        <when>2025-01-01T00:23:23.0926670Z</when>
        <gx:coord>12.051847 51.55297 109.06943</gx:coord>
        <when>2025-01-01T00:23:25.5306670Z</when>
        <gx:coord>12.053173 51.5526 113.56197</gx:coord>
        <when>2025-01-01T00:23:30.5296670Z</when>
        <gx:coord>12.055453 51.55191 126.8153</gx:coord>
        <when>2025-01-01T00:23:35.5306670Z</when>
        <gx:coord>12.057817 51.55126 142.21994</gx:coord>
        <when>2025-01-01T00:23:36.0916670Z</when>
        <gx:coord>12.058286 51.55113 147.28053</gx:coord>
        <when>2025-01-01T00:23:40.5306670Z</when>
        <gx:coord>12.060123 51.550583 164.64992</gx:coord>
        <when>2025-01-01T00:23:45.0966670Z</when>
        <gx:coord>12.062395 51.549877 177.98514</gx:coord>
        <when>2025-01-01T00:23:45.5306670Z</when>
        <gx:coord>12.062395 51.549877 177.98514</gx:coord>
        <when>2025-01-01T00:23:50.5306670Z</when>
        <gx:coord>12.06477 51.549194 198.44247</gx:coord>
        <when>2025-01-01T00:23:52.0946670Z</when>
        <gx:coord>12.065712 51.548935 209.86223</gx:coord>
        <when>2025-01-01T00:23:55.5306670Z</when>
        <gx:coord>12.067136 51.548527 220.22684</gx:coord>
        <when>2025-01-01T00:24:00.5306670Z</when>
        <gx:coord>12.0695505 51.547874 237.30843</gx:coord>
        <when>2025-01-01T00:24:01.0916670Z</when>
        <gx:coord>12.070031 51.547745 241.87872</gx:coord>
        <when>2025-01-01T00:24:05.5306670Z</when>
        <gx:coord>12.0719385 51.547256 264.55698</gx:coord>
        <when>2025-01-01T00:24:07.0916670Z</when>
        <gx:coord>12.072877 51.547028 276.55142</gx:coord>
        <when>2025-01-01T00:24:10.5306670Z</when>
        <gx:coord>12.074263 51.546688 296.75607</gx:coord>
        <when>2025-01-01T00:24:13.0896670Z</when>
        <gx:coord>12.075664 51.546356 309.20776</gx:coord>
        <when>2025-01-01T00:24:15.5306670Z</when>
        <gx:coord>12.076603 51.546135 313.4476</gx:coord>
        <when>2025-01-01T00:24:20.5306670Z</when>
        <gx:coord>12.078929 51.54556 325.83127</gx:coord>
        <when>2025-01-01T00:24:25.5306670Z</when>
        <gx:coord>12.081209 51.54497 337.08344</gx:coord>
        <when>2025-01-01T00:24:27.0916670Z</when>
        <gx:coord>12.082115 51.54472 342.17682</gx:coord>
        <when>2025-01-01T00:24:30.5306670Z</when>
        <gx:coord>12.083489 51.544273 348.30176</gx:coord>
        <when>2025-01-01T00:24:32.1016670Z</when>
        <gx:coord>12.083939 51.544094 349.81262</gx:coord>
        <when>2025-01-01T00:24:33.0956670Z</when>
        <gx:coord>12.084379 51.543896 349.55115</gx:coord>
        <when>2025-01-01T00:24:35.0936670Z</when>
        <gx:coord>12.085192 51.54342 350.04703</gx:coord>
        <when>2025-01-01T00:24:35.5306670Z</when>
        <gx:coord>12.085549 51.543137 351.24332</gx:coord>
        <when>2025-01-01T00:24:37.0966670Z</when>
        <gx:coord>12.085873 51.54283 351.88852</gx:coord>
        <when>2025-01-01T00:24:39.0986670Z</when>
        <gx:coord>12.086375 51.542156 355.2822</gx:coord>
        <when>2025-01-01T00:24:40.5306670Z</when>
        <gx:coord>12.086635 51.541424 358.43048</gx:coord>
        <when>2025-01-01T00:24:41.0956670Z</when>
        <gx:coord>12.086635 51.541424 358.43048</gx:coord>
        <when>2025-01-01T00:24:44.0966670Z</when>
        <gx:coord>12.086596 51.54028 361.86755</gx:coord>
        <when>2025-01-01T00:24:45.0926670Z</when>
        <gx:coord>12.086487 51.539898 361.86752</gx:coord>
        <when>2025-01-01T00:24:45.5306670Z</when>
        <gx:coord>12.086329 51.539516 360.78455</gx:coord>
        <when>2025-01-01T00:24:47.0936670Z</when>
        <gx:coord>12.0861225 51.539135 359.2346</gx:coord>
        <when>2025-01-01T00:24:50.5306670Z</when>
        <gx:coord>12.084907 51.537632 351.28595</gx:coord>
        <when>2025-01-01T00:24:52.0896670Z</when>
        <gx:coord>12.084545 51.53726 349.62402</gx:coord>
        <when>2025-01-01T00:24:53.1076670Z</when>
        <gx:coord>12.084179 51.536884 347.576</gx:coord>
        <when>2025-01-01T00:24:55.5316670Z</when>
        <gx:coord>12.083053 51.53575 347.91153</gx:coord>
        <when>2025-01-01T00:24:56.0976670Z</when>
        <gx:coord>12.082669 51.535378 347.91153</gx:coord>
        <when>2025-01-01T00:25:00.5316670Z</when>
        <gx:coord>12.081112 51.533905 357.88846</gx:coord>
        <when>2025-01-01T00:25:05.5316670Z</when>
        <gx:coord>12.079187 51.532127 359.88025</gx:coord>
        <when>2025-01-01T00:25:10.5316670Z</when>
        <gx:coord>12.077225 51.53037 352.50604</gx:coord>
        <when>2025-01-01T00:25:12.0916670Z</when>
        <gx:coord>12.076786 51.530033 351.00775</gx:coord>
        <when>2025-01-01T00:25:15.0946670Z</when>
        <gx:coord>12.075273 51.529152 351.60162</gx:coord>
        <when>2025-01-01T00:25:15.5316670Z</when>
        <gx:coord>12.074706 51.52891 353.22964</gx:coord>
        <when>2025-01-01T00:25:18.0976670Z</when>
        <gx:coord>12.073488 51.528522 355.88666</gx:coord>
        <when>2025-01-01T00:25:20.5316670Z</when>
        <gx:coord>12.071518 51.528168 355.7329</gx:coord>
        <when>2025-01-01T00:25:21.0916670Z</when>
        <gx:coord>12.071518 51.528168 355.7329</gx:coord>
        <when>2025-01-01T00:25:24.0986670Z</when>
        <gx:coord>12.069462 51.528065 351.0465</gx:coord>
        <when>2025-01-01T00:25:25.5316670Z</when>
        <gx:coord>12.068075 51.528145 350.04773</gx:coord>
        <when>2025-01-01T00:25:27.0906670Z</when>
        <gx:coord>12.067394 51.528233 350.57684</gx:coord>
        <when>2025-01-01T00:25:30.5316670Z</when>
        <gx:coord>12.064779 51.528824 348.4737</gx:coord>
        <when>2025-01-01T00:25:35.0916670Z</when>
        <gx:coord>12.062187 51.529533 346.3906</gx:coord>
        <when>2025-01-01T00:25:35.5316670Z</when>
        <gx:coord>12.061539 51.52972 345.81018</gx:coord>
        <when>2025-01-01T00:25:40.5316670Z</when>
        <gx:coord>12.058346 51.53063 351.57608</gx:coord>
        <when>2025-01-01T00:25:43.0966670Z</when>
        <gx:coord>12.056476 51.531178 352.20047</gx:coord>
        <when>2025-01-01T00:25:45.5316670Z</when>
        <gx:coord>12.055243 51.531544 352.55368</gx:coord>
        <when>2025-01-01T00:25:50.5316670Z</when>
        <gx:coord>12.052138 51.532433 349.80545</gx:coord>
        <when>2025-01-01T00:25:55.5316670Z</when>
        <gx:coord>12.049092 51.533302 358.6338</gx:coord>
        <when>2025-01-01T00:26:00.5306670Z</when>
        <gx:coord>12.046063 51.534153 362.4518</gx:coord>
        <when>2025-01-01T00:26:05.0956670Z</when>
        <gx:coord>12.043007 51.53497 374.66895</gx:coord>
        <when>2025-01-01T00:26:05.5316670Z</when>
        <gx:coord>12.043007 51.53497 374.66895</gx:coord>
        <when>2025-01-01T00:26:10.5316670Z</when>
        <gx:coord>12.039909 51.53575 387.06958</gx:coord>
        <when>2025-01-01T00:26:15.5306670Z</when>
        <gx:coord>12.036735 51.53655 392.7944</gx:coord>
        <when>2025-01-01T00:26:20.5316670Z</when>
        <gx:coord>12.033549 51.537346 397.9328</gx:coord>
        <when>2025-01-01T00:26:23.0976670Z</when>
        <gx:coord>12.031709 51.53782 400.43286</gx:coord>
        <when>2025-01-01T00:26:25.5316670Z</when>
        <gx:coord>12.030504 51.538116 397.7942</gx:coord>
        <when>2025-01-01T00:26:29.0956670Z</when>
        <gx:coord>12.02873 51.53856 390.2552</gx:coord>
        <when>2025-01-01T00:26:30.5316670Z</when>
        <gx:coord>12.027575 51.538857 386.0664</gx:coord>
        <when>2025-01-01T00:26:35.5316670Z</when>
        <gx:coord>12.024796 51.539574 380.41235</gx:coord>
        <when>2025-01-01T00:26:40.5316670Z</when>
        <gx:coord>12.0220995 51.540268 371.25674</gx:coord>
        <when>2025-01-01T00:26:45.5316670Z</when>
        <gx:coord>12.019444 51.540928 362.43088</gx:coord>
        <when>2025-01-01T00:26:50.5326670Z</when>
        <gx:coord>12.0168495 51.54162 355.36816</gx:coord>
        <when>2025-01-01T00:26:51.0896670Z</when>
        <gx:coord>12.0168495 51.54162 355.36816</gx:coord>
        <when>2025-01-01T00:26:55.5326670Z</when>
        <gx:coord>12.014315 51.542282 347.77097</gx:coord>
        <when>2025-01-01T00:27:00.5326670Z</when>
        <gx:coord>12.011847 51.54293 352.3526</gx:coord>
        <when>2025-01-01T00:27:05.5326670Z</when>
        <gx:coord>12.009559 51.543625 352.3827</gx:coord>
        <when>2025-01-01T00:27:10.5326670Z</when>
        <gx:coord>12.00735 51.54431 345.1185</gx:coord>
        <when>2025-01-01T00:27:11.1016670Z</when>
        <gx:coord>12.006927 51.544456 345.1185</gx:coord>
        <when>2025-01-01T00:27:11.1026670Z</when>
        <gx:coord>12.006927 51.544456 342.67703</gx:coord>
        <when>2025-01-01T00:27:12.0926670Z</when>
        <gx:coord>12.006927 51.544456 342.67703</gx:coord>
        <when>2025-01-01T00:27:13.1016670Z</when>
        <gx:coord>12.006523 51.544613 339.16177</gx:coord>
        <when>2025-01-01T00:27:15.0956670Z</when>
        <gx:coord>12.005789 51.544994 332.94965</gx:coord>
        <when>2025-01-01T00:27:15.5326670Z</when>
        <gx:coord>12.005473 51.54522 330.1441</gx:coord>
        <when>2025-01-01T00:27:17.0976670Z</when>
        <gx:coord>12.005191 51.54546 326.52365</gx:coord>
        <when>2025-01-01T00:27:19.0916670Z</when>
        <gx:coord>12.004773 51.545998 320.22192</gx:coord>
        <when>2025-01-01T00:27:20.5326670Z</when>
        <gx:coord>12.004523 51.546574 313.44473</gx:coord>
        <when>2025-01-01T00:27:21.0936670Z</when>
        <gx:coord>12.004442 51.546867 309.66165</gx:coord>
        <when>2025-01-01T00:27:22.0936670Z</when>
        <gx:coord>12.004442 51.546867 309.66165</gx:coord>
        <when>2025-01-01T00:27:25.5326670Z</when>
        <gx:coord>12.004328 51.548073 296.03036</gx:coord>
        <when>2025-01-01T00:27:26.0986670Z</when>
        <gx:coord>12.004328 51.548073 296.03036</gx:coord>
        <when>2025-01-01T00:27:30.5316670Z</when>
        <gx:coord>12.004617 51.549606 283.7816</gx:coord>
        <when>2025-01-01T00:27:31.0926670Z</when>
        <gx:coord>12.004617 51.549606 283.7816</gx:coord>
        <when>2025-01-01T00:27:34.0966670Z</when>
        <gx:coord>12.005257 51.55082 277.84344</gx:coord>
        <when>2025-01-01T00:27:35.5326670Z</when>
        <gx:coord>12.005463 51.551113 275.59576</gx:coord>
        <when>2025-01-01T00:27:36.0946670Z</when>
        <gx:coord>12.005463 51.551113 275.59576</gx:coord>
        <when>2025-01-01T00:27:40.5326670Z</when>
        <gx:coord>12.006569 51.55255 273.65643</gx:coord>
        <when>2025-01-01T00:27:45.5326670Z</when>
        <gx:coord>12.007701 51.553894 273.6094</gx:coord>
        <when>2025-01-01T00:27:50.5326670Z</when>
        <gx:coord>12.008827 51.555153 274.47</gx:coord>
        <when>2025-01-01T00:27:55.5326670Z</when>
        <gx:coord>12.009927 51.55636 266.94543</gx:coord>
        <when>2025-01-01T00:28:00.5326670Z</when>
        <gx:coord>12.011097 51.557564 263.52396</gx:coord>
        <when>2025-01-01T00:28:05.5326670Z</when>
        <gx:coord>12.012314 51.558758 260.8693</gx:coord>
        <when>2025-01-01T00:28:06.0946670Z</when>
        <gx:coord>12.012314 51.558758 260.8693</gx:coord>
        <when>2025-01-01T00:28:10.5326670Z</when>
        <gx:coord>12.013711 51.559967 257.0789</gx:coord>
        <when>2025-01-01T00:28:13.0976670Z</when>
        <gx:coord>12.014615 51.560688 257.17728</gx:coord>
        <when>2025-01-01T00:28:15.5326670Z</when>
        <gx:coord>12.015256 51.56116 256.4591</gx:coord>
        <when>2025-01-01T00:28:17.0936670Z</when>
        <gx:coord>12.015598 51.561382 256.37784</gx:coord>
        <when>2025-01-01T00:28:20.0916670Z</when>
        <gx:coord>12.016776 51.56195 256.5467</gx:coord>
        <when>2025-01-01T00:28:20.5326670Z</when>
        <gx:coord>12.017216 51.5621 255.99976</gx:coord>
        <when>2025-01-01T00:28:22.0996670Z</when>
        <gx:coord>12.017683 51.56222 255.30956</gx:coord>
        <when>2025-01-01T00:28:24.0936670Z</when>
        <gx:coord>12.018684 51.562344 253.87814</gx:coord>
        <when>2025-01-01T00:28:25.5326670Z</when>
        <gx:coord>12.019716 51.562325 252.08167</gx:coord>
        <when>2025-01-01T00:28:26.0926670Z</when>
        <gx:coord>12.019716 51.562325 252.08167</gx:coord>
        <when>2025-01-01T00:28:28.0946670Z</when>
        <gx:coord>12.020739 51.562164 248.93112</gx:coord>
        <when>2025-01-01T00:28:29.0916670Z</when>
        <gx:coord>12.021718 51.5619 245.04535</gx:coord>
        <when>2025-01-01T00:28:30.5326670Z</when>
        <gx:coord>12.022196 51.56174 242.8826</gx:coord>
        <when>2025-01-01T00:28:32.0966670Z</when>
        <gx:coord>12.022669 51.561573 240.13826</gx:coord>
        <when>2025-01-01T00:28:34.0916670Z</when>
        <gx:coord>12.023616 51.561222 233.75818</gx:coord>
        <when>2025-01-01T00:28:35.5326670Z</when>
        <gx:coord>12.024581 51.56086 230.17867</gx:coord>
        <when>2025-01-01T00:28:40.5326670Z</when>
        <gx:coord>12.027026 51.560017 222.03355</gx:coord>
        <when>2025-01-01T00:28:43.0916670Z</when>
        <gx:coord>12.028529 51.55957 211.87788</gx:coord>
        <when>2025-01-01T00:28:45.5326670Z</when>
        <gx:coord>12.029543 51.559288 205.7983</gx:coord>
        <when>2025-01-01T00:28:50.5326670Z</when>
        <gx:coord>12.032048 51.5586 194.20981</gx:coord>
        <when>2025-01-01T00:28:55.5336670Z</when>
        <gx:coord>12.034424 51.557915 186.32097</gx:coord>
        <when>2025-01-01T00:28:58.0936670Z</when>
        <gx:coord>12.035784 51.557518 180.36815</gx:coord>
        <when>2025-01-01T00:29:00.5336670Z</when>
        <gx:coord>12.036676 51.557262 174.9075</gx:coord>
        <when>2025-01-01T00:29:02.0956670Z</when>
        <gx:coord>12.037117 51.55714 172.39362</gx:coord>
        <when>2025-01-01T00:29:05.5336670Z</when>
        <gx:coord>12.038858 51.55665 159.86688</gx:coord>
        <when>2025-01-01T00:29:09.1026670Z</when>
        <gx:coord>12.040566 51.556152 151.81158</gx:coord>
        <when>2025-01-01T00:29:10.0946670Z</when>
        <gx:coord>12.040986 51.556026 147.51875</gx:coord>
        <when>2025-01-01T00:29:10.5326670Z</when>
        <gx:coord>12.040986 51.556026 147.51875</gx:coord>
        <when>2025-01-01T00:29:15.5336670Z</when>
        <gx:coord>12.043074 51.555447 133.42014</gx:coord>
        <when>2025-01-01T00:29:20.5336670Z</when>
        <gx:coord>12.045127 51.554855 122.48109</gx:coord>
        <when>2025-01-01T00:29:23.0916670Z</when>
        <gx:coord>12.046337 51.55451 116.30085</gx:coord>
        <when>2025-01-01T00:29:25.5336670Z</when>
        <gx:coord>12.047121 51.55428 113.29771</gx:coord>
        <when>2025-01-01T00:29:28.0926670Z</when>
        <gx:coord>12.047872 51.554066 112.556435</gx:coord>
        <when>2025-01-01T00:29:30.5336670Z</when>
        <gx:coord>12.04892 51.55376 111.31431</gx:coord>
        <when>2025-01-01T00:29:35.0996670Z</when>
        <gx:coord>12.050183 51.5534 109.5118</gx:coord>
        <when>2025-01-01T00:29:35.5336670Z</when>
        <gx:coord>12.050475 51.55331 109.43486</gx:coord>
        <when>2025-01-01T00:29:40.5336670Z</when>
        <gx:coord>12.051886 51.552925 108.5055</gx:coord>
        <when>2025-01-01T00:29:45.5336670Z</when>
        <gx:coord>12.05324 51.55256 107.83118</gx:coord>
        <when>2025-01-01T00:29:50.5336670Z</when>
        <gx:coord>12.054515 51.552208 107.38272</gx:coord>
        <when>2025-01-01T00:29:55.5336670Z</when>
        <gx:coord>12.055727 51.551872 107.03531</gx:coord>
        <when>2025-01-01T00:29:57.0906670Z</when>
        <gx:coord>12.055961 51.551815 107.00852</gx:coord>
        <when>2025-01-01T00:30:00.5336670Z</when>
        <gx:coord>12.056841 51.551575 107.03143</gx:coord>
        <when>2025-01-01T00:30:05.5336670Z</when>
        <gx:coord>12.057759 51.5513 107.07892</gx:coord>
        <when>2025-01-01T00:30:06.0926670Z</when>
        <gx:coord>12.057759 51.5513 107.07892</gx:coord>
        <when>2025-01-01T00:30:10.5336670Z</when>
        <gx:coord>12.058368 51.551113 107.04994</gx:coord>
        <when>2025-01-01T00:30:12.0906670Z</when>
        <gx:coord>12.058448 51.551086 107.07679</gx:coord>
        <when>2025-01-01T00:30:13.0926670Z</when>
        <gx:coord>12.05851 51.551052 107.067604</gx:coord>
        <when>2025-01-01T00:30:14.0936670Z</when>
        <gx:coord>12.058555 51.551014 106.981186</gx:coord>
        <when>2025-01-01T00:30:15.0896670Z</when>
        <gx:coord>12.058582 51.55097 106.88932</gx:coord>
        <when>2025-01-01T00:30:15.5336670Z</when>
        <gx:coord>12.058598 51.550922 106.86829</gx:coord>
        <when>2025-01-01T00:30:16.0966670Z</when>
        <gx:coord>12.058598 51.550922 106.86829</gx:coord>
        <when>2025-01-01T00:30:18.0946670Z</when>
        <gx:coord>12.058586 51.550827 106.815094</gx:coord>
        <when>2025-01-01T00:30:20.5336670Z</when>
        <gx:coord>12.058523 51.550682 106.77756</gx:coord>
        <when>2025-01-01T00:30:22.0906670Z</when>
        <gx:coord>12.058498 51.550636 106.768684</gx:coord>
        <when>2025-01-01T00:30:25.5336670Z</when>
        <gx:coord>12.058439 51.550514 106.83374</gx:coord>
        <when>2025-01-01T00:30:27.0936670Z</when>
        <gx:coord>12.058425 51.55048 106.82681</gx:coord>
        <when>2025-01-01T00:30:30.5336670Z</when>
        <gx:coord>12.05835 51.550297 106.855194</gx:coord>
        <when>2025-01-01T00:30:35.5336670Z</when>
        <gx:coord>12.05821 51.549984 106.881775</gx:coord>
        <when>2025-01-01T00:30:40.5336670Z</when>
        <gx:coord>12.058064 51.549644 106.804115</gx:coord>
        <when>2025-01-01T00:30:45.5336670Z</when>
        <gx:coord>12.0579405 51.54936 106.77005</gx:coord>
        <when>2025-01-01T00:30:50.5336670Z</when>
        <gx:coord>12.057871 51.549168 106.71572</gx:coord>
        <when>2025-01-01T00:30:51.0926670Z</when>
        <gx:coord>12.057871 51.549168 106.71572</gx:coord>
        <when>2025-01-01T00:30:52.0936670Z</when>
        <gx:coord>12.057885 51.549137 106.743935</gx:coord>
        <when>2025-01-01T00:30:53.1006670Z</when>
        <gx:coord>12.057914 51.549107 106.719795</gx:coord>
        <when>2025-01-01T00:30:54.0916670Z</when>
        <gx:coord>12.057956 51.54908 106.73507</gx:coord>
        <when>2025-01-01T00:30:55.5346670Z</when>
        <gx:coord>12.058062 51.549034 106.8274</gx:coord>
        <when>2025-01-01T00:30:56.0986670Z</when>
        <gx:coord>12.058062 51.549034 106.8274</gx:coord>
        <when>2025-01-01T00:31:00.5346670Z</when>
        <gx:coord>12.058362 51.548943 106.91701</gx:coord>
        <when>2025-01-01T00:31:03.0916670Z</when>
        <gx:coord>12.058457 51.548893 106.86409</gx:coord>
        <when>2025-01-01T00:31:04.0916670Z</when>
        <gx:coord>12.058495 51.548862 106.91927</gx:coord>
        <when>2025-01-01T00:31:05.5346670Z</when>
        <gx:coord>12.058541 51.5488 106.992905</gx:coord>
        <when>2025-01-01T00:31:06.0926670Z</when>
        <gx:coord>12.058541 51.5488 106.992905</gx:coord>
        <when>2025-01-01T00:31:08.0906670Z</when>
        <gx:coord>12.058565 51.548744 107.12102</gx:coord>
        <when>2025-01-01T00:31:10.5346670Z</when>
        <gx:coord>12.058567 51.54864 107.16189</gx:coord>
        <when>2025-01-01T00:31:11.0946670Z</when>
        <gx:coord>12.058567 51.54864 107.16189</gx:coord>
        <when>2025-01-01T00:31:15.0926670Z</when>
        <gx:coord>12.05851 51.54851 107.11914</gx:coord>
        <when>2025-01-01T00:31:15.5336670Z</when>
        <gx:coord>12.058493 51.548485 107.20166</gx:coord>
        <when>2025-01-01T00:31:19.0936670Z</when>
        <gx:coord>12.058427 51.54841 107.21374</gx:coord>
        <when>2025-01-01T00:31:20.5346670Z</when>
        <gx:coord>12.058377 51.548363 107.40151</gx:coord>
        <when>2025-01-01T00:31:25.0916670Z</when>
        <gx:coord>12.058262 51.54827 107.642</gx:coord>
        <when>2025-01-01T00:31:25.5346670Z</when>
        <gx:coord>12.058239 51.54826 107.70437</gx:coord>
        <when>2025-01-01T00:31:27.0946670Z</when>
        <gx:coord>12.058216 51.548252 107.718254</gx:coord>
        <when>2025-01-01T00:31:30.1046670Z</when>
        <gx:coord>12.058142 51.54826 107.77431</gx:coord>
        <when>2025-01-01T00:31:30.5346670Z</when>
        <gx:coord>12.058142 51.54826 107.77431</gx:coord>
        <when>2025-01-01T00:31:31.0916670Z</when>
        <gx:coord>12.058142 51.54826 107.77431</gx:coord>
        <when>2025-01-01T00:31:35.5336670Z</when>
        <gx:coord>12.058137 51.548264 107.76111</gx:coord>
        <when>2025-01-01T00:31:40.5346670Z</when>
        <gx:coord>12.058135 51.548264 107.7613</gx:coord>
        <when>2025-01-01T00:31:45.5346670Z</when>
        <gx:coord>12.058133 51.548264 107.70419</gx:coord>
        <when>2025-01-01T00:31:50.5346670Z</when>
        <gx:coord>12.058131 51.548264 107.55981</gx:coord>
        <when>2025-01-01T00:31:55.5346670Z</when>
        <gx:coord>12.05813 51.548267 107.65325</gx:coord>
        <when>2025-01-01T00:32:00.5346670Z</when>
        <gx:coord>12.058128 51.548267 107.65022</gx:coord>
        <when>2025-01-01T00:32:02.5796670Z</when>
        <gx:coord>12.058129 51.548267 107.68418</gx:coord>
        <coordinates />
      </gx:Track>
    </Placemark>
    <Placemark>
      <name>Takeoff: 2025-01-01</name>
      <styleUrl>#downArrowIcon</styleUrl>
      <Point>
        <altitudeMode>relativeToGround</altitudeMode>
        <coordinates>12.060117,51.55063,20</coordinates>
      </Point>
    </Placemark>
    <Placemark>
      <name>Landing: 2025-01-01</name>
      <styleUrl>#downArrowIcon</styleUrl>
      <Point>
        <altitudeMode>relativeToGround</altitudeMode>
        <coordinates>12.047096,51.554165,20</coordinates>
      </Point>
    </Placemark>
    <Placemark>
      <name>Takeoff: 2025-01-01</name>
      <styleUrl>#downArrowIcon</styleUrl>
      <Point>
        <altitudeMode>relativeToGround</altitudeMode>
        <coordinates>12.048269,51.553944,20</coordinates>
      </Point>
    </Placemark>
    <Placemark>
      <name>Landing: 2025-01-01</name>
      <styleUrl>#downArrowIcon</styleUrl>
      <Point>
        <altitudeMode>relativeToGround</altitudeMode>
        <coordinates>12.058425,51.55048,20</coordinates>
      </Point>
    </Placemark>
    <Placemark>
      <name>Log Stop: 2025-01-01</name>
      <styleUrl>#downArrowIcon</styleUrl>
      <Point>
        <altitudeMode>relativeToGround</altitudeMode>
        <coordinates>12.058129,51.548267,20</coordinates>
      </Point>
    </Placemark>
  </Document>
</kml>
