<?xml version="1.0" encoding="utf-8"?>
<kml xmlns:gx="http://www.google.com/kml/ext/2.2" creator="kml-heatmap" xmlns="http://www.opengis.net/kml/2.2">
  <Document>
    <name>SkyDemon Track Log</name>
    <Style id="skydemonLogStyle">
      <LineStyle>
        <color>7f00ffff</color>
        <width>4</width>
      </LineStyle>
      <PolyStyle>
        <color>7fffa400</color>
      </PolyStyle>
    </Style>
    <Style id="downArrowIcon">
      <IconStyle>
        <href>http://maps.google.com/mapfiles/kml/pal4/icon28.png</href>
      </IconStyle>
    </Style>
    <Placemark>
      <name>Log Start: 2025-01-01</name>
      <styleUrl>#downArrowIcon</styleUrl>
      <Point>
        <altitudeMode>relativeToGround</altitudeMode>
        <coordinates>12.060456,51.548023,20</coordinates>
      </Point>
    </Placemark>
    <Placemark>
      <name>EDAQ Halle-Oppin - EDAQ Halle-Oppin</name>
      <styleUrl>#skydemonLogStyle</styleUrl>
      <gx:Track>
        <extrude>1</extrude>
        <altitudeMode>absolute</altitudeMode>
        <when>2025-01-01T00:00:00.1291070Z</when>
        <gx:coord>12.060456 51.548023 116.90401</gx:coord>
        <when>2025-01-01T00:00:05.1301070Z</when>
        <gx:coord>12.060456 51.548023 116.90401</gx:coord>
        <when>2025-01-01T00:00:10.1301070Z</when>
        <gx:coord>12.060456 51.548023 116.90401</gx:coord>
        <when>2025-01-01T00:00:15.1301070Z</when>
        <gx:coord>12.060456 51.548023 116.90401</gx:coord>
        <when>2025-01-01T00:00:20.1301070Z</when>
        <gx:coord>12.060456 51.548023 116.90401</gx:coord>
        <when>2025-01-01T00:00:25.1301070Z</when>
        <gx:coord>12.060434 51.548023 118.428</gx:coord>
        <when>2025-01-01T00:00:30.1301070Z</when>
        <gx:coord>12.060434 51.548023 116.90401</gx:coord>
        <when>2025-01-01T00:00:35.1301070Z</when>
        <gx:coord>12.060456 51.548 116.90401</gx:coord>
        <when>2025-01-01T00:00:40.1301070Z</when>
        <gx:coord>12.060434 51.548 116.90401</gx:coord>
        <when>2025-01-01T00:00:45.1301070Z</when>
        <gx:coord>12.060456 51.548 116.90401</gx:coord>
        <when>2025-01-01T00:00:50.1301070Z</when>
        <gx:coord>12.060456 51.548 116.90401</gx:coord>
        <when>2025-01-01T00:00:55.1301070Z</when>
        <gx:coord>12.060456 51.548 116.90401</gx:coord>
        <when>2025-01-01T00:01:00.1301070Z</when>
        <gx:coord>12.060456 51.548023 116.90401</gx:coord>
        <when>2025-01-01T00:01:05.1291070Z</when>
        <gx:coord>12.060434 51.548023 116.90401</gx:coord>
        <when>2025-01-01T00:01:07.1081070Z</when>
        <gx:coord>12.060434 51.548023 116.90401</gx:coord>
        <when>2025-01-01T00:01:10.1301070Z</when>
        <gx:coord>12.06037 51.548046 116.90401</gx:coord>
        <when>2025-01-01T00:01:11.1101070Z</when>
        <gx:coord>12.06037 51.548046 116.90401</gx:coord>
        <when>2025-01-01T00:01:15.1181070Z</when>
        <gx:coord>12.060221 51.548088 116.90401</gx:coord>
        <when>2025-01-01T00:01:15.1331070Z</when>
        <gx:coord>12.060156 51.548088 116.90401</gx:coord>
        <when>2025-01-01T00:01:20.1341070Z</when>
        <gx:coord>12.059877 51.54813 116.90401</gx:coord>
        <when>2025-01-01T00:01:25.1161070Z</when>
        <gx:coord>12.059662 51.548153 116.90401</gx:coord>
        <when>2025-01-01T00:01:25.1411070Z</when>
        <gx:coord>12.059641 51.548172 116.90401</gx:coord>
        <when>2025-01-01T00:01:27.0931070Z</when>
        <gx:coord>12.05962 51.548172 116.90401</gx:coord>
        <when>2025-01-01T00:01:28.0971070Z</when>
        <gx:coord>12.059598 51.548172 116.90401</gx:coord>
        <when>2025-01-01T00:01:29.0911070Z</when>
        <gx:coord>12.059576 51.548195 116.90401</gx:coord>
        <when>2025-01-01T00:01:30.1091070Z</when>
        <gx:coord>12.059555 51.548218 116.90401</gx:coord>
        <when>2025-01-01T00:01:30.1351070Z</when>
        <gx:coord>12.059555 51.548237 116.90401</gx:coord>
        <when>2025-01-01T00:01:31.1181070Z</when>
        <gx:coord>12.059555 51.548237 116.90401</gx:coord>
        <when>2025-01-01T00:01:32.1171070Z</when>
        <gx:coord>12.059555 51.54826 116.90401</gx:coord>
        <when>2025-01-01T00:01:35.1411070Z</when>
        <gx:coord>12.059598 51.54839 116.90401</gx:coord>
        <when>2025-01-01T00:01:40.1371070Z</when>
        <gx:coord>12.059684 51.54858 115.38001</gx:coord>
        <when>2025-01-01T00:01:45.1181070Z</when>
        <gx:coord>12.059727 51.54871 115.38001</gx:coord>
        <when>2025-01-01T00:01:45.1391070Z</when>
        <gx:coord>12.059748 51.548733 115.38001</gx:coord>
        <when>2025-01-01T00:01:47.1171070Z</when>
        <gx:coord>12.059748 51.54875 115.38001</gx:coord>
        <when>2025-01-01T00:01:48.1091070Z</when>
        <gx:coord>12.059748 51.54875 115.38001</gx:coord>
        <when>2025-01-01T00:01:49.0931070Z</when>
        <gx:coord>12.059748 51.548775 115.38001</gx:coord>
        <when>2025-01-01T00:01:50.1161070Z</when>
        <gx:coord>12.059727 51.548798 115.38001</gx:coord>
        <when>2025-01-01T00:01:50.1321070Z</when>
        <gx:coord>12.059706 51.548817 115.38001</gx:coord>
        <when>2025-01-01T00:01:51.0971070Z</when>
        <gx:coord>12.059706 51.548817 115.38001</gx:coord>
        <when>2025-01-01T00:01:55.1321070Z</when>
        <gx:coord>12.059426 51.54886 115.38001</gx:coord>
        <when>2025-01-01T00:01:58.1031070Z</when>
        <gx:coord>12.059298 51.54888 115.38001</gx:coord>
        <when>2025-01-01T00:02:00.1311070Z</when>
        <gx:coord>12.059061 51.548923 115.38001</gx:coord>
        <when>2025-01-01T00:02:05.1331070Z</when>
        <gx:coord>12.058632 51.54899 116.90401</gx:coord>
        <when>2025-01-01T00:02:10.1331070Z</when>
        <gx:coord>12.058268 51.54903 116.90401</gx:coord>
        <when>2025-01-01T00:02:15.1191070Z</when>
        <gx:coord>12.058031 51.549076 116.90401</gx:coord>
        <when>2025-01-01T00:02:15.1371070Z</when>
        <gx:coord>12.057989 51.549095 115.38001</gx:coord>
        <when>2025-01-01T00:02:17.1221070Z</when>
        <gx:coord>12.057945 51.549118 116.90401</gx:coord>
        <when>2025-01-01T00:02:18.1091070Z</when>
        <gx:coord>12.057924 51.54914 116.90401</gx:coord>
        <when>2025-01-01T00:02:19.0951070Z</when>
        <gx:coord>12.057903 51.54916 116.90401</gx:coord>
        <when>2025-01-01T00:02:20.1091070Z</when>
        <gx:coord>12.057881 51.549183 116.90401</gx:coord>
        <when>2025-01-01T00:02:20.1291070Z</when>
        <gx:coord>12.057881 51.549202 116.90401</gx:coord>
        <when>2025-01-01T00:02:21.1041070Z</when>
        <gx:coord>12.057881 51.549202 116.90401</gx:coord>
        <when>2025-01-01T00:02:23.1141070Z</when>
        <gx:coord>12.057903 51.549267 115.38001</gx:coord>
        <when>2025-01-01T00:02:25.1321070Z</when>
        <gx:coord>12.057945 51.549397 115.38001</gx:coord>
        <when>2025-01-01T00:02:30.1411070Z</when>
        <gx:coord>12.058075 51.54959 115.38001</gx:coord>
        <when>2025-01-01T00:02:35.1431070Z</when>
        <gx:coord>12.058161 51.549828 115.38001</gx:coord>
        <when>2025-01-01T00:02:40.1401070Z</when>
        <gx:coord>12.058268 51.550148 115.38001</gx:coord>
        <when>2025-01-01T00:02:45.1341070Z</when>
        <gx:coord>12.058396 51.550426 115.38001</gx:coord>
        <when>2025-01-01T00:02:50.1291070Z</when>
        <gx:coord>12.05846 51.550575 115.38001</gx:coord>
        <when>2025-01-01T00:02:52.1141070Z</when>
        <gx:coord>12.05846 51.550575 115.38001</gx:coord>
        <when>2025-01-01T00:02:55.1301070Z</when>
        <gx:coord>12.05846 51.550575 115.38001</gx:coord>
        <when>2025-01-01T00:03:00.1301070Z</when>
        <gx:coord>12.05846 51.550575 115.38001</gx:coord>
        <when>2025-01-01T00:03:05.1301070Z</when>
        <gx:coord>12.05846 51.550575 115.38001</gx:coord>
        <when>2025-01-01T00:03:10.1301070Z</when>
        <gx:coord>12.05846 51.550575 115.38001</gx:coord>
        <when>2025-01-01T00:03:15.1291070Z</when>
        <gx:coord>12.05846 51.550575 115.38001</gx:coord>
        <when>2025-01-01T00:03:20.1301070Z</when>
        <gx:coord>12.05846 51.550575 115.38001</gx:coord>
        <when>2025-01-01T00:03:25.1291070Z</when>
        <gx:coord>12.05846 51.550575 115.38001</gx:coord>
        <when>2025-01-01T00:03:30.1301070Z</when>
        <gx:coord>12.05846 51.550575 115.38001</gx:coord>
        <when>2025-01-01T00:03:35.1291070Z</when>
        <gx:coord>12.05846 51.550575 115.38001</gx:coord>
        <when>2025-01-01T00:03:40.1291070Z</when>
        <gx:coord>12.05846 51.550575 115.38001</gx:coord>
        <when>2025-01-01T00:03:45.1301070Z</when>
        <gx:coord>12.05846 51.550575 115.38001</gx:coord>
        <when>2025-01-01T00:03:50.1301070Z</when>
        <gx:coord>12.05846 51.550575 115.38001</gx:coord>
        <when>2025-01-01T00:03:55.1301070Z</when>
        <gx:coord>12.05846 51.550575 115.38001</gx:coord>
        <when>2025-01-01T00:04:00.1301070Z</when>
        <gx:coord>12.05846 51.550575 115.38001</gx:coord>
        <when>2025-01-01T00:04:05.1301070Z</when>
        <gx:coord>12.05846 51.550575 115.38001</gx:coord>
        <when>2025-01-01T00:04:10.1301070Z</when>
        <gx:coord>12.05846 51.550575 115.38001</gx:coord>
        <when>2025-01-01T00:04:15.1301070Z</when>
        <gx:coord>12.05846 51.550575 115.38001</gx:coord>
        <when>2025-01-01T00:04:20.1301070Z</when>
        <gx:coord>12.05846 51.550575 115.38001</gx:coord>
        <when>2025-01-01T00:04:25.1301070Z</when>
        <gx:coord>12.05846 51.550575 115.38001</gx:coord>
        <when>2025-01-01T00:04:30.1301070Z</when>
        <gx:coord>12.05846 51.550575 115.38001</gx:coord>
        <when>2025-01-01T00:04:35.1301070Z</when>
        <gx:coord>12.05846 51.550575 115.38001</gx:coord>
        <when>2025-01-01T00:04:40.1301070Z</when>
        <gx:coord>12.05846 51.550575 115.38001</gx:coord>
        <when>2025-01-01T00:04:45.1301070Z</when>
        <gx:coord>12.05846 51.550575 115.38001</gx:coord>
        <when>2025-01-01T00:04:50.1301070Z</when>
        <gx:coord>12.05846 51.550575 115.38001</gx:coord>
        <when>2025-01-01T00:04:55.1301070Z</when>
        <gx:coord>12.05846 51.550575 115.38001</gx:coord>
        <when>2025-01-01T00:05:00.1301070Z</when>
        <gx:coord>12.05846 51.550575 115.38001</gx:coord>
        <when>2025-01-01T00:05:05.1301070Z</when>
        <gx:coord>12.05846 51.550575 115.38001</gx:coord>
        <when>2025-01-01T00:05:10.1301070Z</when>
        <gx:coord>12.05846 51.550575 116.90401</gx:coord>
        <when>2025-01-01T00:05:15.1301070Z</when>
        <gx:coord>12.05846 51.550575 116.90401</gx:coord>
        <when>2025-01-01T00:05:20.1301070Z</when>
        <gx:coord>12.05846 51.550575 116.90401</gx:coord>
        <when>2025-01-01T00:05:25.1291070Z</when>
        <gx:coord>12.05846 51.550575 116.90401</gx:coord>
        <when>2025-01-01T00:05:30.1291070Z</when>
        <gx:coord>12.05846 51.550575 116.90401</gx:coord>
        <when>2025-01-01T00:05:35.1291070Z</when>
        <gx:coord>12.05846 51.550575 116.90401</gx:coord>
        <when>2025-01-01T00:05:40.1301070Z</when>
        <gx:coord>12.05846 51.550575 115.38001</gx:coord>
        <when>2025-01-01T00:05:45.1301070Z</when>
        <gx:coord>12.05846 51.550575 116.90401</gx:coord>
        <when>2025-01-01T00:05:50.1301070Z</when>
        <gx:coord>12.05846 51.550575 115.38001</gx:coord>
        <when>2025-01-01T00:05:55.1301070Z</when>
        <gx:coord>12.05846 51.550575 115.38001</gx:coord>
        <when>2025-01-01T00:06:00.1291070Z</when>
        <gx:coord>12.05846 51.550575 115.38001</gx:coord>
        <when>2025-01-01T00:06:05.1291070Z</when>
        <gx:coord>12.05846 51.550575 116.90401</gx:coord>
        <when>2025-01-01T00:06:10.1291070Z</when>
        <gx:coord>12.05846 51.550575 116.90401</gx:coord>
        <when>2025-01-01T00:06:15.1301070Z</when>
        <gx:coord>12.05846 51.550575 116.90401</gx:coord>
        <when>2025-01-01T00:06:20.1301070Z</when>
        <gx:coord>12.05846 51.550575 116.90401</gx:coord>
        <when>2025-01-01T00:06:25.1301070Z</when>
        <gx:coord>12.05846 51.550575 116.90401</gx:coord>
        <when>2025-01-01T00:06:30.1301070Z</when>
        <gx:coord>12.05846 51.550575 116.90401</gx:coord>
        <when>2025-01-01T00:06:35.1301070Z</when>
        <gx:coord>12.05846 51.550575 116.90401</gx:coord>
        <when>2025-01-01T00:06:40.1301070Z</when>
        <gx:coord>12.05846 51.550575 116.90401</gx:coord>
        <when>2025-01-01T00:06:45.1301070Z</when>
        <gx:coord>12.05846 51.550575 116.90401</gx:coord>
        <when>2025-01-01T00:06:50.1301070Z</when>
        <gx:coord>12.05846 51.550575 116.90401</gx:coord>
        <when>2025-01-01T00:06:55.1301070Z</when>
        <gx:coord>12.05846 51.550575 116.90401</gx:coord>
        <when>2025-01-01T00:07:00.1301070Z</when>
        <gx:coord>12.05846 51.550575 116.90401</gx:coord>
        <when>2025-01-01T00:07:05.1301070Z</when>
        <gx:coord>12.05846 51.550575 116.90401</gx:coord>
        <when>2025-01-01T00:07:10.1301070Z</when>
        <gx:coord>12.05846 51.550575 116.90401</gx:coord>
        <when>2025-01-01T00:07:15.1321070Z</when>
        <gx:coord>12.058504 51.550663 116.90401</gx:coord>
        <when>2025-01-01T00:07:20.1421070Z</when>
        <gx:coord>12.058546 51.55077 116.90401</gx:coord>
        <when>2025-01-01T00:07:24.1161070Z</when>
        <gx:coord>12.058611 51.550877 116.90401</gx:coord>
        <when>2025-01-01T00:07:25.1301070Z</when>
        <gx:coord>12.058676 51.55092 116.90401</gx:coord>
        <when>2025-01-01T00:07:26.1191070Z</when>
        <gx:coord>12.058676 51.55092 116.90401</gx:coord>
        <when>2025-01-01T00:07:27.1011070Z</when>
        <gx:coord>12.058718 51.55094 116.90401</gx:coord>
        <when>2025-01-01T00:07:29.1121070Z</when>
        <gx:coord>12.058804 51.550964 116.90401</gx:coord>
        <when>2025-01-01T00:07:30.1181070Z</when>
        <gx:coord>12.058868 51.550964 116.90401</gx:coord>
        <when>2025-01-01T00:07:30.1401070Z</when>
        <gx:coord>12.058954 51.550964 116.90401</gx:coord>
        <when>2025-01-01T00:07:32.1211070Z</when>
        <gx:coord>12.059019 51.55094 116.90401</gx:coord>
        <when>2025-01-01T00:07:32.1211070Z</when>
        <gx:coord>12.059019 51.55094 116.90401</gx:coord>
        <when>2025-01-01T00:07:35.1311070Z</when>
        <gx:coord>12.059319 51.550858 116.90401</gx:coord>
        <when>2025-01-01T00:07:40.1351070Z</when>
        <gx:coord>12.059748 51.550728 116.90401</gx:coord>
        <when>2025-01-01T00:07:45.1361070Z</when>
        <gx:coord>12.060199 51.55062 116.90401</gx:coord>
        <when>2025-01-01T00:07:48.1291070Z</when>
        <gx:coord>12.0603485 51.550556 116.90401</gx:coord>
        <when>2025-01-01T00:07:50.1371070Z</when>
        <gx:coord>12.060585 51.55047 116.90401</gx:coord>
        <when>2025-01-01T00:07:55.1431070Z</when>
        <gx:coord>12.060907 51.55032 115.38001</gx:coord>
        <when>2025-01-01T00:07:58.0981070Z</when>
        <gx:coord>12.061014 51.550278 115.38001</gx:coord>
        <when>2025-01-01T00:07:59.1171070Z</when>
        <gx:coord>12.061057 51.550255 115.38001</gx:coord>
        <when>2025-01-01T00:08:00.1201070Z</when>
        <gx:coord>12.061121 51.550255 115.38001</gx:coord>
        <when>2025-01-01T00:08:00.1401070Z</when>
        <gx:coord>12.061165 51.550255 115.38001</gx:coord>
        <when>2025-01-01T00:08:01.0991070Z</when>
        <gx:coord>12.061165 51.550255 115.38001</gx:coord>
        <when>2025-01-01T00:08:02.1071070Z</when>
        <gx:coord>12.061186 51.550278 115.38001</gx:coord>
        <when>2025-01-01T00:08:03.1041070Z</when>
        <gx:coord>12.061207 51.550278 115.38001</gx:coord>
        <when>2025-01-01T00:08:04.0951070Z</when>
        <gx:coord>12.061207 51.550297 115.38001</gx:coord>
        <when>2025-01-01T00:08:05.0961070Z</when>
        <gx:coord>12.061207 51.55032 115.38001</gx:coord>
        <when>2025-01-01T00:08:05.1291070Z</when>
        <gx:coord>12.061207 51.55032 115.38001</gx:coord>
        <when>2025-01-01T00:08:06.1021070Z</when>
        <gx:coord>12.061207 51.55032 115.38001</gx:coord>
        <when>2025-01-01T00:08:07.1221070Z</when>
        <gx:coord>12.061186 51.55034 116.90401</gx:coord>
        <when>2025-01-01T00:08:08.1141070Z</when>
        <gx:coord>12.061165 51.55034 116.90401</gx:coord>
        <when>2025-01-01T00:08:10.1291070Z</when>
        <gx:coord>12.061143 51.55034 116.90401</gx:coord>
        <when>2025-01-01T00:08:15.1291070Z</when>
        <gx:coord>12.0611 51.55036 116.90401</gx:coord>
        <when>2025-01-01T00:08:17.1191070Z</when>
        <gx:coord>12.061035 51.550385 116.90401</gx:coord>
        <when>2025-01-01T00:08:20.1181070Z</when>
        <gx:coord>12.060714 51.55045 116.90401</gx:coord>
        <when>2025-01-01T00:08:20.1371070Z</when>
        <gx:coord>12.060564 51.55049 116.90401</gx:coord>
        <when>2025-01-01T00:08:23.1261070Z</when>
        <gx:coord>12.060221 51.5506 115.38001</gx:coord>
        <when>2025-01-01T00:08:24.1201070Z</when>
        <gx:coord>12.060005 51.550663 115.38001</gx:coord>
        <when>2025-01-01T00:08:25.1341070Z</when>
        <gx:coord>12.059512 51.550793 115.38001</gx:coord>
        <when>2025-01-01T00:08:28.1171070Z</when>
        <gx:coord>12.058975 51.550964 113.856</gx:coord>
        <when>2025-01-01T00:08:30.1441070Z</when>
        <gx:coord>12.05801 51.55122 113.856</gx:coord>
        <when>2025-01-01T00:08:32.1221070Z</when>
        <gx:coord>12.057667 51.551327 113.856</gx:coord>
        <when>2025-01-01T00:08:35.1371070Z</when>
        <gx:coord>12.056143 51.551758 118.428</gx:coord>
        <when>2025-01-01T00:08:38.1291070Z</when>
        <gx:coord>12.055306 51.551994 119.952</gx:coord>
        <when>2025-01-01T00:08:40.1381070Z</when>
        <gx:coord>12.054019 51.552338 126.04801</gx:coord>
        <when>2025-01-01T00:08:41.1181070Z</when>
        <gx:coord>12.054019 51.552338 126.04801</gx:coord>
        <when>2025-01-01T00:08:45.1451070Z</when>
        <gx:coord>12.05183 51.55296 138.24</gx:coord>
        <when>2025-01-01T00:08:50.1441070Z</when>
        <gx:coord>12.0497055 51.553604 151.956</gx:coord>
        <when>2025-01-01T00:08:55.1481070Z</when>
        <gx:coord>12.047604 51.554268 167.19601</gx:coord>
        <when>2025-01-01T00:08:57.1351070Z</when>
        <gx:coord>12.046787 51.554523 176.34</gx:coord>
        <when>2025-01-01T00:09:00.1471070Z</when>
        <gx:coord>12.0456295 51.55489 187.008</gx:coord>
        <when>2025-01-01T00:09:05.1421070Z</when>
        <gx:coord>12.043741 51.555447 202.24802</gx:coord>
        <when>2025-01-01T00:09:06.1161070Z</when>
        <gx:coord>12.043741 51.555447 202.24802</gx:coord>
        <when>2025-01-01T00:09:07.1341070Z</when>
        <gx:coord>12.04299 51.55564 206.81999</gx:coord>
        <when>2025-01-01T00:09:10.1311070Z</when>
        <gx:coord>12.041874 51.55592 215.964</gx:coord>
        <when>2025-01-01T00:09:15.1441070Z</when>
        <gx:coord>12.040007 51.55637 226.632</gx:coord>
        <when>2025-01-01T00:09:20.1361070Z</when>
        <gx:coord>12.038054 51.556843 234.25201</gx:coord>
        <when>2025-01-01T00:09:21.1271070Z</when>
        <gx:coord>12.037668 51.556927 234.25201</gx:coord>
        <when>2025-01-01T00:09:22.1151070Z</when>
        <gx:coord>12.037282 51.557037 238.82399</gx:coord>
        <when>2025-01-01T00:09:25.1381070Z</when>
        <gx:coord>12.036037 51.557335 241.872</gx:coord>
        <when>2025-01-01T00:09:30.1441070Z</when>
        <gx:coord>12.033935 51.55789 254.06401</gx:coord>
        <when>2025-01-01T00:09:35.1391070Z</when>
        <gx:coord>12.031875 51.55843 266.25598</gx:coord>
        <when>2025-01-01T00:09:36.1201070Z</when>
        <gx:coord>12.031467 51.55856 269.30402</gx:coord>
        <when>2025-01-01T00:09:40.1371070Z</when>
        <gx:coord>12.029858 51.559032 276.924</gx:coord>
        <when>2025-01-01T00:09:45.1441070Z</when>
        <gx:coord>12.027777 51.55963 289.11603</gx:coord>
        <when>2025-01-01T00:09:49.1191070Z</when>
        <gx:coord>12.026531 51.559998 292.164</gx:coord>
        <when>2025-01-01T00:09:50.1411070Z</when>
        <gx:coord>12.025673 51.560253 293.688</gx:coord>
        <when>2025-01-01T00:09:55.1231070Z</when>
        <gx:coord>12.023463 51.56092 301.30798</gx:coord>
        <when>2025-01-01T00:09:55.1481070Z</when>
        <gx:coord>12.023463 51.56092 301.30798</gx:coord>
        <when>2025-01-01T00:10:00.1331070Z</when>
        <gx:coord>12.02121 51.561607 313.5</gx:coord>
        <when>2025-01-01T00:10:05.1321070Z</when>
        <gx:coord>12.018936 51.56223 325.69202</gx:coord>
        <when>2025-01-01T00:10:06.1001070Z</when>
        <gx:coord>12.018936 51.56223 325.69202</gx:coord>
        <when>2025-01-01T00:10:07.1201070Z</when>
        <gx:coord>12.01797 51.562336 331.78806</gx:coord>
        <when>2025-01-01T00:10:09.1211070Z</when>
        <gx:coord>12.017498 51.562355 333.312</gx:coord>
        <when>2025-01-01T00:10:10.1471070Z</when>
        <gx:coord>12.016575 51.562294 339.40802</gx:coord>
        <when>2025-01-01T00:10:11.1391070Z</when>
        <gx:coord>12.016575 51.562294 339.40802</gx:coord>
        <when>2025-01-01T00:10:14.1181070Z</when>
        <gx:coord>12.015309 51.562035 347.028</gx:coord>
        <when>2025-01-01T00:10:15.1401070Z</when>
        <gx:coord>12.014537 51.561733 348.552</gx:coord>
        <when>2025-01-01T00:10:16.1111070Z</when>
        <gx:coord>12.014537 51.561733 348.552</gx:coord>
        <when>2025-01-01T00:10:19.1201070Z</when>
        <gx:coord>12.01355 51.561157 353.12402</gx:coord>
        <when>2025-01-01T00:10:20.1481070Z</when>
        <gx:coord>12.013014 51.56066 357.69598</gx:coord>
        <when>2025-01-01T00:10:22.1231070Z</when>
        <gx:coord>12.012798 51.560406 359.21997</gx:coord>
        <when>2025-01-01T00:10:24.1081070Z</when>
        <gx:coord>12.012283 51.559566 363.79202</gx:coord>
        <when>2025-01-01T00:10:25.1441070Z</when>
        <gx:coord>12.012134 51.559288 365.31598</gx:coord>
        <when>2025-01-01T00:10:30.1451070Z</when>
        <gx:coord>12.011168 51.557915 380.55597</gx:coord>
        <when>2025-01-01T00:10:32.1191070Z</when>
        <gx:coord>12.010738 51.55738 383.604</gx:coord>
        <when>2025-01-01T00:10:35.1491070Z</when>
        <gx:coord>12.010074 51.556606 394.27197</gx:coord>
        <when>2025-01-01T00:10:36.1191070Z</when>
        <gx:coord>12.009859 51.55635 398.84402</gx:coord>
        <when>2025-01-01T00:10:40.1441070Z</when>
        <gx:coord>12.009066 51.55532 409.51202</gx:coord>
        <when>2025-01-01T00:10:45.1431070Z</when>
        <gx:coord>12.008078 51.55403 427.80002</gx:coord>
        <when>2025-01-01T00:10:46.1251070Z</when>
        <gx:coord>12.007885 51.553772 430.84802</gx:coord>
        <when>2025-01-01T00:10:50.1501070Z</when>
        <gx:coord>12.0071125 51.552788 443.03998</gx:coord>
        <when>2025-01-01T00:10:55.1411070Z</when>
        <gx:coord>12.006211 51.551563 456.75598</gx:coord>
        <when>2025-01-01T00:10:57.5841070Z</when>
        <gx:coord>12.006083 51.551308 458.27997</gx:coord>
        <when>2025-01-01T00:10:57.5841070Z</when>
        <gx:coord>12.005782 51.55107 461.328</gx:coord>
        <when>2025-01-01T00:10:58.1061070Z</when>
        <gx:coord>12.005782 51.55107 461.328</gx:coord>
        <when>2025-01-01T00:11:00.1471070Z</when>
        <gx:coord>12.005632 51.550255 471.99597</gx:coord>
        <when>2025-01-01T00:11:02.2311070Z</when>
        <gx:coord>12.00561 51.549995 475.044</gx:coord>
        <when>2025-01-01T00:11:02.2341070Z</when>
        <gx:coord>12.00561 51.549995 475.044</gx:coord>
        <when>2025-01-01T00:11:03.1261070Z</when>
        <gx:coord>12.006233 51.549675 476.56802</gx:coord>
        <when>2025-01-01T00:11:03.1271070Z</when>
        <gx:coord>12.006233 51.549675 476.56802</gx:coord>
        <when>2025-01-01T00:11:05.1491070Z</when>
        <gx:coord>12.006876 51.54886 481.13998</gx:coord>
        <when>2025-01-01T00:11:06.1161070Z</when>
        <gx:coord>12.006876 51.54886 481.13998</gx:coord>
        <when>2025-01-01T00:11:09.1171070Z</when>
        <gx:coord>12.00782 51.548065 482.664</gx:coord>
        <when>2025-01-01T00:11:10.1451070Z</when>
        <gx:coord>12.008551 51.54753 482.664</gx:coord>
        <when>2025-01-01T00:11:12.1441070Z</when>
        <gx:coord>12.008958 51.54727 484.18802</gx:coord>
        <when>2025-01-01T00:11:14.2211070Z</when>
        <gx:coord>12.009794 51.54678 485.71198</gx:coord>
        <when>2025-01-01T00:11:15.1361070Z</when>
        <gx:coord>12.010738 51.546307 488.76</gx:coord>
        <when>2025-01-01T00:11:18.1171070Z</when>
        <gx:coord>12.011747 51.545856 490.28403</gx:coord>
        <when>2025-01-01T00:11:18.1171070Z</when>
        <gx:coord>12.012262 51.545662 493.33197</gx:coord>
        <when>2025-01-01T00:11:20.1381070Z</when>
        <gx:coord>12.01282 51.54547 494.856</gx:coord>
        <when>2025-01-01T00:11:20.1381070Z</when>
        <gx:coord>12.013357 51.545277 496.38</gx:coord>
        <when>2025-01-01T00:11:25.1291070Z</when>
        <gx:coord>12.016211 51.54446 505.52402</gx:coord>
        <when>2025-01-01T00:11:30.1431070Z</when>
        <gx:coord>12.019043 51.543648 516.19196</gx:coord>
        <when>2025-01-01T00:11:33.1211070Z</when>
        <gx:coord>12.02076 51.543175 523.81195</gx:coord>
        <when>2025-01-01T00:11:35.1481070Z</when>
        <gx:coord>12.021896 51.542873 529.90796</gx:coord>
        <when>2025-01-01T00:11:37.1251070Z</when>
        <gx:coord>12.023034 51.542572 532.956</gx:coord>
        <when>2025-01-01T00:11:40.1231070Z</when>
        <gx:coord>12.024172 51.542294 540.576</gx:coord>
        <when>2025-01-01T00:11:40.1481070Z</when>
        <gx:coord>12.024729 51.542145 545.148</gx:coord>
        <when>2025-01-01T00:11:43.1201070Z</when>
        <gx:coord>12.026403 51.541756 555.816</gx:coord>
        <when>2025-01-01T00:11:45.1461070Z</when>
        <gx:coord>12.027497 51.541523 563.436</gx:coord>
        <when>2025-01-01T00:11:50.1461070Z</when>
        <gx:coord>12.030201 51.54092 574.104</gx:coord>
        <when>2025-01-01T00:11:55.1191070Z</when>
        <gx:coord>12.032927 51.540276 589.344</gx:coord>
        <when>2025-01-01T00:11:55.1501070Z</when>
        <gx:coord>12.032927 51.540276 589.344</gx:coord>
        <when>2025-01-01T00:12:00.1511070Z</when>
        <gx:coord>12.03578 51.539783 606.108</gx:coord>
        <when>2025-01-01T00:12:05.1201070Z</when>
        <gx:coord>12.038118 51.539482 610.68</gx:coord>
        <when>2025-01-01T00:12:05.1471070Z</when>
        <gx:coord>12.038698 51.539417 612.204</gx:coord>
        <when>2025-01-01T00:12:10.1461070Z</when>
        <gx:coord>12.041745 51.539227 618.3</gx:coord>
        <when>2025-01-01T00:12:14.1211070Z</when>
        <gx:coord>12.043612 51.539227 618.3</gx:coord>
        <when>2025-01-01T00:12:15.1471070Z</when>
        <gx:coord>12.044899 51.539246 618.3</gx:coord>
        <when>2025-01-01T00:12:18.1211070Z</when>
        <gx:coord>12.046873 51.53931 621.34796</gx:coord>
        <when>2025-01-01T00:12:20.1441070Z</when>
        <gx:coord>12.048204 51.539375 625.92</gx:coord>
        <when>2025-01-01T00:12:22.1201070Z</when>
        <gx:coord>12.049534 51.539482 628.96796</gx:coord>
        <when>2025-01-01T00:12:25.1511070Z</when>
        <gx:coord>12.05153 51.539677 638.112</gx:coord>
        <when>2025-01-01T00:12:30.1531070Z</when>
        <gx:coord>12.05492 51.54004 647.256</gx:coord>
        <when>2025-01-01T00:12:33.1171070Z</when>
        <gx:coord>12.0562935 51.54019 650.30396</gx:coord>
        <when>2025-01-01T00:12:33.1171070Z</when>
        <gx:coord>12.05698 51.540276 651.828</gx:coord>
        <when>2025-01-01T00:12:35.1511070Z</when>
        <gx:coord>12.058374 51.540447 654.876</gx:coord>
        <when>2025-01-01T00:12:37.1161070Z</when>
        <gx:coord>12.059061 51.540535 657.92395</gx:coord>
        <when>2025-01-01T00:12:40.1411070Z</when>
        <gx:coord>12.06183 51.540943 668.592</gx:coord>
        <when>2025-01-01T00:12:45.1451070Z</when>
        <gx:coord>12.065306 51.54146 673.164</gx:coord>
        <when>2025-01-01T00:12:50.1501070Z</when>
        <gx:coord>12.068868 51.542164 676.212</gx:coord>
        <when>2025-01-01T00:12:55.1171070Z</when>
        <gx:coord>12.071743 51.54285 680.784</gx:coord>
        <when>2025-01-01T00:12:55.1181070Z</when>
        <gx:coord>12.072451 51.543045 682.308</gx:coord>
        <when>2025-01-01T00:12:55.1511070Z</when>
        <gx:coord>12.072451 51.543045 682.308</gx:coord>
        <when>2025-01-01T00:12:57.1191070Z</when>
        <gx:coord>12.073159 51.543217 680.784</gx:coord>
        <when>2025-01-01T00:12:59.1241070Z</when>
        <gx:coord>12.075369 51.543816 679.2601</gx:coord>
        <when>2025-01-01T00:13:00.1461070Z</when>
        <gx:coord>12.07612 51.544033 677.73596</gx:coord>
        <when>2025-01-01T00:13:05.1381070Z</when>
        <gx:coord>12.079897 51.545128 673.164</gx:coord>
        <when>2025-01-01T00:13:06.1231070Z</when>
        <gx:coord>12.079897 51.545128 673.164</gx:coord>
        <when>2025-01-01T00:13:10.1551070Z</when>
        <gx:coord>12.083759 51.546284 671.63995</gx:coord>
        <when>2025-01-01T00:13:15.1511070Z</when>
        <gx:coord>12.087579 51.54755 665.54407</gx:coord>
        <when>2025-01-01T00:13:20.1491070Z</when>
        <gx:coord>12.091355 51.548923 674.688</gx:coord>
        <when>2025-01-01T00:13:25.1441070Z</when>
        <gx:coord>12.095154 51.55002 694.5</gx:coord>
        <when>2025-01-01T00:13:30.1491070Z</when>
        <gx:coord>12.098972 51.55077 697.548</gx:coord>
        <when>2025-01-01T00:13:31.1191070Z</when>
        <gx:coord>12.099745 51.5509 697.548</gx:coord>
        <when>2025-01-01T00:13:32.1151070Z</when>
        <gx:coord>12.099745 51.5509 696.024</gx:coord>
        <when>2025-01-01T00:13:35.1441070Z</when>
        <gx:coord>12.102942 51.551136 692.97595</gx:coord>
        <when>2025-01-01T00:13:36.1181070Z</when>
        <gx:coord>12.102942 51.551136 692.97595</gx:coord>
        <when>2025-01-01T00:13:40.1511070Z</when>
        <gx:coord>12.106869 51.55094 688.404</gx:coord>
        <when>2025-01-01T00:13:45.1391070Z</when>
        <gx:coord>12.110861 51.550514 686.88007</gx:coord>
        <when>2025-01-01T00:13:50.1441070Z</when>
        <gx:coord>12.114765 51.55002 696.024</gx:coord>
        <when>2025-01-01T00:13:55.1451070Z</when>
        <gx:coord>12.118607 51.549633 694.5</gx:coord>
        <when>2025-01-01T00:14:00.1461070Z</when>
        <gx:coord>12.122555 51.54929 686.88007</gx:coord>
        <when>2025-01-01T00:14:05.1191070Z</when>
        <gx:coord>12.126524 51.54888 686.88007</gx:coord>
        <when>2025-01-01T00:14:05.1431070Z</when>
        <gx:coord>12.126524 51.54888 686.88007</gx:coord>
        <when>2025-01-01T00:14:10.1511070Z</when>
        <gx:coord>12.130494 51.548496 691.45197</gx:coord>
        <when>2025-01-01T00:14:15.1431070Z</when>
        <gx:coord>12.13442 51.548172 699.07196</gx:coord>
        <when>2025-01-01T00:14:20.1451070Z</when>
        <gx:coord>12.138327 51.54783 694.5</gx:coord>
        <when>2025-01-01T00:14:25.1401070Z</when>
        <gx:coord>12.142382 51.54751 683.832</gx:coord>
        <when>2025-01-01T00:14:30.1471070Z</when>
        <gx:coord>12.146608 51.54725 670.11597</gx:coord>
        <when>2025-01-01T00:14:35.1511070Z</when>
        <gx:coord>12.150944 51.54695 662.496</gx:coord>
        <when>2025-01-01T00:14:38.1191070Z</when>
        <gx:coord>12.153561 51.5468 659.448</gx:coord>
        <when>2025-01-01T00:14:40.1491070Z</when>
        <gx:coord>12.155299 51.54669 657.92395</gx:coord>
        <when>2025-01-01T00:14:45.1471070Z</when>
        <gx:coord>12.159677 51.546455 656.39996</gx:coord>
        <when>2025-01-01T00:14:50.1471070Z</when>
        <gx:coord>12.164054 51.546177 653.352</gx:coord>
        <when>2025-01-01T00:14:52.1141070Z</when>
        <gx:coord>12.165792 51.54605 651.828</gx:coord>
        <when>2025-01-01T00:14:55.1521070Z</when>
        <gx:coord>12.168388 51.545815 656.39996</gx:coord>
        <when>2025-01-01T00:15:00.1431070Z</when>
        <gx:coord>12.172723 51.545406 654.876</gx:coord>
        <when>2025-01-01T00:15:05.1481070Z</when>
        <gx:coord>12.177036 51.544975 650.30396</gx:coord>
        <when>2025-01-01T00:15:09.1231070Z</when>
        <gx:coord>12.1804905 51.544613 644.20807</gx:coord>
        <when>2025-01-01T00:15:10.1421070Z</when>
        <gx:coord>12.18137 51.544525 639.636</gx:coord>
        <when>2025-01-01T00:15:15.1471070Z</when>
        <gx:coord>12.185683 51.544075 642.68396</gx:coord>
        <when>2025-01-01T00:15:18.1141070Z</when>
        <gx:coord>12.187336 51.54388 648.77997</gx:coord>
        <when>2025-01-01T00:15:20.1311070Z</when>
        <gx:coord>12.189674 51.543518 662.496</gx:coord>
        <when>2025-01-01T00:15:21.1201070Z</when>
        <gx:coord>12.189674 51.543518 662.496</gx:coord>
        <when>2025-01-01T00:15:22.1211070Z</when>
        <gx:coord>12.190382 51.543365 667.068</gx:coord>
        <when>2025-01-01T00:15:25.1171070Z</when>
        <gx:coord>12.19227 51.542725 679.2601</gx:coord>
        <when>2025-01-01T00:15:25.1171070Z</when>
        <gx:coord>12.19227 51.542725 679.2601</gx:coord>
        <when>2025-01-01T00:15:25.1171070Z</when>
        <gx:coord>12.192807 51.542465 682.308</gx:coord>
        <when>2025-01-01T00:15:25.1531070Z</when>
        <gx:coord>12.192807 51.542465 682.308</gx:coord>
        <when>2025-01-01T00:15:26.2161070Z</when>
        <gx:coord>12.192807 51.542465 682.308</gx:coord>
        <when>2025-01-01T00:15:27.1121070Z</when>
        <gx:coord>12.193279 51.542187 685.35596</gx:coord>
        <when>2025-01-01T00:15:29.1131070Z</when>
        <gx:coord>12.194073 51.541565 689.928</gx:coord>
        <when>2025-01-01T00:15:30.1291070Z</when>
        <gx:coord>12.194632 51.54088 691.45197</gx:coord>
        <when>2025-01-01T00:15:32.2041070Z</when>
        <gx:coord>12.194845 51.540535 691.45197</gx:coord>
        <when>2025-01-01T00:15:35.1541070Z</when>
        <gx:coord>12.195318 51.53901 674.688</gx:coord>
        <when>2025-01-01T00:15:37.1211070Z</when>
        <gx:coord>12.195382 51.538605 670.11597</gx:coord>
        <when>2025-01-01T00:15:40.1531070Z</when>
        <gx:coord>12.195511 51.536907 654.876</gx:coord>
        <when>2025-01-01T00:15:42.1161070Z</when>
        <gx:coord>12.19549 51.53605 651.828</gx:coord>
        <when>2025-01-01T00:15:45.1301070Z</when>
        <gx:coord>12.195404 51.53474 651.828</gx:coord>
        <when>2025-01-01T00:15:50.1501070Z</when>
        <gx:coord>12.1951885 51.532574 648.77997</gx:coord>
        <when>2025-01-01T00:15:52.1201070Z</when>
        <gx:coord>12.195125 51.532143 647.256</gx:coord>
        <when>2025-01-01T00:15:55.1211070Z</when>
        <gx:coord>12.194759 51.530407 644.20807</gx:coord>
        <when>2025-01-01T00:15:55.1551070Z</when>
        <gx:coord>12.194759 51.530407 642.68396</gx:coord>
        <when>2025-01-01T00:16:00.1591070Z</when>
        <gx:coord>12.194374 51.528217 641.16</gx:coord>
        <when>2025-01-01T00:16:05.1561070Z</when>
        <gx:coord>12.1941805 51.526028 639.636</gx:coord>
        <when>2025-01-01T00:16:10.1551070Z</when>
        <gx:coord>12.194159 51.52386 638.112</gx:coord>
        <when>2025-01-01T00:16:15.1301070Z</when>
        <gx:coord>12.194202 51.521694 630.49207</gx:coord>
        <when>2025-01-01T00:16:20.1571070Z</when>
        <gx:coord>12.194266 51.519485 622.872</gx:coord>
        <when>2025-01-01T00:16:21.1221070Z</when>
        <gx:coord>12.194288 51.519054 621.34796</gx:coord>
        <when>2025-01-01T00:16:25.1181070Z</when>
        <gx:coord>12.194395 51.517723 615.25195</gx:coord>
        <when>2025-01-01T00:16:25.1561070Z</when>
        <gx:coord>12.194438 51.517273 613.72797</gx:coord>
        <when>2025-01-01T00:16:30.1581070Z</when>
        <gx:coord>12.194781 51.51504 613.72797</gx:coord>
        <when>2025-01-01T00:16:33.1281070Z</when>
        <gx:coord>12.195061 51.513714 615.25195</gx:coord>
        <when>2025-01-01T00:16:35.1291070Z</when>
        <gx:coord>12.195253 51.512856 616.776</gx:coord>
        <when>2025-01-01T00:16:40.1551070Z</when>
        <gx:coord>12.195789 51.51073 622.872</gx:coord>
        <when>2025-01-01T00:16:45.1481070Z</when>
        <gx:coord>12.196455 51.508713 633.54</gx:coord>
        <when>2025-01-01T00:16:50.1451070Z</when>
        <gx:coord>12.197142 51.50676 633.54</gx:coord>
        <when>2025-01-01T00:16:55.1501070Z</when>
        <gx:coord>12.197828 51.50483 624.396</gx:coord>
        <when>2025-01-01T00:17:00.1541070Z</when>
        <gx:coord>12.198536 51.50281 615.25195</gx:coord>
        <when>2025-01-01T00:17:05.1471070Z</when>
        <gx:coord>12.199287 51.500774 609.156</gx:coord>
        <when>2025-01-01T00:17:08.1181070Z</when>
        <gx:coord>12.19961 51.499958 601.536</gx:coord>
        <when>2025-01-01T00:17:10.1481070Z</when>
        <gx:coord>12.200211 51.498714 603.06</gx:coord>
        <when>2025-01-01T00:17:14.1281070Z</when>
        <gx:coord>12.20109 51.49708 601.536</gx:coord>
        <when>2025-01-01T00:17:15.1501070Z</when>
        <gx:coord>12.201304 51.496674 600.01196</gx:coord>
        <when>2025-01-01T00:17:20.1521070Z</when>
        <gx:coord>12.202442 51.494614 603.06</gx:coord>
        <when>2025-01-01T00:17:25.1551070Z</when>
        <gx:coord>12.203514 51.4926 606.108</gx:coord>
        <when>2025-01-01T00:17:30.1511070Z</when>
        <gx:coord>12.204566 51.49056 601.536</gx:coord>
        <when>2025-01-01T00:17:35.1511070Z</when>
        <gx:coord>12.205618 51.4885 593.91595</gx:coord>
        <when>2025-01-01T00:17:36.1161070Z</when>
        <gx:coord>12.205811 51.48807 590.868</gx:coord>
        <when>2025-01-01T00:17:40.4411070Z</when>
        <gx:coord>12.206626 51.486355 589.344</gx:coord>
        <when>2025-01-01T00:17:45.4611070Z</when>
        <gx:coord>12.20757 51.484188 589.344</gx:coord>
        <when>2025-01-01T00:17:50.1511070Z</when>
        <gx:coord>12.208343 51.482018 586.29596</gx:coord>
        <when>2025-01-01T00:17:53.1231070Z</when>
        <gx:coord>12.208729 51.48069 586.29596</gx:coord>
        <when>2025-01-01T00:17:55.1441070Z</when>
        <gx:coord>12.208965 51.47983 587.82</gx:coord>
        <when>2025-01-01T00:18:00.1421070Z</when>
        <gx:coord>12.209415 51.477642 584.772</gx:coord>
        <when>2025-01-01T00:18:04.1191070Z</when>
        <gx:coord>12.20963 51.476334 586.29596</gx:coord>
        <when>2025-01-01T00:18:05.1511070Z</when>
        <gx:coord>12.209738 51.475475 589.344</gx:coord>
        <when>2025-01-01T00:18:10.1481070Z</when>
        <gx:coord>12.209951 51.473328 590.868</gx:coord>
        <when>2025-01-01T00:18:15.1501070Z</when>
        <gx:coord>12.210123 51.47116 586.29596</gx:coord>
        <when>2025-01-01T00:18:20.1471070Z</when>
        <gx:coord>12.210253 51.46897 583.248</gx:coord>
        <when>2025-01-01T00:18:25.1511070Z</when>
        <gx:coord>12.210274 51.466785 580.19995</gx:coord>
        <when>2025-01-01T00:18:27.1221070Z</when>
        <gx:coord>12.210274 51.465904 578.67596</gx:coord>
        <when>2025-01-01T00:18:30.1411070Z</when>
        <gx:coord>12.210253 51.464596 572.57996</gx:coord>
        <when>2025-01-01T00:18:32.1251070Z</when>
        <gx:coord>12.210253 51.463715 571.05597</gx:coord>
        <when>2025-01-01T00:18:35.1411070Z</when>
        <gx:coord>12.210274 51.462387 564.95996</gx:coord>
        <when>2025-01-01T00:18:40.1441070Z</when>
        <gx:coord>12.210531 51.460197 560.388</gx:coord>
        <when>2025-01-01T00:18:42.1161070Z</when>
        <gx:coord>12.210682 51.45979 560.388</gx:coord>
        <when>2025-01-01T00:18:45.1201070Z</when>
        <gx:coord>12.211561 51.458588 563.436</gx:coord>
        <when>2025-01-01T00:18:45.1501070Z</when>
        <gx:coord>12.211969 51.45822 564.95996</gx:coord>
        <when>2025-01-01T00:18:49.1181070Z</when>
        <gx:coord>12.213364 51.457237 560.388</gx:coord>
        <when>2025-01-01T00:18:49.1181070Z</when>
        <gx:coord>12.213922 51.456936 558.86395</gx:coord>
        <when>2025-01-01T00:18:50.1501070Z</when>
        <gx:coord>12.214479 51.456676 555.816</gx:coord>
        <when>2025-01-01T00:18:53.0991070Z</when>
        <gx:coord>12.215702 51.45616 551.24396</gx:coord>
        <when>2025-01-01T00:18:55.1571070Z</when>
        <gx:coord>12.217676 51.45554 542.1</gx:coord>
        <when>2025-01-01T00:18:59.1181070Z</when>
        <gx:coord>12.219736 51.455048 529.90796</gx:coord>
        <when>2025-01-01T00:18:59.1191070Z</when>
        <gx:coord>12.220445 51.454895 525.336</gx:coord>
        <when>2025-01-01T00:19:00.1481070Z</when>
        <gx:coord>12.221153 51.45477 520.764</gx:coord>
        <when>2025-01-01T00:19:05.1441070Z</when>
        <gx:coord>12.224736 51.45421 505.52402</gx:coord>
        <when>2025-01-01T00:19:07.1181070Z</when>
        <gx:coord>12.225445 51.454147 502.47598</gx:coord>
        <when>2025-01-01T00:19:09.1181070Z</when>
        <gx:coord>12.227591 51.454018 493.33197</gx:coord>
        <when>2025-01-01T00:19:10.1461070Z</when>
        <gx:coord>12.228319 51.453976 490.28403</gx:coord>
        <when>2025-01-01T00:19:15.1221070Z</when>
        <gx:coord>12.231903 51.453846 475.044</gx:coord>
        <when>2025-01-01T00:19:15.1461070Z</when>
        <gx:coord>12.231903 51.453846 470.472</gx:coord>
        <when>2025-01-01T00:19:18.1201070Z</when>
        <gx:coord>12.234092 51.45378 461.328</gx:coord>
        <when>2025-01-01T00:19:20.1461070Z</when>
        <gx:coord>12.235551 51.45376 456.75598</gx:coord>
        <when>2025-01-01T00:19:25.1191070Z</when>
        <gx:coord>12.238512 51.45376 447.612</gx:coord>
        <when>2025-01-01T00:19:25.1461070Z</when>
        <gx:coord>12.239264 51.45376 444.56406</gx:coord>
        <when>2025-01-01T00:19:30.1481070Z</when>
        <gx:coord>12.243061 51.453804 438.46802</gx:coord>
        <when>2025-01-01T00:19:34.1161070Z</when>
        <gx:coord>12.246151 51.453888 429.32397</gx:coord>
        <when>2025-01-01T00:19:35.1521070Z</when>
        <gx:coord>12.246923 51.45391 427.80002</gx:coord>
        <when>2025-01-01T00:19:40.1481070Z</when>
        <gx:coord>12.250829 51.454018 427.056</gx:coord>
        <when>2025-01-01T00:19:45.1471070Z</when>
        <gx:coord>12.254648 51.4541 430.10403</gx:coord>
        <when>2025-01-01T00:19:47.3411070Z</when>
        <gx:coord>12.255378 51.4541 430.10403</gx:coord>
        <when>2025-01-01T00:19:50.1431070Z</when>
        <gx:coord>12.258339 51.454147 431.628</gx:coord>
        <when>2025-01-01T00:19:51.1221070Z</when>
        <gx:coord>12.2590685 51.454166 431.628</gx:coord>
        <when>2025-01-01T00:19:55.1421070Z</when>
        <gx:coord>12.262009 51.45423 428.58002</gx:coord>
        <when>2025-01-01T00:20:00.1431070Z</when>
        <gx:coord>12.265635 51.454296 428.58002</gx:coord>
        <when>2025-01-01T00:20:05.1441070Z</when>
        <gx:coord>12.2691965 51.45436 428.58002</gx:coord>
        <when>2025-01-01T00:20:10.1361070Z</when>
        <gx:coord>12.2727375 51.45436 425.53198</gx:coord>
        <when>2025-01-01T00:20:15.1441070Z</when>
        <gx:coord>12.276278 51.454296 422.484</gx:coord>
        <when>2025-01-01T00:20:20.1511070Z</when>
        <gx:coord>12.27969 51.45391 414.864</gx:coord>
        <when>2025-01-01T00:20:25.1101070Z</when>
        <gx:coord>12.2823925 51.45348 407.24402</gx:coord>
        <when>2025-01-01T00:20:25.1361070Z</when>
        <gx:coord>12.283058 51.45333 407.24402</gx:coord>
        <when>2025-01-01T00:20:27.1191070Z</when>
        <gx:coord>12.28368 51.45318 407.24402</gx:coord>
        <when>2025-01-01T00:20:29.1201070Z</when>
        <gx:coord>12.284882 51.452793 405.71997</gx:coord>
        <when>2025-01-01T00:20:30.1261070Z</when>
        <gx:coord>12.286019 51.452343 404.19598</gx:coord>
        <when>2025-01-01T00:20:30.1491070Z</when>
        <gx:coord>12.286019 51.452343 404.19598</gx:coord>
        <when>2025-01-01T00:20:34.1191070Z</when>
        <gx:coord>12.287586 51.451572 401.148</gx:coord>
        <when>2025-01-01T00:20:35.1181070Z</when>
        <gx:coord>12.28853 51.45101 398.09998</gx:coord>
        <when>2025-01-01T00:20:35.1501070Z</when>
        <gx:coord>12.28853 51.45101 398.09998</gx:coord>
        <when>2025-01-01T00:20:38.1221070Z</when>
        <gx:coord>12.289367 51.45039 396.576</gx:coord>
        <when>2025-01-01T00:20:40.1481070Z</when>
        <gx:coord>12.290419 51.449383 392.004</gx:coord>
        <when>2025-01-01T00:20:45.1181070Z</when>
        <gx:coord>12.291598 51.447987 381.33603</gx:coord>
        <when>2025-01-01T00:20:45.1481070Z</when>
        <gx:coord>12.291856 51.447643 378.28802</gx:coord>
        <when>2025-01-01T00:20:47.1201070Z</when>
        <gx:coord>12.292049 51.44728 376.76398</gx:coord>
        <when>2025-01-01T00:20:47.3441070Z</when>
        <gx:coord>12.292049 51.44728 376.76398</gx:coord>
        <when>2025-01-01T00:20:50.1191070Z</when>
        <gx:coord>12.292757 51.445885 367.62</gx:coord>
        <when>2025-01-01T00:20:50.1491070Z</when>
        <gx:coord>12.292757 51.445885 367.62</gx:coord>
        <when>2025-01-01T00:20:55.1511070Z</when>
        <gx:coord>12.293401 51.444168 358.476</gx:coord>
        <when>2025-01-01T00:20:56.1201070Z</when>
        <gx:coord>12.293401 51.444168 358.476</gx:coord>
        <when>2025-01-01T00:20:56.1201070Z</when>
        <gx:coord>12.293401 51.444168 358.476</gx:coord>
        <when>2025-01-01T00:21:00.1451070Z</when>
        <gx:coord>12.293894 51.4426 350.85602</gx:coord>
        <when>2025-01-01T00:21:05.1291070Z</when>
        <gx:coord>12.294281 51.44108 340.188</gx:coord>
        <when>2025-01-01T00:21:07.1211070Z</when>
        <gx:coord>12.294409 51.440475 335.616</gx:coord>
        <when>2025-01-01T00:21:10.0961070Z</when>
        <gx:coord>12.294474 51.439854 332.568</gx:coord>
        <when>2025-01-01T00:21:10.1291070Z</when>
        <gx:coord>12.294474 51.439533 331.044</gx:coord>
        <when>2025-01-01T00:21:13.1191070Z</when>
        <gx:coord>12.294345 51.438934 326.472</gx:coord>
        <when>2025-01-01T00:21:15.1331070Z</when>
        <gx:coord>12.293873 51.438072 321.90002</gx:coord>
        <when>2025-01-01T00:21:16.1211070Z</when>
        <gx:coord>12.293873 51.438072 321.90002</gx:coord>
        <when>2025-01-01T00:21:19.1181070Z</when>
        <gx:coord>12.293121 51.4373 314.27997</gx:coord>
        <when>2025-01-01T00:21:20.1461070Z</when>
        <gx:coord>12.2925 51.43683 308.18402</gx:coord>
        <when>2025-01-01T00:21:21.1221070Z</when>
        <gx:coord>12.292156 51.436615 305.136</gx:coord>
        <when>2025-01-01T00:21:23.1171070Z</when>
        <gx:coord>12.291813 51.43642 300.56403</gx:coord>
        <when>2025-01-01T00:21:25.1211070Z</when>
        <gx:coord>12.290654 51.435886 294.46802</gx:coord>
        <when>2025-01-01T00:21:25.1501070Z</when>
        <gx:coord>12.290654 51.435886 291.41998</gx:coord>
        <when>2025-01-01T00:21:27.1121070Z</when>
        <gx:coord>12.290247 51.435734 288.372</gx:coord>
        <when>2025-01-01T00:21:30.1461070Z</when>
        <gx:coord>12.288508 51.43524 274.656</gx:coord>
        <when>2025-01-01T00:21:31.1231070Z</when>
        <gx:coord>12.288057 51.435135 270.08398</gx:coord>
        <when>2025-01-01T00:21:33.1211070Z</when>
        <gx:coord>12.287607 51.435028 265.51202</gx:coord>
        <when>2025-01-01T00:21:35.1541070Z</when>
        <gx:coord>12.286213 51.43479 256.36798</gx:coord>
        <when>2025-01-01T00:21:40.1511070Z</when>
        <gx:coord>12.28381 51.434513 239.604</gx:coord>
        <when>2025-01-01T00:21:41.1181070Z</when>
        <gx:coord>12.283337 51.43447 236.55598</gx:coord>
        <when>2025-01-01T00:21:45.1421070Z</when>
        <gx:coord>12.281427 51.434296 222.84003</gx:coord>
        <when>2025-01-01T00:21:46.1191070Z</when>
        <gx:coord>12.281427 51.434296 222.84003</gx:coord>
        <when>2025-01-01T00:21:50.1511070Z</when>
        <gx:coord>12.278981 51.43417 209.12401</gx:coord>
        <when>2025-01-01T00:21:53.1211070Z</when>
        <gx:coord>12.277522 51.434082 203.028</gx:coord>
        <when>2025-01-01T00:21:55.1291070Z</when>
        <gx:coord>12.277029 51.434063 201.504</gx:coord>
        <when>2025-01-01T00:22:00.1481070Z</when>
        <gx:coord>12.274153 51.433952 187.788</gx:coord>
        <when>2025-01-01T00:22:05.1291070Z</when>
        <gx:coord>12.271771 51.433826 180.168</gx:coord>
        <when>2025-01-01T00:22:09.1121070Z</when>
        <gx:coord>12.269861 51.43372 172.548</gx:coord>
        <when>2025-01-01T00:22:10.1471070Z</when>
        <gx:coord>12.269368 51.433697 171.024</gx:coord>
        <when>2025-01-01T00:22:15.1441070Z</when>
        <gx:coord>12.266922 51.43359 161.88</gx:coord>
        <when>2025-01-01T00:22:20.1351070Z</when>
        <gx:coord>12.264454 51.433483 158.832</gx:coord>
        <when>2025-01-01T00:22:21.1211070Z</when>
        <gx:coord>12.263961 51.43346 158.832</gx:coord>
        <when>2025-01-01T00:22:25.1391070Z</when>
        <gx:coord>12.261965 51.433376 155.784</gx:coord>
        <when>2025-01-01T00:22:30.1521070Z</when>
        <gx:coord>12.259498 51.433266 154.26</gx:coord>
        <when>2025-01-01T00:22:35.1391070Z</when>
        <gx:coord>12.256945 51.43316 154.26</gx:coord>
        <when>2025-01-01T00:22:40.1391070Z</when>
        <gx:coord>12.254348 51.433052 152.736</gx:coord>
        <when>2025-01-01T00:22:45.1421070Z</when>
        <gx:coord>12.25173 51.432922 151.21199</gx:coord>
        <when>2025-01-01T00:22:49.1311070Z</when>
        <gx:coord>12.249627 51.432816 142.068</gx:coord>
        <when>2025-01-01T00:22:50.1451070Z</when>
        <gx:coord>12.24909 51.432796 141.288</gx:coord>
        <when>2025-01-01T00:22:55.1281070Z</when>
        <gx:coord>12.246408 51.432667 141.288</gx:coord>
        <when>2025-01-01T00:23:00.1361070Z</when>
        <gx:coord>12.243683 51.432537 141.288</gx:coord>
        <when>2025-01-01T00:23:05.1401070Z</when>
        <gx:coord>12.240915 51.43241 139.76399</gx:coord>
        <when>2025-01-01T00:23:10.1431070Z</when>
        <gx:coord>12.237997 51.43228 139.76399</gx:coord>
        <when>2025-01-01T00:23:11.1171070Z</when>
        <gx:coord>12.237997 51.43228 139.76399</gx:coord>
        <when>2025-01-01T00:23:12.1231070Z</when>
        <gx:coord>12.236816 51.432217 141.288</gx:coord>
        <when>2025-01-01T00:23:14.1131070Z</when>
        <gx:coord>12.236259 51.432194 161.1</gx:coord>
        <when>2025-01-01T00:23:14.1131070Z</when>
        <gx:coord>12.235765 51.432194 174.816</gx:coord>
        <when>2025-01-01T00:23:15.1431070Z</when>
        <gx:coord>12.235315 51.432175 187.008</gx:coord>
        <when>2025-01-01T00:23:18.1131070Z</when>
        <gx:coord>12.233984 51.43215 205.296</gx:coord>
        <when>2025-01-01T00:23:19.1141070Z</when>
        <gx:coord>12.233984 51.43215 205.296</gx:coord>
        <when>2025-01-01T00:23:20.1351070Z</when>
        <gx:coord>12.233126 51.43213 208.344</gx:coord>
        <when>2025-01-01T00:23:25.1451070Z</when>
        <gx:coord>12.230852 51.432022 215.964</gx:coord>
        <when>2025-01-01T00:23:30.1461070Z</when>
        <gx:coord>12.228535 51.43181 226.632</gx:coord>
        <when>2025-01-01T00:23:34.1161070Z</when>
        <gx:coord>12.226667 51.431614 238.82399</gx:coord>
        <when>2025-01-01T00:23:35.1461070Z</when>
        <gx:coord>12.226195 51.431572 241.872</gx:coord>
        <when>2025-01-01T00:23:40.1411070Z</when>
        <gx:coord>12.223921 51.431335 255.58801</gx:coord>
        <when>2025-01-01T00:23:45.1331070Z</when>
        <gx:coord>12.221624 51.431164 267.77997</gx:coord>
        <when>2025-01-01T00:23:46.1171070Z</when>
        <gx:coord>12.221153 51.431145 270.828</gx:coord>
        <when>2025-01-01T00:23:50.1501070Z</when>
        <gx:coord>12.219243 51.431038 276.924</gx:coord>
        <when>2025-01-01T00:23:54.1071070Z</when>
        <gx:coord>12.217762 51.431038 286.068</gx:coord>
        <when>2025-01-01T00:23:55.1361070Z</when>
        <gx:coord>12.216797 51.43112 292.164</gx:coord>
        <when>2025-01-01T00:23:56.1121070Z</when>
        <gx:coord>12.216797 51.43112 292.164</gx:coord>
        <when>2025-01-01T00:23:58.1141070Z</when>
        <gx:coord>12.215874 51.43136 298.26</gx:coord>
        <when>2025-01-01T00:23:59.1121070Z</when>
        <gx:coord>12.215424 51.431507 301.30798</gx:coord>
        <when>2025-01-01T00:23:59.1121070Z</when>
        <gx:coord>12.215015 51.4317 302.83197</gx:coord>
        <when>2025-01-01T00:24:00.1091070Z</when>
        <gx:coord>12.215015 51.4317 302.83197</gx:coord>
        <when>2025-01-01T00:24:00.1441070Z</when>
        <gx:coord>12.21463 51.431915 305.88</gx:coord>
        <when>2025-01-01T00:24:03.1151070Z</when>
        <gx:coord>12.213922 51.43243 308.92798</gx:coord>
        <when>2025-01-01T00:24:05.1461070Z</when>
        <gx:coord>12.213085 51.43333 315.024</gx:coord>
        <when>2025-01-01T00:24:06.1161070Z</when>
        <gx:coord>12.213085 51.43333 315.024</gx:coord>
        <when>2025-01-01T00:24:07.1151070Z</when>
        <gx:coord>12.21287 51.433674 316.54797</gx:coord>
        <when>2025-01-01T00:24:10.1081070Z</when>
        <gx:coord>12.2124405 51.43475 318.07202</gx:coord>
        <when>2025-01-01T00:24:10.1371070Z</when>
        <gx:coord>12.212355 51.435135 318.07202</gx:coord>
        <when>2025-01-01T00:24:12.1191070Z</when>
        <gx:coord>12.212313 51.435543 321.12003</gx:coord>
        <when>2025-01-01T00:24:14.1131070Z</when>
        <gx:coord>12.212355 51.436337 322.64398</gx:coord>
        <when>2025-01-01T00:24:15.1481070Z</when>
        <gx:coord>12.212526 51.437153 324.16797</gx:coord>
        <when>2025-01-01T00:24:17.1081070Z</when>
        <gx:coord>12.212634 51.43758 324.16797</gx:coord>
        <when>2025-01-01T00:24:20.1501070Z</when>
        <gx:coord>12.213192 51.439278 325.69202</gx:coord>
        <when>2025-01-01T00:24:22.1131070Z</when>
        <gx:coord>12.213492 51.440113 333.312</gx:coord>
        <when>2025-01-01T00:24:23.1221070Z</when>
        <gx:coord>12.213642 51.44052 333.312</gx:coord>
        <when>2025-01-01T00:24:25.1421070Z</when>
        <gx:coord>12.2139435 51.441357 343.97998</gx:coord>
        <when>2025-01-01T00:24:30.1481070Z</when>
        <gx:coord>12.214694 51.443398 357.69598</gx:coord>
        <when>2025-01-01T00:24:32.1181070Z</when>
        <gx:coord>12.214994 51.44421 363.79202</gx:coord>
        <when>2025-01-01T00:24:35.1441070Z</when>
        <gx:coord>12.215445 51.44541 375.984</gx:coord>
        <when>2025-01-01T00:24:40.1141070Z</when>
        <gx:coord>12.216175 51.447342 398.84402</gx:coord>
        <when>2025-01-01T00:24:40.1461070Z</when>
        <gx:coord>12.216175 51.447342 398.84402</gx:coord>
        <when>2025-01-01T00:24:45.1451070Z</when>
        <gx:coord>12.216969 51.44921 411.036</gx:coord>
        <when>2025-01-01T00:24:50.1471070Z</when>
        <gx:coord>12.217762 51.45112 420.18002</gx:coord>
        <when>2025-01-01T00:24:55.1361070Z</when>
        <gx:coord>12.218599 51.453094 427.80002</gx:coord>
        <when>2025-01-01T00:24:57.1191070Z</when>
        <gx:coord>12.218943 51.453888 430.84802</gx:coord>
        <when>2025-01-01T00:25:00.1461070Z</when>
        <gx:coord>12.219479 51.45509 438.46802</gx:coord>
        <when>2025-01-01T00:25:05.1211070Z</when>
        <gx:coord>12.22023 51.457 458.27997</gx:coord>
        <when>2025-01-01T00:25:05.1211070Z</when>
        <gx:coord>12.22023 51.457 461.328</gx:coord>
        <when>2025-01-01T00:25:05.1511070Z</when>
        <gx:coord>12.22023 51.457 461.328</gx:coord>
        <when>2025-01-01T00:25:10.1431070Z</when>
        <gx:coord>12.220831 51.45893 473.52</gx:coord>
        <when>2025-01-01T00:25:15.1431070Z</when>
        <gx:coord>12.221281 51.460884 485.71198</gx:coord>
        <when>2025-01-01T00:25:18.1161070Z</when>
        <gx:coord>12.221389 51.461678 491.80798</gx:coord>
        <when>2025-01-01T00:25:18.1161070Z</when>
        <gx:coord>12.221453 51.462063 493.33197</gx:coord>
        <when>2025-01-01T00:25:20.1501070Z</when>
        <gx:coord>12.221518 51.46288 496.38</gx:coord>
        <when>2025-01-01T00:25:23.1121070Z</when>
        <gx:coord>12.2215605 51.463673 499.42798</gx:coord>
        <when>2025-01-01T00:25:25.1451070Z</when>
        <gx:coord>12.2215605 51.46485 510.096</gx:coord>
        <when>2025-01-01T00:25:28.2131070Z</when>
        <gx:coord>12.221539 51.465626 517.716</gx:coord>
        <when>2025-01-01T00:25:28.2131070Z</when>
        <gx:coord>12.221539 51.465626 517.716</gx:coord>
        <when>2025-01-01T00:25:29.1101070Z</when>
        <gx:coord>12.221518 51.4664 525.336</gx:coord>
        <when>2025-01-01T00:25:30.1371070Z</when>
        <gx:coord>12.221518 51.466763 526.86</gx:coord>
        <when>2025-01-01T00:25:33.1231070Z</when>
        <gx:coord>12.221475 51.467514 529.90796</gx:coord>
        <when>2025-01-01T00:25:34.1191070Z</when>
        <gx:coord>12.221131 51.4679 531.432</gx:coord>
        <when>2025-01-01T00:25:34.1251070Z</when>
        <gx:coord>12.221131 51.4679 531.432</gx:coord>
        <when>2025-01-01T00:25:35.1441070Z</when>
        <gx:coord>12.221153 51.468674 531.432</gx:coord>
        <when>2025-01-01T00:25:36.1171070Z</when>
        <gx:coord>12.221153 51.468674 531.432</gx:coord>
        <when>2025-01-01T00:25:37.1161070Z</when>
        <gx:coord>12.221539 51.468952 531.432</gx:coord>
        <when>2025-01-01T00:25:38.1151070Z</when>
        <gx:coord>12.221239 51.469444 532.956</gx:coord>
        <when>2025-01-01T00:25:40.1401070Z</when>
        <gx:coord>12.221024 51.470646 534.48</gx:coord>
        <when>2025-01-01T00:25:45.1411070Z</when>
        <gx:coord>12.220488 51.472622 545.148</gx:coord>
        <when>2025-01-01T00:25:48.1211070Z</when>
        <gx:coord>12.220144 51.473778 548.196</gx:coord>
        <when>2025-01-01T00:25:50.1461070Z</when>
        <gx:coord>12.219908 51.474552 554.292</gx:coord>
        <when>2025-01-01T00:25:52.1151070Z</when>
        <gx:coord>12.219694 51.475327 557.33997</gx:coord>
        <when>2025-01-01T00:25:55.1501070Z</when>
        <gx:coord>12.219372 51.476505 560.388</gx:coord>
        <when>2025-01-01T00:26:00.1401070Z</when>
        <gx:coord>12.218922 51.478523 564.95996</gx:coord>
        <when>2025-01-01T00:26:05.1521070Z</when>
        <gx:coord>12.2184925 51.480602 569.532</gx:coord>
        <when>2025-01-01T00:26:10.1401070Z</when>
        <gx:coord>12.2179985 51.48275 568.008</gx:coord>
        <when>2025-01-01T00:26:15.1191070Z</when>
        <gx:coord>12.217548 51.48451 563.436</gx:coord>
        <when>2025-01-01T00:26:15.1501070Z</when>
        <gx:coord>12.217419 51.48496 563.436</gx:coord>
        <when>2025-01-01T00:26:20.1351070Z</when>
        <gx:coord>12.216797 51.487232 558.86395</gx:coord>
        <when>2025-01-01T00:26:25.1481070Z</when>
        <gx:coord>12.216175 51.48955 554.292</gx:coord>
        <when>2025-01-01T00:26:27.1421070Z</when>
        <gx:coord>12.215896 51.490475 552.768</gx:coord>
        <when>2025-01-01T00:26:47.8931070Z</when>
        <gx:coord>12.212955 51.499958 548.196</gx:coord>
        <when>2025-01-01T00:26:52.8951070Z</when>
        <gx:coord>12.212248 51.502274 554.292</gx:coord>
        <when>2025-01-01T00:26:54.1141070Z</when>
        <gx:coord>12.212055 51.502728 555.816</gx:coord>
        <when>2025-01-01T00:26:57.8951070Z</when>
        <gx:coord>12.211046 51.504444 555.816</gx:coord>
        <when>2025-01-01T00:26:59.1181070Z</when>
        <gx:coord>12.210724 51.50483 555.816</gx:coord>
        <when>2025-01-01T00:27:02.8951070Z</when>
        <gx:coord>12.209244 51.506374 554.292</gx:coord>
        <when>2025-01-01T00:27:03.1161070Z</when>
        <gx:coord>12.208815 51.506718 554.292</gx:coord>
        <when>2025-01-01T00:27:05.1081070Z</when>
        <gx:coord>12.208385 51.50706 554.292</gx:coord>
        <when>2025-01-01T00:27:07.8951070Z</when>
        <gx:coord>12.206991 51.508026 552.768</gx:coord>
        <when>2025-01-01T00:27:12.1171070Z</when>
        <gx:coord>12.204931 51.509186 548.196</gx:coord>
        <when>2025-01-01T00:27:12.8951070Z</when>
        <gx:coord>12.204372 51.50944 546.672</gx:coord>
        <when>2025-01-01T00:27:17.8971070Z</when>
        <gx:coord>12.201476 51.510624 543.62396</gx:coord>
        <when>2025-01-01T00:27:20.1171070Z</when>
        <gx:coord>12.200232 51.511032 542.1</gx:coord>
        <when>2025-01-01T00:27:22.8941070Z</when>
        <gx:coord>12.198343 51.51159 543.62396</gx:coord>
        <when>2025-01-01T00:27:27.8941070Z</when>
        <gx:coord>12.195147 51.512424 545.148</gx:coord>
        <when>2025-01-01T00:27:32.8951070Z</when>
        <gx:coord>12.191927 51.513218 548.196</gx:coord>
        <when>2025-01-01T00:27:37.8951070Z</when>
        <gx:coord>12.188773 51.514076 549.72</gx:coord>
        <when>2025-01-01T00:27:42.8951070Z</when>
        <gx:coord>12.185683 51.515 554.292</gx:coord>
        <when>2025-01-01T00:27:43.1151070Z</when>
        <gx:coord>12.185082 51.515194 554.292</gx:coord>
        <when>2025-01-01T00:27:47.9101070Z</when>
        <gx:coord>12.182701 51.515965 560.388</gx:coord>
        <when>2025-01-01T00:27:52.8941070Z</when>
        <gx:coord>12.179825 51.516994 561.912</gx:coord>
        <when>2025-01-01T00:27:57.8951070Z</when>
        <gx:coord>12.1769285 51.518024 557.33997</gx:coord>
        <when>2025-01-01T00:28:02.8951070Z</when>
        <gx:coord>12.17401 51.519077 554.292</gx:coord>
        <when>2025-01-01T00:28:07.8951070Z</when>
        <gx:coord>12.171135 51.520107 549.72</gx:coord>
        <when>2025-01-01T00:28:08.1201070Z</when>
        <gx:coord>12.171135 51.520107 549.72</gx:coord>
        <when>2025-01-01T00:28:12.8951070Z</when>
        <gx:coord>12.168196 51.521008 548.196</gx:coord>
        <when>2025-01-01T00:28:17.8971070Z</when>
        <gx:coord>12.165148 51.521782 532.956</gx:coord>
        <when>2025-01-01T00:28:22.8951070Z</when>
        <gx:coord>12.162037 51.522488 534.48</gx:coord>
        <when>2025-01-01T00:28:24.1171070Z</when>
        <gx:coord>12.160814 51.522766 534.48</gx:coord>
        <when>2025-01-01T00:28:27.4341070Z</when>
        <gx:coord>12.15899 51.523174 536.00397</gx:coord>
        <when>2025-01-01T00:28:27.8941070Z</when>
        <gx:coord>12.15899 51.523174 536.00397</gx:coord>
        <when>2025-01-01T00:28:32.8951070Z</when>
        <gx:coord>12.156029 51.52384 529.90796</gx:coord>
        <when>2025-01-01T00:28:34.1161070Z</when>
        <gx:coord>12.154892 51.52412 526.86</gx:coord>
        <when>2025-01-01T00:28:37.8951070Z</when>
        <gx:coord>12.153261 51.52457 522.28796</gx:coord>
        <when>2025-01-01T00:28:42.8941070Z</when>
        <gx:coord>12.150642 51.52547 511.62003</gx:coord>
        <when>2025-01-01T00:28:47.9081070Z</when>
        <gx:coord>12.148067 51.526352 496.38</gx:coord>
        <when>2025-01-01T00:28:48.1191070Z</when>
        <gx:coord>12.1475525 51.526524 493.33197</gx:coord>
        <when>2025-01-01T00:28:52.8971070Z</when>
        <gx:coord>12.145429 51.527187 479.61597</gx:coord>
        <when>2025-01-01T00:28:56.1151070Z</when>
        <gx:coord>12.143283 51.52781 459.80402</gx:coord>
        <when>2025-01-01T00:28:57.8951070Z</when>
        <gx:coord>12.142725 51.52798 455.23203</gx:coord>
        <when>2025-01-01T00:29:02.8951070Z</when>
        <gx:coord>12.139872 51.528774 435.41998</gx:coord>
        <when>2025-01-01T00:29:06.1181070Z</when>
        <gx:coord>12.137554 51.52944 427.80002</gx:coord>
        <when>2025-01-01T00:29:07.8981070Z</when>
        <gx:coord>12.136974 51.52959 426.276</gx:coord>
        <when>2025-01-01T00:29:08.1231070Z</when>
        <gx:coord>12.136416 51.52974 426.276</gx:coord>
        <when>2025-01-01T00:29:12.8941070Z</when>
        <gx:coord>12.134121 51.530342 415.60797</gx:coord>
        <when>2025-01-01T00:29:17.8941070Z</when>
        <gx:coord>12.131267 51.53103 401.89197</gx:coord>
        <when>2025-01-01T00:29:19.1101070Z</when>
        <gx:coord>12.130108 51.531307 397.32</gx:coord>
        <when>2025-01-01T00:29:22.8951070Z</when>
        <gx:coord>12.128412 51.53174 391.224</gx:coord>
        <when>2025-01-01T00:29:27.8951070Z</when>
        <gx:coord>12.125602 51.53255 382.08002</gx:coord>
        <when>2025-01-01T00:29:32.8941070Z</when>
        <gx:coord>12.122769 51.533367 371.41202</gx:coord>
        <when>2025-01-01T00:29:35.1171070Z</when>
        <gx:coord>12.121075 51.533817 365.31598</gx:coord>
        <when>2025-01-01T00:29:37.8961070Z</when>
        <gx:coord>12.119937 51.534096 363.79202</gx:coord>
        <when>2025-01-01T00:29:42.8941070Z</when>
        <gx:coord>12.117147 51.534805 351.59998</gx:coord>
        <when>2025-01-01T00:29:45.1141070Z</when>
        <gx:coord>12.116075 51.535107 348.552</gx:coord>
        <when>2025-01-01T00:29:47.9181070Z</when>
        <gx:coord>12.114466 51.535534 340.932</gx:coord>
        <when>2025-01-01T00:29:50.1181070Z</when>
        <gx:coord>12.112856 51.53592 333.312</gx:coord>
        <when>2025-01-01T00:29:52.8951070Z</when>
        <gx:coord>12.111805 51.5362 327.216</gx:coord>
        <when>2025-01-01T00:29:53.1171070Z</when>
        <gx:coord>12.111268 51.53635 327.216</gx:coord>
        <when>2025-01-01T00:29:57.8951070Z</when>
        <gx:coord>12.109165 51.53693 311.976</gx:coord>
        <when>2025-01-01T00:30:02.8981070Z</when>
        <gx:coord>12.106655 51.5377 304.35602</gx:coord>
        <when>2025-01-01T00:30:04.1091070Z</when>
        <gx:coord>12.105689 51.538002 302.83197</gx:coord>
        <when>2025-01-01T00:30:07.8951070Z</when>
        <gx:coord>12.104252 51.538387 302.83197</gx:coord>
        <when>2025-01-01T00:30:08.1151070Z</when>
        <gx:coord>12.104252 51.538387 302.83197</gx:coord>
        <when>2025-01-01T00:30:12.8971070Z</when>
        <gx:coord>12.101976 51.538967 298.26</gx:coord>
        <when>2025-01-01T00:30:17.8981070Z</when>
        <gx:coord>12.099853 51.539547 290.64</gx:coord>
        <when>2025-01-01T00:30:22.8951070Z</when>
        <gx:coord>12.09775 51.540104 279.972</gx:coord>
        <when>2025-01-01T00:30:26.1151070Z</when>
        <gx:coord>12.096054 51.540535 270.828</gx:coord>
        <when>2025-01-01T00:30:27.8941070Z</when>
        <gx:coord>12.095625 51.54064 267.77997</gx:coord>
        <when>2025-01-01T00:30:32.8941070Z</when>
        <gx:coord>12.093501 51.541157 257.112</gx:coord>
        <when>2025-01-01T00:30:37.8941070Z</when>
        <gx:coord>12.091355 51.541714 247.96802</gx:coord>
        <when>2025-01-01T00:30:41.1151070Z</when>
        <gx:coord>12.090197 51.54212 244.92001</gx:coord>
        <when>2025-01-01T00:30:42.1151070Z</when>
        <gx:coord>12.089467 51.54238 240.348</gx:coord>
        <when>2025-01-01T00:30:42.8941070Z</when>
        <gx:coord>12.089467 51.54238 240.348</gx:coord>
        <when>2025-01-01T00:30:47.9131070Z</when>
        <gx:coord>12.087557 51.543003 229.68001</gx:coord>
        <when>2025-01-01T00:30:49.1211070Z</when>
        <gx:coord>12.086784 51.543194 226.632</gx:coord>
        <when>2025-01-01T00:30:52.8941070Z</when>
        <gx:coord>12.085627 51.543495 217.48799</gx:coord>
        <when>2025-01-01T00:30:55.1201070Z</when>
        <gx:coord>12.084446 51.543797 208.344</gx:coord>
        <when>2025-01-01T00:30:57.8941070Z</when>
        <gx:coord>12.0836735 51.544033 203.77202</gx:coord>
        <when>2025-01-01T00:31:02.8941070Z</when>
        <gx:coord>12.08172 51.54459 188.532</gx:coord>
        <when>2025-01-01T00:31:07.8941070Z</when>
        <gx:coord>12.079768 51.545105 177.86401</gx:coord>
        <when>2025-01-01T00:31:08.1181070Z</when>
        <gx:coord>12.079382 51.54521 176.34</gx:coord>
        <when>2025-01-01T00:31:12.8941070Z</when>
        <gx:coord>12.077794 51.545643 170.244</gx:coord>
        <when>2025-01-01T00:31:17.8961070Z</when>
        <gx:coord>12.075884 51.5462 165.672</gx:coord>
        <when>2025-01-01T00:31:22.8941070Z</when>
        <gx:coord>12.074018 51.546738 159.576</gx:coord>
        <when>2025-01-01T00:31:27.8941070Z</when>
        <gx:coord>12.072172 51.54727 155.004</gx:coord>
        <when>2025-01-01T00:31:32.8941070Z</when>
        <gx:coord>12.070305 51.547787 148.908</gx:coord>
        <when>2025-01-01T00:31:33.1201070Z</when>
        <gx:coord>12.06992 51.547894 144.336</gx:coord>
        <when>2025-01-01T00:31:37.8941070Z</when>
        <gx:coord>12.06831 51.548325 136.716</gx:coord>
        <when>2025-01-01T00:31:42.8941070Z</when>
        <gx:coord>12.06625 51.54886 132.144</gx:coord>
        <when>2025-01-01T00:31:47.9291070Z</when>
        <gx:coord>12.064147 51.54946 133.668</gx:coord>
        <when>2025-01-01T00:31:52.1191070Z</when>
        <gx:coord>12.062001 51.55006 126.04801</gx:coord>
        <when>2025-01-01T00:31:52.8971070Z</when>
        <gx:coord>12.062001 51.55006 124.524</gx:coord>
        <when>2025-01-01T00:31:57.8941070Z</when>
        <gx:coord>12.059984 51.55064 115.38001</gx:coord>
        <when>2025-01-01T00:32:02.1191070Z</when>
        <gx:coord>12.058203 51.551136 113.856</gx:coord>
        <when>2025-01-01T00:32:02.8941070Z</when>
        <gx:coord>12.058203 51.551136 113.856</gx:coord>
        <when>2025-01-01T00:32:03.1161070Z</when>
        <gx:coord>12.058203 51.551136 113.856</gx:coord>
        <when>2025-01-01T00:32:07.8941070Z</when>
        <gx:coord>12.056723 51.551563 113.856</gx:coord>
        <when>2025-01-01T00:32:12.8941070Z</when>
        <gx:coord>12.055392 51.55195 115.38001</gx:coord>
        <when>2025-01-01T00:32:14.1231070Z</when>
        <gx:coord>12.055113 51.552036 115.38001</gx:coord>
        <when>2025-01-01T00:32:17.8941070Z</when>
        <gx:coord>12.053869 51.55238 115.38001</gx:coord>
        <when>2025-01-01T00:32:22.8941070Z</when>
        <gx:coord>12.052067 51.552917 118.428</gx:coord>
        <when>2025-01-01T00:32:23.1181070Z</when>
        <gx:coord>12.052067 51.552917 118.428</gx:coord>
        <when>2025-01-01T00:32:27.9621070Z</when>
        <gx:coord>12.050093 51.55345 127.572014</gx:coord>
        <when>2025-01-01T00:32:32.8941070Z</when>
        <gx:coord>12.048054 51.554054 136.716</gx:coord>
        <when>2025-01-01T00:32:35.1091070Z</when>
        <gx:coord>12.046831 51.554417 145.86</gx:coord>
        <when>2025-01-01T00:32:37.8951070Z</when>
        <gx:coord>12.046037 51.554653 153.48</gx:coord>
        <when>2025-01-01T00:32:42.8931070Z</when>
        <gx:coord>12.044085 51.555275 168.72002</gx:coord>
        <when>2025-01-01T00:32:45.1211070Z</when>
        <gx:coord>12.042947 51.555664 177.86401</gx:coord>
        <when>2025-01-01T00:32:47.9191070Z</when>
        <gx:coord>12.042174 51.555897 182.436</gx:coord>
        <when>2025-01-01T00:32:52.8941070Z</when>
        <gx:coord>12.040243 51.5565 194.628</gx:coord>
        <when>2025-01-01T00:32:57.8931070Z</when>
        <gx:coord>12.038376 51.557186 208.344</gx:coord>
        <when>2025-01-01T00:32:58.1101070Z</when>
        <gx:coord>12.037991 51.557316 209.868</gx:coord>
        <when>2025-01-01T00:32:59.1171070Z</when>
        <gx:coord>12.037603 51.55744 209.868</gx:coord>
        <when>2025-01-01T00:33:02.8941070Z</when>
        <gx:coord>12.036467 51.55785 219.01201</gx:coord>
        <when>2025-01-01T00:33:07.8941070Z</when>
        <gx:coord>12.034578 51.558537 232.72801</gx:coord>
        <when>2025-01-01T00:33:11.0931070Z</when>
        <gx:coord>12.033076 51.559097 240.348</gx:coord>
        <when>2025-01-01T00:33:12.8941070Z</when>
        <gx:coord>12.032669 51.559223 240.348</gx:coord>
        <when>2025-01-01T00:33:17.8941070Z</when>
        <gx:coord>12.030651 51.55995 252.54</gx:coord>
        <when>2025-01-01T00:33:22.8951070Z</when>
        <gx:coord>12.028613 51.56066 261.68402</gx:coord>
        <when>2025-01-01T00:33:26.1161070Z</when>
        <gx:coord>12.02696 51.56122 270.828</gx:coord>
        <when>2025-01-01T00:33:27.8941070Z</when>
        <gx:coord>12.026553 51.561348 273.87598</gx:coord>
        <when>2025-01-01T00:33:32.8941070Z</when>
        <gx:coord>12.024429 51.562057 287.59198</gx:coord>
        <when>2025-01-01T00:33:37.8931070Z</when>
        <gx:coord>12.022284 51.562786 298.26</gx:coord>
        <when>2025-01-01T00:33:39.1171070Z</when>
        <gx:coord>12.021403 51.56304 302.83197</gx:coord>
        <when>2025-01-01T00:33:42.1171070Z</when>
        <gx:coord>12.020502 51.56326 304.35602</gx:coord>
        <when>2025-01-01T00:33:42.8941070Z</when>
        <gx:coord>12.02003 51.5633 307.404</gx:coord>
        <when>2025-01-01T00:33:44.1171070Z</when>
        <gx:coord>12.019579 51.563324 310.45203</gx:coord>
        <when>2025-01-01T00:33:46.1141070Z</when>
        <gx:coord>12.0187 51.56328 316.54797</gx:coord>
        <when>2025-01-01T00:33:47.9101070Z</when>
        <gx:coord>12.017884 51.563107 324.16797</gx:coord>
        <when>2025-01-01T00:33:48.1181070Z</when>
        <gx:coord>12.017884 51.563107 324.16797</gx:coord>
        <when>2025-01-01T00:33:51.1191070Z</when>
        <gx:coord>12.016768 51.5627 328.74002</gx:coord>
        <when>2025-01-01T00:33:52.8941070Z</when>
        <gx:coord>12.01606 51.562355 327.216</gx:coord>
        <when>2025-01-01T00:33:55.1131070Z</when>
        <gx:coord>12.015373 51.56197 327.216</gx:coord>
        <when>2025-01-01T00:33:57.8941070Z</when>
        <gx:coord>12.014451 51.561264 328.74002</gx:coord>
        <when>2025-01-01T00:33:59.1111070Z</when>
        <gx:coord>12.014194 51.561005 330.26398</gx:coord>
        <when>2025-01-01T00:33:59.1131070Z</when>
        <gx:coord>12.014194 51.561005 330.26398</gx:coord>
        <when>2025-01-01T00:34:00.1181070Z</when>
        <gx:coord>12.013721 51.560448 334.836</gx:coord>
        <when>2025-01-01T00:34:02.8941070Z</when>
        <gx:coord>12.013357 51.559868 343.97998</gx:coord>
        <when>2025-01-01T00:34:07.1221070Z</when>
        <gx:coord>12.012499 51.55847 368.364</gx:coord>
        <when>2025-01-01T00:34:07.8941070Z</when>
        <gx:coord>12.012499 51.55847 368.364</gx:coord>
        <when>2025-01-01T00:34:12.8961070Z</when>
        <gx:coord>12.011533 51.557144 372.93597</gx:coord>
        <when>2025-01-01T00:34:15.1211070Z</when>
        <gx:coord>12.010889 51.556305 372.93597</gx:coord>
        <when>2025-01-01T00:34:17.8941070Z</when>
        <gx:coord>12.01046 51.555725 369.888</gx:coord>
        <when>2025-01-01T00:34:22.8941070Z</when>
        <gx:coord>12.009344 51.554203 368.364</gx:coord>
        <when>2025-01-01T00:34:27.8941070Z</when>
        <gx:coord>12.008314 51.55268 374.46002</gx:coord>
        <when>2025-01-01T00:34:31.1131070Z</when>
        <gx:coord>12.007734 51.5518 379.03198</gx:coord>
        <when>2025-01-01T00:34:32.8941070Z</when>
        <gx:coord>12.007477 51.5512 382.08002</gx:coord>
        <when>2025-01-01T00:34:34.1101070Z</when>
        <gx:coord>12.007413 51.550877 383.604</gx:coord>
        <when>2025-01-01T00:34:37.1181070Z</when>
        <gx:coord>12.007456 51.549934 388.17606</gx:coord>
        <when>2025-01-01T00:34:37.8941070Z</when>
        <gx:coord>12.007563 51.54961 389.7</gx:coord>
        <when>2025-01-01T00:34:41.1221070Z</when>
        <gx:coord>12.007992 51.548645 389.7</gx:coord>
        <when>2025-01-01T00:34:42.8931070Z</when>
        <gx:coord>12.008421 51.548023 388.17606</gx:coord>
        <when>2025-01-01T00:34:44.1211070Z</when>
        <gx:coord>12.008678 51.547703 386.65198</gx:coord>
        <when>2025-01-01T00:34:46.1181070Z</when>
        <gx:coord>12.009258 51.54708 385.12802</gx:coord>
        <when>2025-01-01T00:34:47.9121070Z</when>
        <gx:coord>12.009902 51.546455 382.08002</gx:coord>
        <when>2025-01-01T00:34:51.1411070Z</when>
        <gx:coord>12.011082 51.545578 380.55597</gx:coord>
        <when>2025-01-01T00:34:52.8931070Z</when>
        <gx:coord>12.011984 51.54504 380.55597</gx:coord>
        <when>2025-01-01T00:34:54.1381070Z</when>
        <gx:coord>12.012477 51.544785 379.03198</gx:coord>
        <when>2025-01-01T00:34:54.3281070Z</when>
        <gx:coord>12.012477 51.544785 379.03198</gx:coord>
        <when>2025-01-01T00:34:57.1331070Z</when>
        <gx:coord>12.014044 51.544052 377.50803</gx:coord>
        <when>2025-01-01T00:34:57.8941070Z</when>
        <gx:coord>12.014601 51.543816 377.50803</gx:coord>
        <when>2025-01-01T00:35:02.8941070Z</when>
        <gx:coord>12.017584 51.542786 377.50803</gx:coord>
        <when>2025-01-01T00:35:04.1361070Z</when>
        <gx:coord>12.018228 51.542595 375.984</gx:coord>
        <when>2025-01-01T00:35:07.8941070Z</when>
        <gx:coord>12.020824 51.54193 374.46002</gx:coord>
        <when>2025-01-01T00:35:11.1441070Z</when>
        <gx:coord>12.023463 51.54133 374.46002</gx:coord>
        <when>2025-01-01T00:35:12.8941070Z</when>
        <gx:coord>12.024086 51.541157 374.46002</gx:coord>
        <when>2025-01-01T00:35:17.8931070Z</when>
        <gx:coord>12.027197 51.540276 377.50803</gx:coord>
        <when>2025-01-01T00:35:22.8941070Z</when>
        <gx:coord>12.030308 51.5394 380.55597</gx:coord>
        <when>2025-01-01T00:35:27.8941070Z</when>
        <gx:coord>12.033377 51.538517 385.12802</gx:coord>
        <when>2025-01-01T00:35:32.8941070Z</when>
        <gx:coord>12.036467 51.53766 383.604</gx:coord>
        <when>2025-01-01T00:35:37.8941070Z</when>
        <gx:coord>12.039599 51.5368 382.08002</gx:coord>
        <when>2025-01-01T00:35:42.8941070Z</when>
        <gx:coord>12.042711 51.5359 385.12802</gx:coord>
        <when>2025-01-01T00:35:47.9111070Z</when>
        <gx:coord>12.045736 51.53502 389.7</gx:coord>
        <when>2025-01-01T00:35:51.1391070Z</when>
        <gx:coord>12.048011 51.534355 389.7</gx:coord>
        <when>2025-01-01T00:35:52.8941070Z</when>
        <gx:coord>12.048569 51.534184 391.224</gx:coord>
        <when>2025-01-01T00:35:57.1191070Z</when>
        <gx:coord>12.05125 51.533455 398.84402</gx:coord>
        <when>2025-01-01T00:35:57.8941070Z</when>
        <gx:coord>12.05125 51.533455 398.84402</gx:coord>
        <when>2025-01-01T00:35:58.1151070Z</when>
        <gx:coord>12.05125 51.533455 398.84402</gx:coord>
        <when>2025-01-01T00:36:02.8941070Z</when>
        <gx:coord>12.05389 51.53281 392.748</gx:coord>
        <when>2025-01-01T00:36:07.8941070Z</when>
        <gx:coord>12.056572 51.532207 383.604</gx:coord>
        <when>2025-01-01T00:36:12.8941070Z</when>
        <gx:coord>12.059298 51.53163 375.984</gx:coord>
        <when>2025-01-01T00:36:16.1121070Z</when>
        <gx:coord>12.061529 51.53116 368.364</gx:coord>
        <when>2025-01-01T00:36:17.8961070Z</when>
        <gx:coord>12.062087 51.53103 366.84006</gx:coord>
        <when>2025-01-01T00:36:22.8941070Z</when>
        <gx:coord>12.064877 51.530407 357.69598</gx:coord>
        <when>2025-01-01T00:36:27.8951070Z</when>
        <gx:coord>12.067688 51.52985 351.59998</gx:coord>
        <when>2025-01-01T00:36:32.8931070Z</when>
        <gx:coord>12.070498 51.52929 343.97998</gx:coord>
        <when>2025-01-01T00:36:35.1171070Z</when>
        <gx:coord>12.072237 51.52899 337.88397</gx:coord>
        <when>2025-01-01T00:36:36.1181070Z</when>
        <gx:coord>12.072237 51.52899 337.88397</gx:coord>
        <when>2025-01-01T00:36:37.1061070Z</when>
        <gx:coord>12.07346 51.528862 336.36</gx:coord>
        <when>2025-01-01T00:36:37.8941070Z</when>
        <gx:coord>12.07346 51.528862 334.836</gx:coord>
        <when>2025-01-01T00:36:39.1251070Z</when>
        <gx:coord>12.074081 51.52882 333.312</gx:coord>
        <when>2025-01-01T00:36:40.1171070Z</when>
        <gx:coord>12.074726 51.52882 330.26398</gx:coord>
        <when>2025-01-01T00:36:42.1381070Z</when>
        <gx:coord>12.076035 51.528904 327.216</gx:coord>
        <when>2025-01-01T00:36:42.8991070Z</when>
        <gx:coord>12.076678 51.52899 327.216</gx:coord>
        <when>2025-01-01T00:36:44.1371070Z</when>
        <gx:coord>12.077301 51.52914 327.216</gx:coord>
        <when>2025-01-01T00:36:47.1091070Z</when>
        <gx:coord>12.07906 51.529697 324.16797</gx:coord>
        <when>2025-01-01T00:36:47.9261070Z</when>
        <gx:coord>12.0795965 51.529934 324.16797</gx:coord>
        <when>2025-01-01T00:36:50.1171070Z</when>
        <gx:coord>12.080605 51.53047 318.07202</gx:coord>
        <when>2025-01-01T00:36:52.8931070Z</when>
        <gx:coord>12.081936 51.531414 307.404</gx:coord>
        <when>2025-01-01T00:36:53.1141070Z</when>
        <gx:coord>12.082321 51.531757 304.35602</gx:coord>
        <when>2025-01-01T00:36:54.1361070Z</when>
        <gx:coord>12.082321 51.531757 304.35602</gx:coord>
        <when>2025-01-01T00:36:57.8931070Z</when>
        <gx:coord>12.0836525 51.53322 295.21198</gx:coord>
        <when>2025-01-01T00:37:02.8931070Z</when>
        <gx:coord>12.085218 51.535084 286.068</gx:coord>
        <when>2025-01-01T00:37:07.8961070Z</when>
        <gx:coord>12.086784 51.536842 279.972</gx:coord>
        <when>2025-01-01T00:37:11.1211070Z</when>
        <gx:coord>12.087965 51.538216 272.352</gx:coord>
        <when>2025-01-01T00:37:12.8931070Z</when>
        <gx:coord>12.0882015 51.53856 269.30402</gx:coord>
        <when>2025-01-01T00:37:13.1231070Z</when>
        <gx:coord>12.0882015 51.53856 269.30402</gx:coord>
        <when>2025-01-01T00:37:16.1231070Z</when>
        <gx:coord>12.088652 51.539677 260.15997</gx:coord>
        <when>2025-01-01T00:37:17.8931070Z</when>
        <gx:coord>12.088695 51.540447 257.112</gx:coord>
        <when>2025-01-01T00:37:18.1211070Z</when>
        <gx:coord>12.088695 51.540447 257.112</gx:coord>
        <when>2025-01-01T00:37:21.1181070Z</when>
        <gx:coord>12.088351 51.541523 252.54</gx:coord>
        <when>2025-01-01T00:37:21.1201070Z</when>
        <gx:coord>12.088351 51.541523 252.54</gx:coord>
        <when>2025-01-01T00:37:22.8931070Z</when>
        <gx:coord>12.0879 51.542164 247.96802</gx:coord>
        <when>2025-01-01T00:37:23.1121070Z</when>
        <gx:coord>12.0879 51.542164 247.96802</gx:coord>
        <when>2025-01-01T00:37:25.1261070Z</when>
        <gx:coord>12.086935 51.543003 241.872</gx:coord>
        <when>2025-01-01T00:37:26.1211070Z</when>
        <gx:coord>12.086935 51.543003 241.872</gx:coord>
        <when>2025-01-01T00:37:27.8931070Z</when>
        <gx:coord>12.086098 51.54343 235.77599</gx:coord>
        <when>2025-01-01T00:37:28.1151070Z</when>
        <gx:coord>12.086098 51.54343 235.77599</gx:coord>
        <when>2025-01-01T00:37:30.1161070Z</when>
        <gx:coord>12.0851755 51.54373 232.72801</gx:coord>
        <when>2025-01-01T00:37:32.1231070Z</when>
        <gx:coord>12.084209 51.543945 229.68001</gx:coord>
        <when>2025-01-01T00:37:32.8991070Z</when>
        <gx:coord>12.083738 51.544033 229.68001</gx:coord>
        <when>2025-01-01T00:37:37.8931070Z</when>
        <gx:coord>12.081549 51.544548 215.964</gx:coord>
        <when>2025-01-01T00:37:39.1201070Z</when>
        <gx:coord>12.080755 51.544804 209.868</gx:coord>
        <when>2025-01-01T00:37:41.1241070Z</when>
        <gx:coord>12.079962 51.545082 208.344</gx:coord>
        <when>2025-01-01T00:37:42.8931070Z</when>
        <gx:coord>12.079575 51.54521 202.24802</gx:coord>
        <when>2025-01-01T00:37:47.9111070Z</when>
        <gx:coord>12.0775585 51.54579 193.104</gx:coord>
        <when>2025-01-01T00:37:51.1201070Z</when>
        <gx:coord>12.076335 51.54607 188.532</gx:coord>
        <when>2025-01-01T00:37:52.8931070Z</when>
        <gx:coord>12.075541 51.546265 183.95999</gx:coord>
        <when>2025-01-01T00:37:55.1201070Z</when>
        <gx:coord>12.074383 51.546562 177.86401</gx:coord>
        <when>2025-01-01T00:37:57.8931070Z</when>
        <gx:coord>12.07361 51.546757 173.29199</gx:coord>
        <when>2025-01-01T00:38:02.8931070Z</when>
        <gx:coord>12.071678 51.547337 162.624</gx:coord>
        <when>2025-01-01T00:38:07.8931070Z</when>
        <gx:coord>12.069726 51.547916 153.48</gx:coord>
        <when>2025-01-01T00:38:11.1231070Z</when>
        <gx:coord>12.068159 51.548344 147.384</gx:coord>
        <when>2025-01-01T00:38:12.8931070Z</when>
        <gx:coord>12.067752 51.548454 145.86</gx:coord>
        <when>2025-01-01T00:38:17.8931070Z</when>
        <gx:coord>12.065735 51.54899 138.24</gx:coord>
        <when>2025-01-01T00:38:22.8961070Z</when>
        <gx:coord>12.063696 51.54957 129.096</gx:coord>
        <when>2025-01-01T00:38:27.8931070Z</when>
        <gx:coord>12.06168 51.55017 119.952</gx:coord>
        <when>2025-01-01T00:38:31.1251070Z</when>
        <gx:coord>12.06007 51.55062 115.38001</gx:coord>
        <when>2025-01-01T00:38:32.8931070Z</when>
        <gx:coord>12.059706 51.550728 115.38001</gx:coord>
        <when>2025-01-01T00:38:37.1171070Z</when>
        <gx:coord>12.058332 51.551113 113.856</gx:coord>
        <when>2025-01-01T00:38:37.8931070Z</when>
        <gx:coord>12.05801 51.5512 113.856</gx:coord>
        <when>2025-01-01T00:38:42.8931070Z</when>
        <gx:coord>12.056616 51.551605 113.856</gx:coord>
        <when>2025-01-01T00:38:43.1201070Z</when>
        <gx:coord>12.056616 51.551605 113.856</gx:coord>
        <when>2025-01-01T00:38:46.1251070Z</when>
        <gx:coord>12.055993 51.551777 113.856</gx:coord>
        <when>2025-01-01T00:38:47.9121070Z</when>
        <gx:coord>12.055672 51.551865 113.856</gx:coord>
        <when>2025-01-01T00:38:49.1181070Z</when>
        <gx:coord>12.055564 51.551907 113.856</gx:coord>
        <when>2025-01-01T00:38:49.1211070Z</when>
        <gx:coord>12.055456 51.55195 113.856</gx:coord>
        <when>2025-01-01T00:38:50.1011070Z</when>
        <gx:coord>12.055456 51.55195 113.856</gx:coord>
        <when>2025-01-01T00:38:51.1261070Z</when>
        <gx:coord>12.055392 51.551994 113.856</gx:coord>
        <when>2025-01-01T00:38:51.4911070Z</when>
        <gx:coord>12.055392 51.551994 113.856</gx:coord>
        <when>2025-01-01T00:38:51.4911070Z</when>
        <gx:coord>12.055392 51.551994 113.856</gx:coord>
        <when>2025-01-01T00:38:52.8931070Z</when>
        <gx:coord>12.055306 51.552036 113.856</gx:coord>
        <when>2025-01-01T00:38:53.1051070Z</when>
        <gx:coord>12.055306 51.552036 113.856</gx:coord>
        <when>2025-01-01T00:38:53.1061070Z</when>
        <gx:coord>12.055306 51.552036 113.856</gx:coord>
        <when>2025-01-01T00:38:54.0911070Z</when>
        <gx:coord>12.0552845 51.552055 113.856</gx:coord>
        <when>2025-01-01T00:38:54.0921070Z</when>
        <gx:coord>12.0552845 51.552055 113.856</gx:coord>
        <when>2025-01-01T00:38:55.0931070Z</when>
        <gx:coord>12.0552635 51.552055 113.856</gx:coord>
        <when>2025-01-01T00:38:56.0921070Z</when>
        <gx:coord>12.055243 51.552036 113.856</gx:coord>
        <when>2025-01-01T00:38:57.1011070Z</when>
        <gx:coord>12.055243 51.552036 113.856</gx:coord>
        <when>2025-01-01T00:38:57.1191070Z</when>
        <gx:coord>12.055243 51.552036 115.38001</gx:coord>
        <when>2025-01-01T00:38:57.8931070Z</when>
        <gx:coord>12.055243 51.552036 115.38001</gx:coord>
        <when>2025-01-01T00:38:58.1031070Z</when>
        <gx:coord>12.055243 51.552036 115.38001</gx:coord>
        <when>2025-01-01T00:38:59.1061070Z</when>
        <gx:coord>12.055243 51.552013 115.38001</gx:coord>
        <when>2025-01-01T00:39:00.1241070Z</when>
        <gx:coord>12.055243 51.551994 115.38001</gx:coord>
        <when>2025-01-01T00:39:01.1181070Z</when>
        <gx:coord>12.0552635 51.551994 115.38001</gx:coord>
        <when>2025-01-01T00:39:02.1131070Z</when>
        <gx:coord>12.0552845 51.55197 115.38001</gx:coord>
        <when>2025-01-01T00:39:02.8931070Z</when>
        <gx:coord>12.055349 51.55195 113.856</gx:coord>
        <when>2025-01-01T00:39:06.1221070Z</when>
        <gx:coord>12.055542 51.551888 115.38001</gx:coord>
        <when>2025-01-01T00:39:07.8931070Z</when>
        <gx:coord>12.055693 51.551865 113.856</gx:coord>
        <when>2025-01-01T00:39:11.1131070Z</when>
        <gx:coord>12.055864 51.5518 113.856</gx:coord>
        <when>2025-01-01T00:39:12.8931070Z</when>
        <gx:coord>12.055907 51.551758 113.856</gx:coord>
        <when>2025-01-01T00:39:13.1021070Z</when>
        <gx:coord>12.055907 51.551758 113.856</gx:coord>
        <when>2025-01-01T00:39:14.0971070Z</when>
        <gx:coord>12.055907 51.551712 113.856</gx:coord>
        <when>2025-01-01T00:39:17.8931070Z</when>
        <gx:coord>12.0557995 51.551563 113.856</gx:coord>
        <when>2025-01-01T00:39:19.1151070Z</when>
        <gx:coord>12.0557785 51.551544 113.856</gx:coord>
        <when>2025-01-01T00:39:19.1151070Z</when>
        <gx:coord>12.0557785 51.551544 113.856</gx:coord>
        <when>2025-01-01T00:39:22.8931070Z</when>
        <gx:coord>12.055672 51.551414 113.856</gx:coord>
        <when>2025-01-01T00:39:27.8931070Z</when>
        <gx:coord>12.05565 51.55137 113.856</gx:coord>
        <when>2025-01-01T00:39:32.8931070Z</when>
        <gx:coord>12.05565 51.55137 113.856</gx:coord>
        <when>2025-01-01T00:39:37.8931070Z</when>
        <gx:coord>12.05565 51.55137 113.856</gx:coord>
        <when>2025-01-01T00:39:42.8931070Z</when>
        <gx:coord>12.05565 51.55137 113.856</gx:coord>
        <when>2025-01-01T00:39:47.9171070Z</when>
        <gx:coord>12.05565 51.55137 113.856</gx:coord>
        <when>2025-01-01T00:39:52.8931070Z</when>
        <gx:coord>12.055586 51.551285 113.856</gx:coord>
        <when>2025-01-01T00:39:57.8931070Z</when>
        <gx:coord>12.055456 51.551113 113.856</gx:coord>
        <when>2025-01-01T00:40:02.1151070Z</when>
        <gx:coord>12.055349 51.550983 113.856</gx:coord>
        <when>2025-01-01T00:40:02.8931070Z</when>
        <gx:coord>12.055349 51.550964 113.856</gx:coord>
        <when>2025-01-01T00:40:04.1071070Z</when>
        <gx:coord>12.055328 51.55092 113.856</gx:coord>
        <when>2025-01-01T00:40:06.1041070Z</when>
        <gx:coord>12.055328 51.550858 113.856</gx:coord>
        <when>2025-01-01T00:40:07.8931070Z</when>
        <gx:coord>12.055392 51.550793 113.856</gx:coord>
        <when>2025-01-01T00:40:08.0921070Z</when>
        <gx:coord>12.055392 51.550793 113.856</gx:coord>
        <when>2025-01-01T00:40:09.1201070Z</when>
        <gx:coord>12.055435 51.550747 113.856</gx:coord>
        <when>2025-01-01T00:40:09.1211070Z</when>
        <gx:coord>12.055435 51.550747 113.856</gx:coord>
        <when>2025-01-01T00:40:11.1301070Z</when>
        <gx:coord>12.055542 51.550705 113.856</gx:coord>
        <when>2025-01-01T00:40:12.8931070Z</when>
        <gx:coord>12.055693 51.550663 113.856</gx:coord>
        <when>2025-01-01T00:40:13.1181070Z</when>
        <gx:coord>12.055693 51.550663 113.856</gx:coord>
        <when>2025-01-01T00:40:17.8921070Z</when>
        <gx:coord>12.056143 51.550556 113.856</gx:coord>
        <when>2025-01-01T00:40:22.8931070Z</when>
        <gx:coord>12.056616 51.550426 113.856</gx:coord>
        <when>2025-01-01T00:40:27.8921070Z</when>
        <gx:coord>12.057109 51.550278 113.856</gx:coord>
        <when>2025-01-01T00:40:32.8931070Z</when>
        <gx:coord>12.05756 51.550148 113.856</gx:coord>
        <when>2025-01-01T00:40:37.8931070Z</when>
        <gx:coord>12.057903 51.55006 113.856</gx:coord>
        <when>2025-01-01T00:40:40.1161070Z</when>
        <gx:coord>12.05801 51.55002 113.856</gx:coord>
        <when>2025-01-01T00:40:42.1191070Z</when>
        <gx:coord>12.058096 51.549976 113.856</gx:coord>
        <when>2025-01-01T00:40:42.8931070Z</when>
        <gx:coord>12.058117 51.549934 113.856</gx:coord>
        <when>2025-01-01T00:40:44.1061070Z</when>
        <gx:coord>12.058139 51.54989 113.856</gx:coord>
        <when>2025-01-01T00:40:46.1201070Z</when>
        <gx:coord>12.058139 51.549805 113.856</gx:coord>
        <when>2025-01-01T00:40:47.9091070Z</when>
        <gx:coord>12.058117 51.549717 113.856</gx:coord>
        <when>2025-01-01T00:40:52.8931070Z</when>
        <gx:coord>12.057989 51.549484 113.856</gx:coord>
        <when>2025-01-01T00:40:57.8931070Z</when>
        <gx:coord>12.057903 51.549267 113.856</gx:coord>
        <when>2025-01-01T00:41:00.1301070Z</when>
        <gx:coord>12.057881 51.549183 113.856</gx:coord>
        <when>2025-01-01T00:41:01.1171070Z</when>
        <gx:coord>12.057881 51.54916 113.856</gx:coord>
        <when>2025-01-01T00:41:02.1071070Z</when>
        <gx:coord>12.057903 51.54914 113.856</gx:coord>
        <when>2025-01-01T00:41:02.8921070Z</when>
        <gx:coord>12.057924 51.549118 113.856</gx:coord>
        <when>2025-01-01T00:41:04.1041070Z</when>
        <gx:coord>12.057945 51.549095 113.856</gx:coord>
        <when>2025-01-01T00:41:05.1211070Z</when>
        <gx:coord>12.05801 51.549076 113.856</gx:coord>
        <when>2025-01-01T00:41:07.8931070Z</when>
        <gx:coord>12.058203 51.549053 113.856</gx:coord>
        <when>2025-01-01T00:41:12.8931070Z</when>
        <gx:coord>12.058611 51.54899 113.856</gx:coord>
        <when>2025-01-01T00:41:17.8931070Z</when>
        <gx:coord>12.059083 51.548923 113.856</gx:coord>
        <when>2025-01-01T00:41:22.8931070Z</when>
        <gx:coord>12.05949 51.54886 113.856</gx:coord>
        <when>2025-01-01T00:41:26.1021070Z</when>
        <gx:coord>12.059662 51.548817 113.856</gx:coord>
        <when>2025-01-01T00:41:27.0951070Z</when>
        <gx:coord>12.059706 51.548817 113.856</gx:coord>
        <when>2025-01-01T00:41:27.8931070Z</when>
        <gx:coord>12.059727 51.548798 113.856</gx:coord>
        <when>2025-01-01T00:41:28.0951070Z</when>
        <gx:coord>12.059727 51.548798 113.856</gx:coord>
        <when>2025-01-01T00:41:30.1091070Z</when>
        <gx:coord>12.059748 51.548733 113.856</gx:coord>
        <when>2025-01-01T00:41:32.8931070Z</when>
        <gx:coord>12.059706 51.548645 113.856</gx:coord>
        <when>2025-01-01T00:41:37.8931070Z</when>
        <gx:coord>12.05962 51.548454 113.856</gx:coord>
        <when>2025-01-01T00:41:42.8931070Z</when>
        <gx:coord>12.059555 51.54826 113.856</gx:coord>
        <when>2025-01-01T00:41:44.0981070Z</when>
        <gx:coord>12.059555 51.548237 113.856</gx:coord>
        <when>2025-01-01T00:41:45.1001070Z</when>
        <gx:coord>12.059555 51.548218 113.856</gx:coord>
        <when>2025-01-01T00:41:46.0911070Z</when>
        <gx:coord>12.059555 51.548195 113.856</gx:coord>
        <when>2025-01-01T00:41:47.1081070Z</when>
        <gx:coord>12.059576 51.548172 113.856</gx:coord>
        <when>2025-01-01T00:41:47.9161070Z</when>
        <gx:coord>12.059598 51.548172 113.856</gx:coord>
        <when>2025-01-01T00:41:48.0961070Z</when>
        <gx:coord>12.059598 51.548172 113.856</gx:coord>
        <when>2025-01-01T00:41:50.1181070Z</when>
        <gx:coord>12.059706 51.548153 113.856</gx:coord>
        <when>2025-01-01T00:41:52.8931070Z</when>
        <gx:coord>12.059855 51.54813 113.856</gx:coord>
        <when>2025-01-01T00:41:57.8931070Z</when>
        <gx:coord>12.060135 51.548088 113.856</gx:coord>
        <when>2025-01-01T00:42:02.8931070Z</when>
        <gx:coord>12.060392 51.548046 113.856</gx:coord>
        <when>2025-01-01T00:42:03.1111070Z</when>
        <gx:coord>12.060392 51.548046 113.856</gx:coord>
        <when>2025-01-01T00:42:07.1081070Z</when>
        <gx:coord>12.06052 51.548 113.856</gx:coord>
        <when>2025-01-01T00:42:07.1091070Z</when>
        <gx:coord>12.06052 51.548 113.856</gx:coord>
        <when>2025-01-01T00:42:07.8931070Z</when>
        <gx:coord>12.06052 51.548 115.38001</gx:coord>
        <when>2025-01-01T00:42:08.1011070Z</when>
        <gx:coord>12.06052 51.548 115.38001</gx:coord>
        <when>2025-01-01T00:42:12.8931070Z</when>
        <gx:coord>12.060542 51.548023 115.38001</gx:coord>
        <when>2025-01-01T00:42:17.8931070Z</when>
        <gx:coord>12.060542 51.548023 115.38001</gx:coord>
        <when>2025-01-01T00:42:22.8931070Z</when>
        <gx:coord>12.060542 51.548023 115.38001</gx:coord>
        <when>2025-01-01T00:42:25.3951070Z</when>
        <gx:coord>12.060542 51.548023 115.38001</gx:coord>
        <coordinates />
      </gx:Track>
    </Placemark>
    <Placemark>
      <name>Takeoff: 2025-01-01</name>
      <styleUrl>#downArrowIcon</styleUrl>
      <Point>
        <altitudeMode>relativeToGround</altitudeMode>
        <coordinates>12.060221,51.5506,20</coordinates>
      </Point>
    </Placemark>
    <Placemark>
      <name>Landing: 2025-01-01</name>
      <styleUrl>#downArrowIcon</styleUrl>
      <Point>
        <altitudeMode>relativeToGround</altitudeMode>
        <coordinates>12.055243,51.552036,20</coordinates>
      </Point>
    </Placemark>
    <Placemark>
      <name>Log Stop: 2025-01-01</name>
      <styleUrl>#downArrowIcon</styleUrl>
      <Point>
        <altitudeMode>relativeToGround</altitudeMode>
        <coordinates>12.060542,51.548023,20</coordinates>
      </Point>
    </Placemark>
  </Document>
</kml>
