<?xml version="1.0" encoding="utf-8"?>
<kml xmlns:gx="http://www.google.com/kml/ext/2.2" creator="kml-heatmap" xmlns="http://www.opengis.net/kml/2.2">
  <Document>
    <name>SkyDemon Track Log</name>
    <Style id="skydemonLogStyle">
      <LineStyle>
        <color>7f00ffff</color>
        <width>4</width>
      </LineStyle>
      <PolyStyle>
        <color>7fffa400</color>
      </PolyStyle>
    </Style>
    <Style id="downArrowIcon">
      <IconStyle>
        <href>http://maps.google.com/mapfiles/kml/pal4/icon28.png</href>
      </IconStyle>
    </Style>
    <Placemark>
      <name>Log Start: 2025-01-01</name>
      <styleUrl>#downArrowIcon</styleUrl>
      <Point>
        <altitudeMode>relativeToGround</altitudeMode>
        <coordinates>12.831216,50.74705,20</coordinates>
      </Point>
    </Placemark>
    <Placemark>
      <name>EDCJ ChemnitzJahnsdorf - EDAQ Halle-Oppin</name>
      <styleUrl>#skydemonLogStyle</styleUrl>
      <gx:Track>
        <extrude>1</extrude>
        <altitudeMode>absolute</altitudeMode>
        <when>2025-01-01T00:00:00.6963950Z</when>
        <gx:coord>12.831216 50.74705 374.87402</gx:coord>
        <when>2025-01-01T00:00:05.6973950Z</when>
        <gx:coord>12.831216 50.74705 374.87402</gx:coord>
        <when>2025-01-01T00:00:10.6973950Z</when>
        <gx:coord>12.831216 50.74705 374.87402</gx:coord>
        <when>2025-01-01T00:00:15.6973950Z</when>
        <gx:coord>12.831216 50.74705 374.87402</gx:coord>
        <when>2025-01-01T00:00:20.6973950Z</when>
        <gx:coord>12.831216 50.74705 374.87402</gx:coord>
        <when>2025-01-01T00:00:25.6973950Z</when>
        <gx:coord>12.831216 50.74705 374.87402</gx:coord>
        <when>2025-01-01T00:00:30.6973950Z</when>
        <gx:coord>12.831216 50.74705 374.87402</gx:coord>
        <when>2025-01-01T00:00:35.6973950Z</when>
        <gx:coord>12.831216 50.74705 374.87402</gx:coord>
        <when>2025-01-01T00:00:40.6973950Z</when>
        <gx:coord>12.831216 50.74705 374.87402</gx:coord>
        <when>2025-01-01T00:00:45.6973950Z</when>
        <gx:coord>12.831216 50.747074 374.87402</gx:coord>
        <when>2025-01-01T00:00:48.1083950Z</when>
        <gx:coord>12.831216 50.747093 374.87402</gx:coord>
        <when>2025-01-01T00:00:50.1033950Z</when>
        <gx:coord>12.831194 50.747116 374.87402</gx:coord>
        <when>2025-01-01T00:00:50.6973950Z</when>
        <gx:coord>12.831194 50.74714 374.87402</gx:coord>
        <when>2025-01-01T00:00:51.0923950Z</when>
        <gx:coord>12.831194 50.74714 374.87402</gx:coord>
        <when>2025-01-01T00:00:52.0973950Z</when>
        <gx:coord>12.831194 50.747158 374.87402</gx:coord>
        <when>2025-01-01T00:00:53.1163950Z</when>
        <gx:coord>12.831194 50.74718 374.87402</gx:coord>
        <when>2025-01-01T00:00:54.0833950Z</when>
        <gx:coord>12.831194 50.747223 374.87402</gx:coord>
        <when>2025-01-01T00:00:54.0833950Z</when>
        <gx:coord>12.831194 50.747223 374.87402</gx:coord>
        <when>2025-01-01T00:00:55.6973950Z</when>
        <gx:coord>12.831259 50.747265 374.87402</gx:coord>
        <when>2025-01-01T00:00:56.0993950Z</when>
        <gx:coord>12.831259 50.747265 374.87402</gx:coord>
        <when>2025-01-01T00:01:00.6973950Z</when>
        <gx:coord>12.831581 50.747353 374.87402</gx:coord>
        <when>2025-01-01T00:01:05.6973950Z</when>
        <gx:coord>12.831966 50.747482 374.87402</gx:coord>
        <when>2025-01-01T00:01:07.1153950Z</when>
        <gx:coord>12.832052 50.7475 374.87402</gx:coord>
        <when>2025-01-01T00:01:10.6973950Z</when>
        <gx:coord>12.8324175 50.74761 374.87402</gx:coord>
        <when>2025-01-01T00:01:15.6973950Z</when>
        <gx:coord>12.832911 50.74776 374.87402</gx:coord>
        <when>2025-01-01T00:01:20.1143950Z</when>
        <gx:coord>12.833384 50.74791 362.682</gx:coord>
        <when>2025-01-01T00:01:20.6973950Z</when>
        <gx:coord>12.833384 50.74791 362.682</gx:coord>
        <when>2025-01-01T00:01:25.6983950Z</when>
        <gx:coord>12.833813 50.74804 362.682</gx:coord>
        <when>2025-01-01T00:01:28.1083950Z</when>
        <gx:coord>12.833962 50.74806 362.682</gx:coord>
        <when>2025-01-01T00:01:29.1203950Z</when>
        <gx:coord>12.834005 50.74808 362.682</gx:coord>
        <when>2025-01-01T00:01:30.0973950Z</when>
        <gx:coord>12.83407 50.74808 362.682</gx:coord>
        <when>2025-01-01T00:01:30.6973950Z</when>
        <gx:coord>12.834134 50.74808 362.682</gx:coord>
        <when>2025-01-01T00:01:31.1263950Z</when>
        <gx:coord>12.834134 50.74808 362.682</gx:coord>
        <when>2025-01-01T00:01:32.0943950Z</when>
        <gx:coord>12.834177 50.74806 362.682</gx:coord>
        <when>2025-01-01T00:01:33.1103950Z</when>
        <gx:coord>12.83422 50.74804 362.682</gx:coord>
        <when>2025-01-01T00:01:35.1163950Z</when>
        <gx:coord>12.834306 50.747974 362.682</gx:coord>
        <when>2025-01-01T00:01:35.6983950Z</when>
        <gx:coord>12.834328 50.747932 362.682</gx:coord>
        <when>2025-01-01T00:01:40.6973950Z</when>
        <gx:coord>12.834477 50.747715 362.682</gx:coord>
        <when>2025-01-01T00:01:43.0963950Z</when>
        <gx:coord>12.834541 50.74765 364.20602</gx:coord>
        <when>2025-01-01T00:01:44.0953950Z</when>
        <gx:coord>12.834563 50.74763 364.20602</gx:coord>
        <when>2025-01-01T00:01:45.0983950Z</when>
        <gx:coord>12.834606 50.74763 364.20602</gx:coord>
        <when>2025-01-01T00:01:45.6983950Z</when>
        <gx:coord>12.834649 50.74761 364.20602</gx:coord>
        <when>2025-01-01T00:01:46.0953950Z</when>
        <gx:coord>12.834649 50.74761 364.20602</gx:coord>
        <when>2025-01-01T00:01:47.0933950Z</when>
        <gx:coord>12.834692 50.74761 364.20602</gx:coord>
        <when>2025-01-01T00:01:48.1173950Z</when>
        <gx:coord>12.834757 50.74761 364.20602</gx:coord>
        <when>2025-01-01T00:01:50.6983950Z</when>
        <gx:coord>12.8349495 50.747673 364.20602</gx:coord>
        <when>2025-01-01T00:01:55.6973950Z</when>
        <gx:coord>12.835379 50.747803 362.682</gx:coord>
        <when>2025-01-01T00:02:00.6983950Z</when>
        <gx:coord>12.835894 50.74795 362.682</gx:coord>
        <when>2025-01-01T00:02:05.6983950Z</when>
        <gx:coord>12.836473 50.748123 362.682</gx:coord>
        <when>2025-01-01T00:02:10.6983950Z</when>
        <gx:coord>12.837138 50.748318 361.158</gx:coord>
        <when>2025-01-01T00:02:15.6983950Z</when>
        <gx:coord>12.837825 50.74853 361.158</gx:coord>
        <when>2025-01-01T00:02:20.6983950Z</when>
        <gx:coord>12.838511 50.748726 361.158</gx:coord>
        <when>2025-01-01T00:02:25.6983950Z</when>
        <gx:coord>12.839198 50.748917 361.158</gx:coord>
        <when>2025-01-01T00:02:30.6983950Z</when>
        <gx:coord>12.839885 50.749134 361.158</gx:coord>
        <when>2025-01-01T00:02:35.6983950Z</when>
        <gx:coord>12.840549 50.749325 361.158</gx:coord>
        <when>2025-01-01T00:02:40.6983950Z</when>
        <gx:coord>12.841236 50.749542 361.158</gx:coord>
        <when>2025-01-01T00:02:45.6983950Z</when>
        <gx:coord>12.841837 50.74971 362.682</gx:coord>
        <when>2025-01-01T00:02:50.6983950Z</when>
        <gx:coord>12.842266 50.74984 362.682</gx:coord>
        <when>2025-01-01T00:02:51.0953950Z</when>
        <gx:coord>12.842266 50.74984 362.682</gx:coord>
        <when>2025-01-01T00:02:52.0883950Z</when>
        <gx:coord>12.842331 50.74984 362.682</gx:coord>
        <when>2025-01-01T00:02:53.1143950Z</when>
        <gx:coord>12.842396 50.74984 362.682</gx:coord>
        <when>2025-01-01T00:02:55.1163950Z</when>
        <gx:coord>12.842482 50.74982 362.682</gx:coord>
        <when>2025-01-01T00:02:55.6983950Z</when>
        <gx:coord>12.842524 50.749798 362.682</gx:coord>
        <when>2025-01-01T00:02:56.1093950Z</when>
        <gx:coord>12.842524 50.749798 362.682</gx:coord>
        <when>2025-01-01T00:02:58.1093950Z</when>
        <gx:coord>12.842567 50.749756 364.20602</gx:coord>
        <when>2025-01-01T00:03:00.6983950Z</when>
        <gx:coord>12.842631 50.74967 364.20602</gx:coord>
        <when>2025-01-01T00:03:05.6983950Z</when>
        <gx:coord>12.842739 50.74952 364.20602</gx:coord>
        <when>2025-01-01T00:03:07.1043950Z</when>
        <gx:coord>12.842739 50.749496 364.20602</gx:coord>
        <when>2025-01-01T00:03:10.6983950Z</when>
        <gx:coord>12.84276 50.749496 364.20602</gx:coord>
        <when>2025-01-01T00:03:15.6993950Z</when>
        <gx:coord>12.84276 50.749496 364.20602</gx:coord>
        <when>2025-01-01T00:03:20.6993950Z</when>
        <gx:coord>12.84276 50.749496 364.20602</gx:coord>
        <when>2025-01-01T00:03:25.6993950Z</when>
        <gx:coord>12.84276 50.749496 364.20602</gx:coord>
        <when>2025-01-01T00:03:30.6983950Z</when>
        <gx:coord>12.84276 50.749496 364.20602</gx:coord>
        <when>2025-01-01T00:03:35.6993950Z</when>
        <gx:coord>12.84276 50.749496 364.20602</gx:coord>
        <when>2025-01-01T00:03:40.6993950Z</when>
        <gx:coord>12.84276 50.749496 364.20602</gx:coord>
        <when>2025-01-01T00:03:45.6993950Z</when>
        <gx:coord>12.84276 50.749496 364.20602</gx:coord>
        <when>2025-01-01T00:03:50.6993950Z</when>
        <gx:coord>12.84276 50.749496 364.20602</gx:coord>
        <when>2025-01-01T00:03:55.6993950Z</when>
        <gx:coord>12.84276 50.749496 364.20602</gx:coord>
        <when>2025-01-01T00:04:00.6993950Z</when>
        <gx:coord>12.84276 50.749496 364.20602</gx:coord>
        <when>2025-01-01T00:04:05.6993950Z</when>
        <gx:coord>12.84276 50.749496 364.20602</gx:coord>
        <when>2025-01-01T00:04:10.6993950Z</when>
        <gx:coord>12.84276 50.749496 364.20602</gx:coord>
        <when>2025-01-01T00:04:15.6993950Z</when>
        <gx:coord>12.84276 50.749496 364.20602</gx:coord>
        <when>2025-01-01T00:04:20.6993950Z</when>
        <gx:coord>12.84276 50.749496 364.20602</gx:coord>
        <when>2025-01-01T00:04:25.6983950Z</when>
        <gx:coord>12.84276 50.749496 364.20602</gx:coord>
        <when>2025-01-01T00:04:30.6993950Z</when>
        <gx:coord>12.84276 50.749496 364.20602</gx:coord>
        <when>2025-01-01T00:04:35.6993950Z</when>
        <gx:coord>12.84276 50.749477 364.20602</gx:coord>
        <when>2025-01-01T00:04:40.6993950Z</when>
        <gx:coord>12.842867 50.749348 364.20602</gx:coord>
        <when>2025-01-01T00:04:45.6993950Z</when>
        <gx:coord>12.842975 50.749176 365.73</gx:coord>
        <when>2025-01-01T00:04:47.1003950Z</when>
        <gx:coord>12.842975 50.749153 365.73</gx:coord>
        <when>2025-01-01T00:04:48.0983950Z</when>
        <gx:coord>12.842975 50.74911 365.73</gx:coord>
        <when>2025-01-01T00:04:49.0983950Z</when>
        <gx:coord>12.842953 50.74909 365.73</gx:coord>
        <when>2025-01-01T00:04:50.7003950Z</when>
        <gx:coord>12.842911 50.749046 365.73</gx:coord>
        <when>2025-01-01T00:04:51.0933950Z</when>
        <gx:coord>12.842911 50.749046 365.73</gx:coord>
        <when>2025-01-01T00:04:55.7003950Z</when>
        <gx:coord>12.842653 50.74898 365.73</gx:coord>
        <when>2025-01-01T00:04:56.1173950Z</when>
        <gx:coord>12.842653 50.74898 365.73</gx:coord>
        <when>2025-01-01T00:04:59.1123950Z</when>
        <gx:coord>12.842288 50.748875 365.73</gx:coord>
        <when>2025-01-01T00:05:00.7003950Z</when>
        <gx:coord>12.841923 50.748768 365.73</gx:coord>
        <when>2025-01-01T00:05:01.1153950Z</when>
        <gx:coord>12.841923 50.748768 365.73</gx:coord>
        <when>2025-01-01T00:05:02.1133950Z</when>
        <gx:coord>12.841709 50.748703 365.73</gx:coord>
        <when>2025-01-01T00:05:05.7003950Z</when>
        <gx:coord>12.840635 50.748383 365.73</gx:coord>
        <when>2025-01-01T00:05:06.1113950Z</when>
        <gx:coord>12.840635 50.748383 365.73</gx:coord>
        <when>2025-01-01T00:05:10.7003950Z</when>
        <gx:coord>12.838919 50.747887 368.77798</gx:coord>
        <when>2025-01-01T00:05:13.1203950Z</when>
        <gx:coord>12.838168 50.74765 373.35</gx:coord>
        <when>2025-01-01T00:05:15.7003950Z</when>
        <gx:coord>12.83703 50.747288 382.494</gx:coord>
        <when>2025-01-01T00:05:18.1133950Z</when>
        <gx:coord>12.835915 50.746944 394.686</gx:coord>
        <when>2025-01-01T00:05:20.7003950Z</when>
        <gx:coord>12.835164 50.746708 400.78198</gx:coord>
        <when>2025-01-01T00:05:25.1163950Z</when>
        <gx:coord>12.833319 50.746128 431.26202</gx:coord>
        <when>2025-01-01T00:05:25.7003950Z</when>
        <gx:coord>12.833319 50.746128 431.26202</gx:coord>
        <when>2025-01-01T00:05:30.7003950Z</when>
        <gx:coord>12.831451 50.74555 446.50198</gx:coord>
        <when>2025-01-01T00:05:35.1123950Z</when>
        <gx:coord>12.829607 50.74499 464.79</gx:coord>
        <when>2025-01-01T00:05:35.6993950Z</when>
        <gx:coord>12.829607 50.74499 464.79</gx:coord>
        <when>2025-01-01T00:05:40.7003950Z</when>
        <gx:coord>12.827761 50.7445 483.078</gx:coord>
        <when>2025-01-01T00:05:45.1103950Z</when>
        <gx:coord>12.825916 50.74405 496.794</gx:coord>
        <when>2025-01-01T00:05:45.7003950Z</when>
        <gx:coord>12.825916 50.74405 496.794</gx:coord>
        <when>2025-01-01T00:05:47.1143950Z</when>
        <gx:coord>12.825551 50.74396 499.84198</gx:coord>
        <when>2025-01-01T00:05:50.7003950Z</when>
        <gx:coord>12.824092 50.74364 512.034</gx:coord>
        <when>2025-01-01T00:05:55.7013950Z</when>
        <gx:coord>12.822289 50.74325 525.75</gx:coord>
        <when>2025-01-01T00:05:56.1143950Z</when>
        <gx:coord>12.821924 50.743187 528.798</gx:coord>
        <when>2025-01-01T00:06:00.7013950Z</when>
        <gx:coord>12.820444 50.74289 534.894</gx:coord>
        <when>2025-01-01T00:06:05.7013950Z</when>
        <gx:coord>12.818491 50.7425 547.086</gx:coord>
        <when>2025-01-01T00:06:09.1203950Z</when>
        <gx:coord>12.816925 50.742157 560.802</gx:coord>
        <when>2025-01-01T00:06:10.7013950Z</when>
        <gx:coord>12.816539 50.742073 563.85</gx:coord>
        <when>2025-01-01T00:06:13.1223950Z</when>
        <gx:coord>12.815744 50.741943 569.946</gx:coord>
        <when>2025-01-01T00:06:15.7013950Z</when>
        <gx:coord>12.814457 50.7419 577.566</gx:coord>
        <when>2025-01-01T00:06:16.1003950Z</when>
        <gx:coord>12.814457 50.7419 577.566</gx:coord>
        <when>2025-01-01T00:06:19.1203950Z</when>
        <gx:coord>12.8131275 50.74205 582.138</gx:coord>
        <when>2025-01-01T00:06:20.7013950Z</when>
        <gx:coord>12.812269 50.742287 586.71</gx:coord>
        <when>2025-01-01T00:06:22.1123950Z</when>
        <gx:coord>12.81184 50.742416 588.234</gx:coord>
        <when>2025-01-01T00:06:22.1123950Z</when>
        <gx:coord>12.81184 50.742416 588.234</gx:coord>
        <when>2025-01-01T00:06:23.1133950Z</when>
        <gx:coord>12.811003 50.74276 595.854</gx:coord>
        <when>2025-01-01T00:06:25.1143950Z</when>
        <gx:coord>12.810595 50.742973 598.902</gx:coord>
        <when>2025-01-01T00:06:25.7013950Z</when>
        <gx:coord>12.810209 50.743187 601.95</gx:coord>
        <when>2025-01-01T00:06:30.1143950Z</when>
        <gx:coord>12.808771 50.744198 612.618</gx:coord>
        <when>2025-01-01T00:06:30.7013950Z</when>
        <gx:coord>12.808449 50.7445 614.14197</gx:coord>
        <when>2025-01-01T00:06:31.1113950Z</when>
        <gx:coord>12.808449 50.7445 614.14197</gx:coord>
        <when>2025-01-01T00:06:35.1163950Z</when>
        <gx:coord>12.8070545 50.74611 627.85803</gx:coord>
        <when>2025-01-01T00:06:35.7013950Z</when>
        <gx:coord>12.8070545 50.74611 627.85803</gx:coord>
        <when>2025-01-01T00:06:38.1133950Z</when>
        <gx:coord>12.8065605 50.746796 633.95404</gx:coord>
        <when>2025-01-01T00:06:40.7013950Z</when>
        <gx:coord>12.805832 50.747803 643.098</gx:coord>
        <when>2025-01-01T00:06:44.1213950Z</when>
        <gx:coord>12.804866 50.749134 652.242</gx:coord>
        <when>2025-01-01T00:06:44.1223950Z</when>
        <gx:coord>12.804866 50.749134 658.338</gx:coord>
        <when>2025-01-01T00:06:45.7013950Z</when>
        <gx:coord>12.804608 50.749454 662.91003</gx:coord>
        <when>2025-01-01T00:06:50.7013950Z</when>
        <gx:coord>12.803321 50.751083 680.934</gx:coord>
        <when>2025-01-01T00:06:54.1123950Z</when>
        <gx:coord>12.802291 50.752415 690.078</gx:coord>
        <when>2025-01-01T00:06:55.7013950Z</when>
        <gx:coord>12.802055 50.752758 693.126</gx:coord>
        <when>2025-01-01T00:07:00.7013950Z</when>
        <gx:coord>12.80081 50.754475 700.7461</gx:coord>
        <when>2025-01-01T00:07:05.7013950Z</when>
        <gx:coord>12.799608 50.75619 712.938</gx:coord>
        <when>2025-01-01T00:07:09.1163950Z</when>
        <gx:coord>12.798643 50.757587 722.0821</gx:coord>
        <when>2025-01-01T00:07:10.7013950Z</when>
        <gx:coord>12.798407 50.75795 725.13</gx:coord>
        <when>2025-01-01T00:07:15.7013950Z</when>
        <gx:coord>12.797227 50.75973 735.798</gx:coord>
        <when>2025-01-01T00:07:20.7023950Z</when>
        <gx:coord>12.796068 50.76156 749.514</gx:coord>
        <when>2025-01-01T00:07:22.1133950Z</when>
        <gx:coord>12.795596 50.762264 754.086</gx:coord>
        <when>2025-01-01T00:07:25.7023950Z</when>
        <gx:coord>12.7949095 50.763336 766.278</gx:coord>
        <when>2025-01-01T00:07:28.1243950Z</when>
        <gx:coord>12.794223 50.764412 772.3741</gx:coord>
        <when>2025-01-01T00:07:30.7023950Z</when>
        <gx:coord>12.793772 50.765118 781.518</gx:coord>
        <when>2025-01-01T00:07:31.1173950Z</when>
        <gx:coord>12.793536 50.76546 786.0901</gx:coord>
        <when>2025-01-01T00:07:35.7023950Z</when>
        <gx:coord>12.792614 50.766857 796.758</gx:coord>
        <when>2025-01-01T00:07:40.7023950Z</when>
        <gx:coord>12.791283 50.76855 811.998</gx:coord>
        <when>2025-01-01T00:07:43.1133950Z</when>
        <gx:coord>12.790424 50.76954 819.618</gx:coord>
        <when>2025-01-01T00:07:45.7023950Z</when>
        <gx:coord>12.789845 50.770203 827.238</gx:coord>
        <when>2025-01-01T00:07:50.7033950Z</when>
        <gx:coord>12.788386 50.771812 845.526</gx:coord>
        <when>2025-01-01T00:07:51.1133950Z</when>
        <gx:coord>12.788086 50.772137 850.0981</gx:coord>
        <when>2025-01-01T00:07:55.7033950Z</when>
        <gx:coord>12.786927 50.77338 863.8141</gx:coord>
        <when>2025-01-01T00:08:00.7033950Z</when>
        <gx:coord>12.785404 50.774967 874.482</gx:coord>
        <when>2025-01-01T00:08:01.0933950Z</when>
        <gx:coord>12.785404 50.774967 874.482</gx:coord>
        <when>2025-01-01T00:08:04.1133950Z</when>
        <gx:coord>12.78388 50.77602 882.102</gx:coord>
        <when>2025-01-01T00:08:05.1153950Z</when>
        <gx:coord>12.78388 50.77602 882.102</gx:coord>
        <when>2025-01-01T00:08:05.7033950Z</when>
        <gx:coord>12.78343 50.776257 883.626</gx:coord>
        <when>2025-01-01T00:08:08.1173950Z</when>
        <gx:coord>12.782528 50.776707 883.626</gx:coord>
        <when>2025-01-01T00:08:09.1183950Z</when>
        <gx:coord>12.782185 50.77705 885.1501</gx:coord>
        <when>2025-01-01T00:08:10.7023950Z</when>
        <gx:coord>12.781177 50.77746 886.674</gx:coord>
        <when>2025-01-01T00:08:14.1273950Z</when>
        <gx:coord>12.77916 50.778316 889.722</gx:coord>
        <when>2025-01-01T00:08:15.1163950Z</when>
        <gx:coord>12.77916 50.778316 891.2461</gx:coord>
        <when>2025-01-01T00:08:15.1183950Z</when>
        <gx:coord>12.77916 50.778316 891.2461</gx:coord>
        <when>2025-01-01T00:08:15.7033950Z</when>
        <gx:coord>12.778795 50.778744 892.77</gx:coord>
        <when>2025-01-01T00:08:16.1163950Z</when>
        <gx:coord>12.778795 50.778744 892.77</gx:coord>
        <when>2025-01-01T00:08:20.7033950Z</when>
        <gx:coord>12.776392 50.780117 898.8661</gx:coord>
        <when>2025-01-01T00:08:25.7033950Z</when>
        <gx:coord>12.773967 50.781597 895.818</gx:coord>
        <when>2025-01-01T00:08:30.1103950Z</when>
        <gx:coord>12.771929 50.78282 894.294</gx:coord>
        <when>2025-01-01T00:08:30.7033950Z</when>
        <gx:coord>12.771414 50.783142 892.77</gx:coord>
        <when>2025-01-01T00:08:35.7033950Z</when>
        <gx:coord>12.768795 50.78471 891.2461</gx:coord>
        <when>2025-01-01T00:08:40.7033950Z</when>
        <gx:coord>12.766242 50.78632 894.294</gx:coord>
        <when>2025-01-01T00:08:45.7033950Z</when>
        <gx:coord>12.763731 50.78797 894.294</gx:coord>
        <when>2025-01-01T00:08:50.7033950Z</when>
        <gx:coord>12.761286 50.7896 906.4861</gx:coord>
        <when>2025-01-01T00:08:52.1193950Z</when>
        <gx:coord>12.76032 50.790245 909.534</gx:coord>
        <when>2025-01-01T00:08:52.1193950Z</when>
        <gx:coord>12.76032 50.790245 912.5821</gx:coord>
        <when>2025-01-01T00:08:55.7033950Z</when>
        <gx:coord>12.7589035 50.79117 917.154</gx:coord>
        <when>2025-01-01T00:09:00.7043950Z</when>
        <gx:coord>12.756586 50.792736 924.774</gx:coord>
        <when>2025-01-01T00:09:05.7043950Z</when>
        <gx:coord>12.754375 50.7943 930.87</gx:coord>
        <when>2025-01-01T00:09:10.7043950Z</when>
        <gx:coord>12.752166 50.795845 935.442</gx:coord>
        <when>2025-01-01T00:09:15.7043950Z</when>
        <gx:coord>12.749956 50.79739 933.9181</gx:coord>
        <when>2025-01-01T00:09:53.4043950Z</when>
        <gx:coord>12.742295 50.802605 942.392</gx:coord>
        <when>2025-01-01T00:09:53.4083950Z</when>
        <gx:coord>12.742295 50.802605 943.9161</gx:coord>
        <when>2025-01-01T00:09:53.4143950Z</when>
        <gx:coord>12.73294 50.80844 974.39606</gx:coord>
        <when>2025-01-01T00:09:53.7713950Z</when>
        <gx:coord>12.732425 50.8087 975.92004</gx:coord>
        <when>2025-01-01T00:09:58.8043950Z</when>
        <gx:coord>12.729828 50.809902 978.96814</gx:coord>
        <when>2025-01-01T00:09:59.1083950Z</when>
        <gx:coord>12.729828 50.809902 978.96814</gx:coord>
        <when>2025-01-01T00:10:03.8043950Z</when>
        <gx:coord>12.727146 50.81104 978.96814</gx:coord>
        <when>2025-01-01T00:10:08.8043950Z</when>
        <gx:coord>12.724379 50.812134 980.49207</gx:coord>
        <when>2025-01-01T00:10:12.1093950Z</when>
        <gx:coord>12.722683 50.812756 980.49207</gx:coord>
        <when>2025-01-01T00:10:13.1173950Z</when>
        <gx:coord>12.721546 50.813183 982.01605</gx:coord>
        <when>2025-01-01T00:10:13.8043950Z</when>
        <gx:coord>12.721546 50.813183 982.01605</gx:coord>
        <when>2025-01-01T00:10:18.8053950Z</when>
        <gx:coord>12.718692 50.814236 983.54</gx:coord>
        <when>2025-01-01T00:10:23.8053950Z</when>
        <gx:coord>12.715859 50.81533 982.01605</gx:coord>
        <when>2025-01-01T00:10:28.7723950Z</when>
        <gx:coord>12.712984 50.816402 980.49207</gx:coord>
        <when>2025-01-01T00:10:33.8153950Z</when>
        <gx:coord>12.710066 50.817455 974.39606</gx:coord>
        <when>2025-01-01T00:10:38.8133950Z</when>
        <gx:coord>12.707148 50.81857 977.44403</gx:coord>
        <when>2025-01-01T00:10:43.8113950Z</when>
        <gx:coord>12.704186 50.81973 977.44403</gx:coord>
        <when>2025-01-01T00:10:45.1133950Z</when>
        <gx:coord>12.703608 50.819965 975.92004</gx:coord>
        <when>2025-01-01T00:10:48.8153950Z</when>
        <gx:coord>12.701225 50.820972 978.96814</gx:coord>
        <when>2025-01-01T00:10:52.1223950Z</when>
        <gx:coord>12.698822 50.822002 978.96814</gx:coord>
        <when>2025-01-01T00:10:53.7773950Z</when>
        <gx:coord>12.698221 50.82226 977.44403</gx:coord>
        <when>2025-01-01T00:10:58.8103950Z</when>
        <gx:coord>12.695282 50.82359 975.92004</gx:coord>
        <when>2025-01-01T00:11:03.8113950Z</when>
        <gx:coord>12.692342 50.824963 974.39606</gx:coord>
        <when>2025-01-01T00:11:08.8123950Z</when>
        <gx:coord>12.6894455 50.82638 980.49207</gx:coord>
        <when>2025-01-01T00:11:13.7733950Z</when>
        <gx:coord>12.686677 50.827755 988.11206</gx:coord>
        <when>2025-01-01T00:11:18.7733950Z</when>
        <gx:coord>12.68393 50.829063 995.732</gx:coord>
        <when>2025-01-01T00:11:23.7943950Z</when>
        <gx:coord>12.68127 50.83037 995.732</gx:coord>
        <when>2025-01-01T00:11:26.1083950Z</when>
        <gx:coord>12.680218 50.83091 995.732</gx:coord>
        <when>2025-01-01T00:11:28.8073950Z</when>
        <gx:coord>12.678652 50.831745 994.20807</gx:coord>
        <when>2025-01-01T00:11:30.1153950Z</when>
        <gx:coord>12.677622 50.832325 992.6841</gx:coord>
        <when>2025-01-01T00:11:33.7773950Z</when>
        <gx:coord>12.676077 50.83316 995.732</gx:coord>
        <when>2025-01-01T00:11:34.1123950Z</when>
        <gx:coord>12.675562 50.83342 1004.87604</gx:coord>
        <when>2025-01-01T00:11:38.8113950Z</when>
        <gx:coord>12.673481 50.83447 1004.87604</gx:coord>
        <when>2025-01-01T00:11:43.8093950Z</when>
        <gx:coord>12.670755 50.83576 1001.82806</gx:coord>
        <when>2025-01-01T00:11:48.8113950Z</when>
        <gx:coord>12.667944 50.837025 1000.3041</gx:coord>
        <when>2025-01-01T00:11:53.7843950Z</when>
        <gx:coord>12.665048 50.83831 991.16</gx:coord>
        <when>2025-01-01T00:11:58.8003950Z</when>
        <gx:coord>12.6620865 50.839577 986.58813</gx:coord>
        <when>2025-01-01T00:12:03.7993950Z</when>
        <gx:coord>12.6590395 50.840843 982.01605</gx:coord>
        <when>2025-01-01T00:12:06.1083950Z</when>
        <gx:coord>12.657194 50.841637 972.8721</gx:coord>
        <when>2025-01-01T00:12:08.1183950Z</when>
        <gx:coord>12.65595 50.842194 971.348</gx:coord>
        <when>2025-01-01T00:12:08.8003950Z</when>
        <gx:coord>12.65595 50.842194 968.30005</gx:coord>
        <when>2025-01-01T00:12:13.8023950Z</when>
        <gx:coord>12.652838 50.84363 959.15607</gx:coord>
        <when>2025-01-01T00:12:18.8113950Z</when>
        <gx:coord>12.649727 50.845093 951.5361</gx:coord>
        <when>2025-01-01T00:12:19.1173950Z</when>
        <gx:coord>12.649727 50.845093 951.5361</gx:coord>
        <when>2025-01-01T00:12:33.5513950Z</when>
        <gx:coord>12.647839 50.845993 942.392</gx:coord>
        <when>2025-01-01T00:12:33.9033950Z</when>
        <gx:coord>12.640049 50.84947 943.9161</gx:coord>
        <when>2025-01-01T00:12:38.9043950Z</when>
        <gx:coord>12.636873 50.850822 956.10803</gx:coord>
        <when>2025-01-01T00:12:42.1163950Z</when>
        <gx:coord>12.634406 50.851913 956.10803</gx:coord>
        <when>2025-01-01T00:12:43.9043950Z</when>
        <gx:coord>12.633805 50.852196 954.58405</gx:coord>
        <when>2025-01-01T00:12:48.9043950Z</when>
        <gx:coord>12.630758 50.853676 943.9161</gx:coord>
        <when>2025-01-01T00:12:53.9043950Z</when>
        <gx:coord>12.627689 50.855133 940.86804</gx:coord>
        <when>2025-01-01T00:12:58.9463950Z</when>
        <gx:coord>12.624685 50.856613 939.344</gx:coord>
        <when>2025-01-01T00:13:03.9463950Z</when>
        <gx:coord>12.62166 50.858074 937.82007</gx:coord>
        <when>2025-01-01T00:13:08.9043950Z</when>
        <gx:coord>12.618635 50.859512 940.86804</gx:coord>
        <when>2025-01-01T00:13:13.9043950Z</when>
        <gx:coord>12.615631 50.86097 936.2961</gx:coord>
        <when>2025-01-01T00:13:17.1183950Z</when>
        <gx:coord>12.613163 50.86217 930.2001</gx:coord>
        <when>2025-01-01T00:13:18.9043950Z</when>
        <gx:coord>12.612541 50.862473 924.10406</gx:coord>
        <when>2025-01-01T00:13:23.9043950Z</when>
        <gx:coord>12.609386 50.864017 919.53204</gx:coord>
        <when>2025-01-01T00:13:28.9053950Z</when>
        <gx:coord>12.606276 50.865585 918.008</gx:coord>
        <when>2025-01-01T00:13:33.9103950Z</when>
        <gx:coord>12.603292 50.867172 914.96</gx:coord>
        <when>2025-01-01T00:13:35.1133950Z</when>
        <gx:coord>12.602112 50.867794 910.38806</gx:coord>
        <when>2025-01-01T00:13:38.9053950Z</when>
        <gx:coord>12.600353 50.868736 905.81604</gx:coord>
        <when>2025-01-01T00:13:43.9053950Z</when>
        <gx:coord>12.597435 50.87028 898.19604</gx:coord>
        <when>2025-01-01T00:14:02.8803950Z</when>
        <gx:coord>12.5921135 50.872902 889.05206</gx:coord>
        <when>2025-01-01T00:14:02.8813950Z</when>
        <gx:coord>12.5881 50.874897 895.1481</gx:coord>
        <when>2025-01-01T00:14:03.2243950Z</when>
        <gx:coord>12.585848 50.87597 895.1481</gx:coord>
        <when>2025-01-01T00:14:08.2343950Z</when>
        <gx:coord>12.583057 50.877277 884.48004</gx:coord>
        <when>2025-01-01T00:14:10.1123950Z</when>
        <gx:coord>12.581942 50.877815 879.9081</gx:coord>
        <when>2025-01-01T00:14:13.2303950Z</when>
        <gx:coord>12.580204 50.878586 876.86005</gx:coord>
        <when>2025-01-01T00:14:18.2303950Z</when>
        <gx:coord>12.577307 50.879852 870.76404</gx:coord>
        <when>2025-01-01T00:14:23.2283950Z</when>
        <gx:coord>12.574282 50.881077 863.14404</gx:coord>
        <when>2025-01-01T00:14:28.2293950Z</when>
        <gx:coord>12.571192 50.882256 858.572</gx:coord>
        <when>2025-01-01T00:14:30.1183950Z</when>
        <gx:coord>12.56999 50.88273 860.09607</gx:coord>
        <when>2025-01-01T00:14:33.2583950Z</when>
        <gx:coord>12.568145 50.88344 855.52405</gx:coord>
        <when>2025-01-01T00:14:38.2263950Z</when>
        <gx:coord>12.565098 50.884636 852.4761</gx:coord>
        <when>2025-01-01T00:14:43.2263950Z</when>
        <gx:coord>12.562073 50.88582 855.52405</gx:coord>
        <when>2025-01-01T00:14:48.2263950Z</when>
        <gx:coord>12.55909 50.88698 852.4761</gx:coord>
        <when>2025-01-01T00:14:51.1043950Z</when>
        <gx:coord>12.55733 50.887707 849.42804</gx:coord>
        <when>2025-01-01T00:14:53.2263950Z</when>
        <gx:coord>12.556171 50.88822 843.33203</gx:coord>
        <when>2025-01-01T00:14:58.2293950Z</when>
        <gx:coord>12.553188 50.889442 840.284</gx:coord>
        <when>2025-01-01T00:15:03.2313950Z</when>
        <gx:coord>12.550228 50.890648 844.8561</gx:coord>
        <when>2025-01-01T00:15:08.1213950Z</when>
        <gx:coord>12.547331 50.891785 852.4761</gx:coord>
        <when>2025-01-01T00:15:08.2303950Z</when>
        <gx:coord>12.547331 50.891785 854.00006</gx:coord>
        <when>2025-01-01T00:15:13.2273950Z</when>
        <gx:coord>12.544584 50.89294 858.572</gx:coord>
        <when>2025-01-01T00:15:18.2273950Z</when>
        <gx:coord>12.541838 50.89408 857.04803</gx:coord>
        <when>2025-01-01T00:15:23.2263950Z</when>
        <gx:coord>12.539156 50.89528 855.52405</gx:coord>
        <when>2025-01-01T00:15:28.2273950Z</when>
        <gx:coord>12.536451 50.896503 855.52405</gx:coord>
        <when>2025-01-01T00:15:33.2623950Z</when>
        <gx:coord>12.533834 50.897793 854.00006</gx:coord>
        <when>2025-01-01T00:15:38.2273950Z</when>
        <gx:coord>12.531345 50.899208 850.952</gx:coord>
        <when>2025-01-01T00:15:43.2273950Z</when>
        <gx:coord>12.528942 50.90071 846.38007</gx:coord>
        <when>2025-01-01T00:15:48.1203950Z</when>
        <gx:coord>12.526495 50.902275 843.33203</gx:coord>
        <when>2025-01-01T00:15:48.2273950Z</when>
        <gx:coord>12.526495 50.902275 843.33203</gx:coord>
        <when>2025-01-01T00:15:53.2653950Z</when>
        <gx:coord>12.524092 50.903908 841.80804</gx:coord>
        <when>2025-01-01T00:15:58.2283950Z</when>
        <gx:coord>12.521732 50.90558 835.71204</gx:coord>
        <when>2025-01-01T00:16:03.2433950Z</when>
        <gx:coord>12.519415 50.90732 831.1401</gx:coord>
        <when>2025-01-01T00:16:08.2283950Z</when>
        <gx:coord>12.517097 50.909122 821.99603</gx:coord>
        <when>2025-01-01T00:16:09.1023950Z</when>
        <gx:coord>12.517097 50.909122 821.99603</gx:coord>
        <when>2025-01-01T00:16:13.2283950Z</when>
        <gx:coord>12.514844 50.910946 823.5201</gx:coord>
        <when>2025-01-01T00:16:18.2283950Z</when>
        <gx:coord>12.512741 50.91279 829.616</gx:coord>
        <when>2025-01-01T00:16:23.2283950Z</when>
        <gx:coord>12.510702 50.914616 832.66406</gx:coord>
        <when>2025-01-01T00:16:25.1163950Z</when>
        <gx:coord>12.509888 50.915344 832.66406</gx:coord>
        <when>2025-01-01T00:16:28.2283950Z</when>
        <gx:coord>12.508686 50.91646 831.1401</gx:coord>
        <when>2025-01-01T00:16:33.2693950Z</when>
        <gx:coord>12.506712 50.91837 847.904</gx:coord>
        <when>2025-01-01T00:16:38.2343950Z</when>
        <gx:coord>12.504802 50.920235 857.04803</gx:coord>
        <when>2025-01-01T00:16:43.2293950Z</when>
        <gx:coord>12.502956 50.922104 860.09607</gx:coord>
        <when>2025-01-01T00:16:48.2293950Z</when>
        <gx:coord>12.501154 50.92397 860.09607</gx:coord>
        <when>2025-01-01T00:16:53.2293950Z</when>
        <gx:coord>12.499394 50.925835 852.4761</gx:coord>
        <when>2025-01-01T00:16:58.2293950Z</when>
        <gx:coord>12.497592 50.92777 850.952</gx:coord>
        <when>2025-01-01T00:17:03.1233950Z</when>
        <gx:coord>12.495704 50.929634 852.4761</gx:coord>
        <when>2025-01-01T00:17:03.2293950Z</when>
        <gx:coord>12.495704 50.929634 854.00006</gx:coord>
        <when>2025-01-01T00:17:08.2683950Z</when>
        <gx:coord>12.493879 50.931503 857.04803</gx:coord>
        <when>2025-01-01T00:17:13.2293950Z</when>
        <gx:coord>12.492013 50.93337 863.14404</gx:coord>
        <when>2025-01-01T00:17:18.2363950Z</when>
        <gx:coord>12.490168 50.935234 869.24</gx:coord>
        <when>2025-01-01T00:17:23.2293950Z</when>
        <gx:coord>12.4883 50.937103 872.288</gx:coord>
        <when>2025-01-01T00:17:28.2303950Z</when>
        <gx:coord>12.486198 50.93888 875.33606</gx:coord>
        <when>2025-01-01T00:17:32.1133950Z</when>
        <gx:coord>12.484417 50.940235 879.9081</gx:coord>
        <when>2025-01-01T00:17:33.2623950Z</when>
        <gx:coord>12.483988 50.94058 879.9081</gx:coord>
        <when>2025-01-01T00:17:38.2303950Z</when>
        <gx:coord>12.481842 50.9424 882.956</gx:coord>
        <when>2025-01-01T00:17:41.1233950Z</when>
        <gx:coord>12.4805975 50.94352 886.004</gx:coord>
        <when>2025-01-01T00:17:43.2363950Z</when>
        <gx:coord>12.479739 50.944267 886.004</gx:coord>
        <when>2025-01-01T00:17:48.2303950Z</when>
        <gx:coord>12.477636 50.946156 889.05206</gx:coord>
        <when>2025-01-01T00:17:53.2363950Z</when>
        <gx:coord>12.475576 50.948067 896.67206</gx:coord>
        <when>2025-01-01T00:17:58.1163950Z</when>
        <gx:coord>12.473645 50.949913 911.91205</gx:coord>
        <when>2025-01-01T00:17:58.2293950Z</when>
        <gx:coord>12.473645 50.949913 911.91205</gx:coord>
        <when>2025-01-01T00:18:03.2333950Z</when>
        <gx:coord>12.4718 50.951714 910.38806</gx:coord>
        <when>2025-01-01T00:18:08.2303950Z</when>
        <gx:coord>12.469869 50.953583 901.2441</gx:coord>
        <when>2025-01-01T00:18:13.2303950Z</when>
        <gx:coord>12.467852 50.95547 899.72003</gx:coord>
        <when>2025-01-01T00:18:18.2303950Z</when>
        <gx:coord>12.465771 50.957253 904.292</gx:coord>
        <when>2025-01-01T00:18:19.1203950Z</when>
        <gx:coord>12.465342 50.957596 904.292</gx:coord>
        <when>2025-01-01T00:18:23.2293950Z</when>
        <gx:coord>12.463581 50.95897 902.76807</gx:coord>
        <when>2025-01-01T00:18:28.2303950Z</when>
        <gx:coord>12.461371 50.960663 901.2441</gx:coord>
        <when>2025-01-01T00:18:33.2683950Z</when>
        <gx:coord>12.459162 50.962357 901.2441</gx:coord>
        <when>2025-01-01T00:18:38.2303950Z</when>
        <gx:coord>12.456972 50.96412 896.67206</gx:coord>
        <when>2025-01-01T00:18:43.2303950Z</when>
        <gx:coord>12.45472 50.965836 898.19604</gx:coord>
        <when>2025-01-01T00:18:48.2313950Z</when>
        <gx:coord>12.452467 50.967552 895.1481</gx:coord>
        <when>2025-01-01T00:18:53.2313950Z</when>
        <gx:coord>12.45015 50.969246 890.57605</gx:coord>
        <when>2025-01-01T00:18:57.1153950Z</when>
        <gx:coord>12.448282 50.97062 889.05206</gx:coord>
        <when>2025-01-01T00:18:58.2313950Z</when>
        <gx:coord>12.44781 50.970985 889.05206</gx:coord>
        <when>2025-01-01T00:19:03.1133950Z</when>
        <gx:coord>12.445407 50.972702 881.43207</gx:coord>
        <when>2025-01-01T00:19:03.2643950Z</when>
        <gx:coord>12.445407 50.972702 881.43207</gx:coord>
        <when>2025-01-01T00:19:08.2303950Z</when>
        <gx:coord>12.442918 50.974438 878.38403</gx:coord>
        <when>2025-01-01T00:19:13.2313950Z</when>
        <gx:coord>12.440407 50.976196 873.8121</gx:coord>
        <when>2025-01-01T00:19:18.2313950Z</when>
        <gx:coord>12.437983 50.97796 873.8121</gx:coord>
        <when>2025-01-01T00:19:23.1633950Z</when>
        <gx:coord>12.435644 50.979717 875.33606</gx:coord>
        <when>2025-01-01T00:19:28.1633950Z</when>
        <gx:coord>12.433305 50.9815 870.76404</gx:coord>
        <when>2025-01-01T00:19:33.1213950Z</when>
        <gx:coord>12.430923 50.983406 863.14404</gx:coord>
        <when>2025-01-01T00:19:33.1643950Z</when>
        <gx:coord>12.430923 50.983406 863.14404</gx:coord>
        <when>2025-01-01T00:19:38.1633950Z</when>
        <gx:coord>12.428648 50.985405 855.52405</gx:coord>
        <when>2025-01-01T00:19:40.0923950Z</when>
        <gx:coord>12.427748 50.9862 850.952</gx:coord>
        <when>2025-01-01T00:19:43.1633950Z</when>
        <gx:coord>12.42631 50.987354 844.8561</gx:coord>
        <when>2025-01-01T00:19:48.1643950Z</when>
        <gx:coord>12.423692 50.98916 835.71204</gx:coord>
        <when>2025-01-01T00:19:53.1633950Z</when>
        <gx:coord>12.421009 50.990917 838.7601</gx:coord>
        <when>2025-01-01T00:19:58.1633950Z</when>
        <gx:coord>12.41837 50.992676 834.18805</gx:coord>
        <when>2025-01-01T00:20:03.1633950Z</when>
        <gx:coord>12.4157095 50.99444 840.284</gx:coord>
        <when>2025-01-01T00:20:08.1183950Z</when>
        <gx:coord>12.413113 50.996197 850.952</gx:coord>
        <when>2025-01-01T00:20:08.1633950Z</when>
        <gx:coord>12.413113 50.996197 852.4761</gx:coord>
        <when>2025-01-01T00:20:13.1633950Z</when>
        <gx:coord>12.4106455 50.997913 852.4761</gx:coord>
        <when>2025-01-01T00:20:18.1633950Z</when>
        <gx:coord>12.408242 50.99965 854.00006</gx:coord>
        <when>2025-01-01T00:20:23.1763950Z</when>
        <gx:coord>12.405903 51.001324 852.4761</gx:coord>
        <when>2025-01-01T00:20:28.1633950Z</when>
        <gx:coord>12.403607 51.00302 847.904</gx:coord>
        <when>2025-01-01T00:20:33.1633950Z</when>
        <gx:coord>12.401376 51.004757 846.38007</gx:coord>
        <when>2025-01-01T00:20:38.1633950Z</when>
        <gx:coord>12.399144 51.006496 841.80804</gx:coord>
        <when>2025-01-01T00:20:43.1683950Z</when>
        <gx:coord>12.39687 51.008213 840.284</gx:coord>
        <when>2025-01-01T00:20:45.1143950Z</when>
        <gx:coord>12.3959465 51.0089 840.284</gx:coord>
        <when>2025-01-01T00:20:48.1673950Z</when>
        <gx:coord>12.394552 51.009907 838.7601</gx:coord>
        <when>2025-01-01T00:20:53.1633950Z</when>
        <gx:coord>12.392128 51.01158 832.66406</gx:coord>
        <when>2025-01-01T00:20:58.1643950Z</when>
        <gx:coord>12.389574 51.01315 828.09204</gx:coord>
        <when>2025-01-01T00:21:03.1643950Z</when>
        <gx:coord>12.387042 51.014736 834.18805</gx:coord>
        <when>2025-01-01T00:21:08.1643950Z</when>
        <gx:coord>12.384725 51.01647 832.66406</gx:coord>
        <when>2025-01-01T00:21:30.1823950Z</when>
        <gx:coord>12.378888 51.021687 834.18805</gx:coord>
        <when>2025-01-01T00:21:30.5163950Z</when>
        <gx:coord>12.375884 51.024734 841.80804</gx:coord>
        <when>2025-01-01T00:21:35.5173950Z</when>
        <gx:coord>12.37406 51.026623 841.80804</gx:coord>
        <when>2025-01-01T00:21:40.5173950Z</when>
        <gx:coord>12.3721075 51.02847 838.7601</gx:coord>
        <when>2025-01-01T00:21:45.5173950Z</when>
        <gx:coord>12.369962 51.030293 832.66406</gx:coord>
        <when>2025-01-01T00:21:50.5173950Z</when>
        <gx:coord>12.36773 51.03218 831.1401</gx:coord>
        <when>2025-01-01T00:21:54.1123950Z</when>
        <gx:coord>12.366335 51.03336 825.04407</gx:coord>
        <when>2025-01-01T00:21:55.5183950Z</when>
        <gx:coord>12.36537 51.034176 821.99603</gx:coord>
        <when>2025-01-01T00:21:56.1083950Z</when>
        <gx:coord>12.364876 51.03456 820.47205</gx:coord>
        <when>2025-01-01T00:21:59.1183950Z</when>
        <gx:coord>12.363375 51.035763 817.4241</gx:coord>
        <when>2025-01-01T00:22:00.5243950Z</when>
        <gx:coord>12.362881 51.03615 815.9</gx:coord>
        <when>2025-01-01T00:22:05.5183950Z</when>
        <gx:coord>12.360498 51.03823 803.70807</gx:coord>
        <when>2025-01-01T00:22:10.5243950Z</when>
        <gx:coord>12.358074 51.040314 794.564</gx:coord>
        <when>2025-01-01T00:22:15.5183950Z</when>
        <gx:coord>12.355714 51.04244 796.0881</gx:coord>
        <when>2025-01-01T00:22:18.1153950Z</when>
        <gx:coord>12.354319 51.04366 789.99207</gx:coord>
        <when>2025-01-01T00:22:20.5183950Z</when>
        <gx:coord>12.3533745 51.044476 783.896</gx:coord>
        <when>2025-01-01T00:22:25.5183950Z</when>
        <gx:coord>12.350971 51.04647 770.18</gx:coord>
        <when>2025-01-01T00:22:30.5253950Z</when>
        <gx:coord>12.348526 51.048424 762.56006</gx:coord>
        <when>2025-01-01T00:22:31.1123950Z</when>
        <gx:coord>12.348053 51.048832 759.512</gx:coord>
        <when>2025-01-01T00:22:32.1153950Z</when>
        <gx:coord>12.34756 51.049217 759.512</gx:coord>
        <when>2025-01-01T00:22:35.5173950Z</when>
        <gx:coord>12.346079 51.050377 748.844</gx:coord>
        <when>2025-01-01T00:22:40.5253950Z</when>
        <gx:coord>12.343483 51.052288 738.176</gx:coord>
        <when>2025-01-01T00:22:43.1113950Z</when>
        <gx:coord>12.341959 51.053444 729.03204</gx:coord>
        <when>2025-01-01T00:22:45.5183950Z</when>
        <gx:coord>12.340929 51.054237 724.46</gx:coord>
        <when>2025-01-01T00:22:50.5183950Z</when>
        <gx:coord>12.338333 51.056213 713.792</gx:coord>
        <when>2025-01-01T00:22:55.5243950Z</when>
        <gx:coord>12.335715 51.0581 716.84</gx:coord>
        <when>2025-01-01T00:23:00.5553950Z</when>
        <gx:coord>12.333183 51.059948 716.84</gx:coord>
        <when>2025-01-01T00:23:05.5183950Z</when>
        <gx:coord>12.33078 51.061813 713.792</gx:coord>
        <when>2025-01-01T00:23:06.1183950Z</when>
        <gx:coord>12.330308 51.06218 713.792</gx:coord>
        <when>2025-01-01T00:23:10.5183950Z</when>
        <gx:coord>12.328356 51.0637 712.26807</gx:coord>
        <when>2025-01-01T00:23:15.5183950Z</when>
        <gx:coord>12.325867 51.065613 718.3641</gx:coord>
        <when>2025-01-01T00:23:20.5183950Z</when>
        <gx:coord>12.323399 51.067543 709.22003</gx:coord>
        <when>2025-01-01T00:23:25.5253950Z</when>
        <gx:coord>12.3209305 51.06952 700.07605</gx:coord>
        <when>2025-01-01T00:23:26.1143950Z</when>
        <gx:coord>12.320437 51.069904 698.55206</gx:coord>
        <when>2025-01-01T00:23:30.5333950Z</when>
        <gx:coord>12.318527 51.071514 693.98004</gx:coord>
        <when>2025-01-01T00:23:35.5243950Z</when>
        <gx:coord>12.316189 51.07355 684.83606</gx:coord>
        <when>2025-01-01T00:23:40.1153950Z</when>
        <gx:coord>12.313914 51.075634 675.6921</gx:coord>
        <when>2025-01-01T00:23:40.5253950Z</when>
        <gx:coord>12.313914 51.075634 674.168</gx:coord>
        <when>2025-01-01T00:23:45.5193950Z</when>
        <gx:coord>12.311661 51.077694 675.6921</gx:coord>
        <when>2025-01-01T00:23:50.5193950Z</when>
        <gx:coord>12.309451 51.07971 675.6921</gx:coord>
        <when>2025-01-01T00:23:55.5193950Z</when>
        <gx:coord>12.307177 51.081726 669.59607</gx:coord>
        <when>2025-01-01T00:23:56.1153950Z</when>
        <gx:coord>12.306726 51.082134 666.54803</gx:coord>
        <when>2025-01-01T00:24:00.5553950Z</when>
        <gx:coord>12.304902 51.08381 658.92804</gx:coord>
        <when>2025-01-01T00:24:05.5193950Z</when>
        <gx:coord>12.302713 51.085846 665.02405</gx:coord>
        <when>2025-01-01T00:24:10.5193950Z</when>
        <gx:coord>12.300568 51.0878 672.64404</gx:coord>
        <when>2025-01-01T00:24:13.1223950Z</when>
        <gx:coord>12.29928 51.08896 674.168</gx:coord>
        <when>2025-01-01T00:24:14.1233950Z</when>
        <gx:coord>12.298851 51.08932 675.6921</gx:coord>
        <when>2025-01-01T00:24:15.5193950Z</when>
        <gx:coord>12.298422 51.08971 677.21606</gx:coord>
        <when>2025-01-01T00:24:20.5193950Z</when>
        <gx:coord>12.296211 51.091576 680.26404</gx:coord>
        <when>2025-01-01T00:24:25.5193950Z</when>
        <gx:coord>12.293938 51.0934 684.83606</gx:coord>
        <when>2025-01-01T00:24:30.5293950Z</when>
        <gx:coord>12.291534 51.095203 683.3121</gx:coord>
        <when>2025-01-01T00:24:35.5193950Z</when>
        <gx:coord>12.289087 51.096985 684.83606</gx:coord>
        <when>2025-01-01T00:24:40.5193950Z</when>
        <gx:coord>12.286684 51.09881 686.36005</gx:coord>
        <when>2025-01-01T00:24:45.5193950Z</when>
        <gx:coord>12.284367 51.10063 684.83606</gx:coord>
        <when>2025-01-01T00:24:50.1263950Z</when>
        <gx:coord>12.282071 51.102497 681.788</gx:coord>
        <when>2025-01-01T00:24:50.5193950Z</when>
        <gx:coord>12.282071 51.102497 678.74005</gx:coord>
        <when>2025-01-01T00:24:55.5253950Z</when>
        <gx:coord>12.279818 51.104473 665.02405</gx:coord>
        <when>2025-01-01T00:25:00.5243950Z</when>
        <gx:coord>12.277651 51.106533 652.83203</gx:coord>
        <when>2025-01-01T00:25:05.5193950Z</when>
        <gx:coord>12.275526 51.108612 649.784</gx:coord>
        <when>2025-01-01T00:25:10.5203950Z</when>
        <gx:coord>12.273273 51.11063 648.2601</gx:coord>
        <when>2025-01-01T00:25:15.5193950Z</when>
        <gx:coord>12.270913 51.11252 649.784</gx:coord>
        <when>2025-01-01T00:25:20.5203950Z</when>
        <gx:coord>12.268553 51.11445 648.2601</gx:coord>
        <when>2025-01-01T00:25:25.1203950Z</when>
        <gx:coord>12.266129 51.116318 643.68805</gx:coord>
        <when>2025-01-01T00:25:25.5203950Z</when>
        <gx:coord>12.266129 51.116318 642.16406</gx:coord>
        <when>2025-01-01T00:25:30.5383950Z</when>
        <gx:coord>12.263681 51.118206 645.21204</gx:coord>
        <when>2025-01-01T00:25:35.5203950Z</when>
        <gx:coord>12.261278 51.12005 643.68805</gx:coord>
        <when>2025-01-01T00:25:40.5203950Z</when>
        <gx:coord>12.25894 51.121918 649.784</gx:coord>
        <when>2025-01-01T00:25:44.1123950Z</when>
        <gx:coord>12.257545 51.122967 654.356</gx:coord>
        <when>2025-01-01T00:25:45.5203950Z</when>
        <gx:coord>12.256601 51.123634 655.88007</gx:coord>
        <when>2025-01-01T00:25:50.5203950Z</when>
        <gx:coord>12.254262 51.125328 655.88007</gx:coord>
        <when>2025-01-01T00:25:55.5203950Z</when>
        <gx:coord>12.252008 51.127068 652.83203</gx:coord>
        <when>2025-01-01T00:26:00.5593950Z</when>
        <gx:coord>12.249691 51.128803 639.116</gx:coord>
        <when>2025-01-01T00:26:01.1223950Z</when>
        <gx:coord>12.24922 51.129147 639.116</gx:coord>
        <when>2025-01-01T00:26:05.5203950Z</when>
        <gx:coord>12.247417 51.130566 636.9021</gx:coord>
        <when>2025-01-01T00:26:08.1123950Z</when>
        <gx:coord>12.246108 51.131638 635.378</gx:coord>
        <when>2025-01-01T00:26:10.5203950Z</when>
        <gx:coord>12.245228 51.132366 633.854</gx:coord>
        <when>2025-01-01T00:26:15.5203950Z</when>
        <gx:coord>12.243061 51.134148 632.33</gx:coord>
        <when>2025-01-01T00:26:20.5203950Z</when>
        <gx:coord>12.240872 51.13593 632.33</gx:coord>
        <when>2025-01-01T00:26:25.5203950Z</when>
        <gx:coord>12.238641 51.137665 630.806</gx:coord>
        <when>2025-01-01T00:26:30.5663950Z</when>
        <gx:coord>12.236431 51.13938 630.806</gx:coord>
        <when>2025-01-01T00:26:35.5203950Z</when>
        <gx:coord>12.234263 51.14112 630.806</gx:coord>
        <when>2025-01-01T00:26:39.1223950Z</when>
        <gx:coord>12.232569 51.1426 623.18604</gx:coord>
        <when>2025-01-01T00:26:40.5203950Z</when>
        <gx:coord>12.23214 51.14299 620.138</gx:coord>
        <when>2025-01-01T00:26:45.5203950Z</when>
        <gx:coord>12.229843 51.14479 617.09</gx:coord>
        <when>2025-01-01T00:26:50.5203950Z</when>
        <gx:coord>12.227461 51.146572 623.18604</gx:coord>
        <when>2025-01-01T00:26:55.5263950Z</when>
        <gx:coord>12.225165 51.14833 629.2821</gx:coord>
        <when>2025-01-01T00:27:36.5573950Z</when>
        <gx:coord>12.21553 51.15554 644.5221</gx:coord>
        <when>2025-01-01T00:27:37.0413950Z</when>
        <gx:coord>12.2063465 51.16127 630.806</gx:coord>
        <when>2025-01-01T00:27:42.0433950Z</when>
        <gx:coord>12.203815 51.162792 636.9021</gx:coord>
        <when>2025-01-01T00:27:47.0433950Z</when>
        <gx:coord>12.20139 51.164444 638.426</gx:coord>
        <when>2025-01-01T00:27:52.0433950Z</when>
        <gx:coord>12.199137 51.16629 629.2821</gx:coord>
        <when>2025-01-01T00:27:55.1103950Z</when>
        <gx:coord>12.197399 51.16777 633.854</gx:coord>
        <when>2025-01-01T00:27:57.0433950Z</when>
        <gx:coord>12.19697 51.16816 635.378</gx:coord>
        <when>2025-01-01T00:28:02.0433950Z</when>
        <gx:coord>12.194931 51.170067 627.758</gx:coord>
        <when>2025-01-01T00:28:07.0893950Z</when>
        <gx:coord>12.192829 51.172062 615.56604</gx:coord>
        <when>2025-01-01T00:28:12.0433950Z</when>
        <gx:coord>12.190897 51.174187 627.758</gx:coord>
        <when>2025-01-01T00:28:17.0433950Z</when>
        <gx:coord>12.188816 51.17618 623.18604</gx:coord>
        <when>2025-01-01T00:28:22.0913950Z</when>
        <gx:coord>12.186584 51.17807 612.518</gx:coord>
        <when>2025-01-01T00:28:26.1063950Z</when>
        <gx:coord>12.184267 51.179916 603.374</gx:coord>
        <when>2025-01-01T00:28:27.0433950Z</when>
        <gx:coord>12.184267 51.179916 603.374</gx:coord>
        <when>2025-01-01T00:28:31.1133950Z</when>
        <gx:coord>12.182035 51.181763 597.278</gx:coord>
        <when>2025-01-01T00:28:32.0433950Z</when>
        <gx:coord>12.182035 51.181763 598.802</gx:coord>
        <when>2025-01-01T00:28:37.0433950Z</when>
        <gx:coord>12.179783 51.183563 597.278</gx:coord>
        <when>2025-01-01T00:28:42.2733950Z</when>
        <gx:coord>12.1771 51.185688 594.23004</gx:coord>
        <when>2025-01-01T00:28:47.0433950Z</when>
        <gx:coord>12.175234 51.187126 589.658</gx:coord>
        <when>2025-01-01T00:28:52.0443950Z</when>
        <gx:coord>12.172873 51.188885 588.13403</gx:coord>
        <when>2025-01-01T00:28:57.0443950Z</when>
        <gx:coord>12.170534 51.190624 583.562</gx:coord>
        <when>2025-01-01T00:29:02.0443950Z</when>
        <gx:coord>12.168196 51.1923 592.706</gx:coord>
        <when>2025-01-01T00:29:07.0913950Z</when>
        <gx:coord>12.165834 51.19395 586.61005</gx:coord>
        <when>2025-01-01T00:29:08.1113950Z</when>
        <gx:coord>12.16489 51.194637 586.61005</gx:coord>
        <when>2025-01-01T00:29:12.0443950Z</when>
        <gx:coord>12.163517 51.195667 591.182</gx:coord>
        <when>2025-01-01T00:29:17.0443950Z</when>
        <gx:coord>12.161329 51.19732 603.374</gx:coord>
        <when>2025-01-01T00:29:22.0443950Z</when>
        <gx:coord>12.159225 51.19893 604.898</gx:coord>
        <when>2025-01-01T00:29:27.0443950Z</when>
        <gx:coord>12.15723 51.200623 601.85004</gx:coord>
        <when>2025-01-01T00:29:32.0443950Z</when>
        <gx:coord>12.155213 51.202385 598.802</gx:coord>
        <when>2025-01-01T00:29:37.0483950Z</when>
        <gx:coord>12.153282 51.204185 600.32605</gx:coord>
        <when>2025-01-01T00:29:42.0453950Z</when>
        <gx:coord>12.151265 51.205944 597.278</gx:coord>
        <when>2025-01-01T00:29:47.0453950Z</when>
        <gx:coord>12.149034 51.207554 595.754</gx:coord>
        <when>2025-01-01T00:29:47.1113950Z</when>
        <gx:coord>12.1485615 51.20788 595.754</gx:coord>
        <when>2025-01-01T00:29:52.0913950Z</when>
        <gx:coord>12.146716 51.209164 595.754</gx:coord>
        <when>2025-01-01T00:29:57.0453950Z</when>
        <gx:coord>12.144442 51.210773 600.32605</gx:coord>
        <when>2025-01-01T00:30:02.0453950Z</when>
        <gx:coord>12.142231 51.21234 600.32605</gx:coord>
        <when>2025-01-01T00:30:07.0443950Z</when>
        <gx:coord>12.140107 51.213947 600.32605</gx:coord>
        <when>2025-01-01T00:30:12.0453950Z</when>
        <gx:coord>12.137983 51.215515 594.23004</gx:coord>
        <when>2025-01-01T00:30:17.0453950Z</when>
        <gx:coord>12.135838 51.21706 589.658</gx:coord>
        <when>2025-01-01T00:30:22.0453950Z</when>
        <gx:coord>12.133692 51.218647 586.61005</gx:coord>
        <when>2025-01-01T00:30:27.0453950Z</when>
        <gx:coord>12.131502 51.2203 589.658</gx:coord>
        <when>2025-01-01T00:30:27.1123950Z</when>
        <gx:coord>12.131073 51.220642 589.658</gx:coord>
        <when>2025-01-01T00:30:32.0453950Z</when>
        <gx:coord>12.129335 51.221996 578.99</gx:coord>
        <when>2025-01-01T00:30:37.0643950Z</when>
        <gx:coord>12.12719 51.22367 582.038</gx:coord>
        <when>2025-01-01T00:30:42.0463950Z</when>
        <gx:coord>12.125087 51.225277 589.658</gx:coord>
        <when>2025-01-01T00:30:47.0463950Z</when>
        <gx:coord>12.122984 51.226887 588.13403</gx:coord>
        <when>2025-01-01T00:30:52.0463950Z</when>
        <gx:coord>12.120838 51.228477 589.658</gx:coord>
        <when>2025-01-01T00:30:57.0463950Z</when>
        <gx:coord>12.118542 51.23 585.086</gx:coord>
        <when>2025-01-01T00:31:02.0463950Z</when>
        <gx:coord>12.116182 51.231503 589.658</gx:coord>
        <when>2025-01-01T00:31:07.0963950Z</when>
        <gx:coord>12.113886 51.233025 583.562</gx:coord>
        <when>2025-01-01T00:31:07.1053950Z</when>
        <gx:coord>12.113436 51.233326 583.562</gx:coord>
        <when>2025-01-01T00:31:12.0463950Z</when>
        <gx:coord>12.111654 51.234547 583.562</gx:coord>
        <when>2025-01-01T00:31:12.1053950Z</when>
        <gx:coord>12.111654 51.234547 583.562</gx:coord>
        <when>2025-01-01T00:31:17.0463950Z</when>
        <gx:coord>12.1095295 51.23605 585.086</gx:coord>
        <when>2025-01-01T00:31:22.0463950Z</when>
        <gx:coord>12.107449 51.23757 586.61005</gx:coord>
        <when>2025-01-01T00:31:27.0463950Z</when>
        <gx:coord>12.105432 51.23912 586.61005</gx:coord>
        <when>2025-01-01T00:31:32.0463950Z</when>
        <gx:coord>12.103372 51.24066 583.562</gx:coord>
        <when>2025-01-01T00:31:37.0493950Z</when>
        <gx:coord>12.101355 51.24223 586.61005</gx:coord>
        <when>2025-01-01T00:31:42.0463950Z</when>
        <gx:coord>12.099445 51.243862 592.706</gx:coord>
        <when>2025-01-01T00:31:47.0463950Z</when>
        <gx:coord>12.097599 51.245426 595.754</gx:coord>
        <when>2025-01-01T00:31:49.1103950Z</when>
        <gx:coord>12.096483 51.246372 595.754</gx:coord>
        <when>2025-01-01T00:31:52.0473950Z</when>
        <gx:coord>12.095733 51.246994 592.706</gx:coord>
        <when>2025-01-01T00:31:57.0473950Z</when>
        <gx:coord>12.093908 51.24858 592.706</gx:coord>
        <when>2025-01-01T00:32:02.0473950Z</when>
        <gx:coord>12.092106 51.250168 604.898</gx:coord>
        <when>2025-01-01T00:32:07.0963950Z</when>
        <gx:coord>12.090303 51.251736 612.204</gx:coord>
        <when>2025-01-01T00:32:12.0473950Z</when>
        <gx:coord>12.088415 51.25328 619.824</gx:coord>
        <when>2025-01-01T00:32:17.0473950Z</when>
        <gx:coord>12.086506 51.25489 627.444</gx:coord>
        <when>2025-01-01T00:32:22.0473950Z</when>
        <gx:coord>12.084532 51.256477 632.016</gx:coord>
        <when>2025-01-01T00:32:27.0473950Z</when>
        <gx:coord>12.082493 51.258022 612.204</gx:coord>
        <when>2025-01-01T00:32:32.0473950Z</when>
        <gx:coord>12.080326 51.259567 606.108</gx:coord>
        <when>2025-01-01T00:32:32.1133950Z</when>
        <gx:coord>12.079876 51.25987 606.108</gx:coord>
        <when>2025-01-01T00:32:37.1033950Z</when>
        <gx:coord>12.07803 51.261154 596.964</gx:coord>
        <when>2025-01-01T00:32:42.0473950Z</when>
        <gx:coord>12.075691 51.262722 598.488</gx:coord>
        <when>2025-01-01T00:32:47.0473950Z</when>
        <gx:coord>12.073417 51.26431 601.536</gx:coord>
        <when>2025-01-01T00:32:52.0473950Z</when>
        <gx:coord>12.071249 51.26596 595.44</gx:coord>
        <when>2025-01-01T00:32:57.0483950Z</when>
        <gx:coord>12.069147 51.267616 589.344</gx:coord>
        <when>2025-01-01T00:33:02.0493950Z</when>
        <gx:coord>12.067022 51.269245 583.248</gx:coord>
        <when>2025-01-01T00:33:07.0483950Z</when>
        <gx:coord>12.064856 51.270855 578.67596</gx:coord>
        <when>2025-01-01T00:33:12.0483950Z</when>
        <gx:coord>12.062688 51.27253 575.628</gx:coord>
        <when>2025-01-01T00:33:12.1073950Z</when>
        <gx:coord>12.062237 51.27285 575.628</gx:coord>
        <when>2025-01-01T00:33:17.0483950Z</when>
        <gx:coord>12.060456 51.27416 575.628</gx:coord>
        <when>2025-01-01T00:33:22.0483950Z</when>
        <gx:coord>12.058247 51.275726 578.67596</gx:coord>
        <when>2025-01-01T00:33:27.0483950Z</when>
        <gx:coord>12.056079 51.27727 581.724</gx:coord>
        <when>2025-01-01T00:33:32.0483950Z</when>
        <gx:coord>12.053911 51.27886 581.724</gx:coord>
        <when>2025-01-01T00:33:37.0613950Z</when>
        <gx:coord>12.051638 51.28051 590.868</gx:coord>
        <when>2025-01-01T00:33:42.0473950Z</when>
        <gx:coord>12.049234 51.282143 603.06</gx:coord>
        <when>2025-01-01T00:33:44.1093950Z</when>
        <gx:coord>12.048246 51.282784 603.06</gx:coord>
        <when>2025-01-01T00:33:47.0483950Z</when>
        <gx:coord>12.046787 51.28377 593.91595</gx:coord>
        <when>2025-01-01T00:33:51.1113950Z</when>
        <gx:coord>12.044212 51.28534 587.82</gx:coord>
        <when>2025-01-01T00:33:52.0483950Z</when>
        <gx:coord>12.044212 51.28534 589.344</gx:coord>
        <when>2025-01-01T00:33:56.1083950Z</when>
        <gx:coord>12.042131 51.28652 595.44</gx:coord>
        <when>2025-01-01T00:33:57.0483950Z</when>
        <gx:coord>12.041616 51.28682 595.44</gx:coord>
        <when>2025-01-01T00:34:02.0483950Z</when>
        <gx:coord>12.0390625 51.288277 593.91595</gx:coord>
        <when>2025-01-01T00:34:19.9883950Z</when>
        <gx:coord>12.030244 51.293472 580.19995</gx:coord>
        <when>2025-01-01T00:34:24.9893950Z</when>
        <gx:coord>12.027755 51.294888 577.152</gx:coord>
        <when>2025-01-01T00:34:29.0973950Z</when>
        <gx:coord>12.025373 51.29639 572.57996</gx:coord>
        <when>2025-01-01T00:34:30.0093950Z</when>
        <gx:coord>12.025373 51.29639 572.57996</gx:coord>
        <when>2025-01-01T00:34:31.1243950Z</when>
        <gx:coord>12.02445 51.297012 572.57996</gx:coord>
        <when>2025-01-01T00:34:35.0163950Z</when>
        <gx:coord>12.023077 51.297913 583.248</gx:coord>
        <when>2025-01-01T00:34:40.0243950Z</when>
        <gx:coord>12.020888 51.29948 590.868</gx:coord>
        <when>2025-01-01T00:34:40.1183950Z</when>
        <gx:coord>12.020888 51.29948 590.868</gx:coord>
        <when>2025-01-01T00:34:44.9903950Z</when>
        <gx:coord>12.018828 51.30111 589.344</gx:coord>
        <when>2025-01-01T00:34:49.1153950Z</when>
        <gx:coord>12.017198 51.3024 592.39197</gx:coord>
        <when>2025-01-01T00:34:50.0273950Z</when>
        <gx:coord>12.01679 51.302696 592.39197</gx:coord>
        <when>2025-01-01T00:34:54.9903950Z</when>
        <gx:coord>12.014837 51.304306 592.39197</gx:coord>
        <when>2025-01-01T00:34:59.9903950Z</when>
        <gx:coord>12.012884 51.30594 595.44</gx:coord>
        <when>2025-01-01T00:35:04.9903950Z</when>
        <gx:coord>12.010846 51.30759 586.29596</gx:coord>
        <when>2025-01-01T00:35:09.9903950Z</when>
        <gx:coord>12.00885 51.309326 586.29596</gx:coord>
        <when>2025-01-01T00:35:12.1283950Z</when>
        <gx:coord>12.007734 51.31042 586.29596</gx:coord>
        <when>2025-01-01T00:35:14.9903950Z</when>
        <gx:coord>12.007006 51.31113 581.724</gx:coord>
        <when>2025-01-01T00:35:20.0033950Z</when>
        <gx:coord>12.005117 51.312977 574.104</gx:coord>
        <when>2025-01-01T00:35:24.9903950Z</when>
        <gx:coord>12.00325 51.314865 568.008</gx:coord>
        <when>2025-01-01T00:35:29.9903950Z</when>
        <gx:coord>12.0015335 51.316795 569.532</gx:coord>
        <when>2025-01-01T00:35:30.1113950Z</when>
        <gx:coord>12.0015335 51.316795 569.532</gx:coord>
        <when>2025-01-01T00:35:34.9903950Z</when>
        <gx:coord>11.999989 51.318726 577.152</gx:coord>
        <when>2025-01-01T00:35:39.9903950Z</when>
        <gx:coord>11.998444 51.320595 584.772</gx:coord>
        <when>2025-01-01T00:35:44.9903950Z</when>
        <gx:coord>11.996878 51.322372 592.39197</gx:coord>
        <when>2025-01-01T00:35:50.0153950Z</when>
        <gx:coord>11.995161 51.32407 601.536</gx:coord>
        <when>2025-01-01T00:35:50.1043950Z</when>
        <gx:coord>11.994818 51.324413 603.06</gx:coord>
        <when>2025-01-01T00:35:52.1203950Z</when>
        <gx:coord>11.994131 51.325077 601.536</gx:coord>
        <when>2025-01-01T00:35:54.9913950Z</when>
        <gx:coord>11.993465 51.325764 598.488</gx:coord>
        <when>2025-01-01T00:35:59.9903950Z</when>
        <gx:coord>11.991728 51.327522 590.868</gx:coord>
        <when>2025-01-01T00:36:04.9913950Z</when>
        <gx:coord>11.989925 51.32924 590.868</gx:coord>
        <when>2025-01-01T00:36:09.9913950Z</when>
        <gx:coord>11.98823 51.330936 596.964</gx:coord>
        <when>2025-01-01T00:36:14.9913950Z</when>
        <gx:coord>11.986578 51.332653 596.964</gx:coord>
        <when>2025-01-01T00:36:19.9983950Z</when>
        <gx:coord>11.984989 51.33439 598.488</gx:coord>
        <when>2025-01-01T00:36:24.9913950Z</when>
        <gx:coord>11.983444 51.33615 603.06</gx:coord>
        <when>2025-01-01T00:36:29.9913950Z</when>
        <gx:coord>11.981813 51.337887 603.06</gx:coord>
        <when>2025-01-01T00:36:34.1303950Z</when>
        <gx:coord>11.980312 51.339775 604.584</gx:coord>
        <when>2025-01-01T00:36:35.0193950Z</when>
        <gx:coord>11.980312 51.339775 603.06</gx:coord>
        <when>2025-01-01T00:36:39.2333950Z</when>
        <gx:coord>11.978917 51.341793 598.488</gx:coord>
        <when>2025-01-01T00:36:39.9913950Z</when>
        <gx:coord>11.978917 51.341793 596.964</gx:coord>
        <when>2025-01-01T00:36:40.1133950Z</when>
        <gx:coord>11.978917 51.341793 596.964</gx:coord>
        <when>2025-01-01T00:36:44.9913950Z</when>
        <gx:coord>11.977544 51.343895 589.344</gx:coord>
        <when>2025-01-01T00:36:50.0183950Z</when>
        <gx:coord>11.976128 51.34602 584.772</gx:coord>
        <when>2025-01-01T00:36:54.9913950Z</when>
        <gx:coord>11.974733 51.348186 581.724</gx:coord>
        <when>2025-01-01T00:36:59.9913950Z</when>
        <gx:coord>11.97336 51.350357 583.248</gx:coord>
        <when>2025-01-01T00:37:04.9913950Z</when>
        <gx:coord>11.971987 51.352478 586.29596</gx:coord>
        <when>2025-01-01T00:37:09.9913950Z</when>
        <gx:coord>11.970592 51.354496 590.868</gx:coord>
        <when>2025-01-01T00:37:11.1313950Z</when>
        <gx:coord>11.970055 51.355312 592.39197</gx:coord>
        <when>2025-01-01T00:37:14.1153950Z</when>
        <gx:coord>11.969625 51.356148 593.91595</gx:coord>
        <when>2025-01-01T00:37:14.9913950Z</when>
        <gx:coord>11.969454 51.356598 593.91595</gx:coord>
        <when>2025-01-01T00:37:19.9983950Z</when>
        <gx:coord>11.968767 51.358875 587.82</gx:coord>
        <when>2025-01-01T00:37:24.9923950Z</when>
        <gx:coord>11.967995 51.36119 589.344</gx:coord>
        <when>2025-01-01T00:37:30.0203950Z</when>
        <gx:coord>11.967094 51.363403 595.44</gx:coord>
        <when>2025-01-01T00:37:34.9923950Z</when>
        <gx:coord>11.966128 51.365547 607.63196</gx:coord>
        <when>2025-01-01T00:37:39.9923950Z</when>
        <gx:coord>11.96512 51.36763 619.824</gx:coord>
        <when>2025-01-01T00:37:44.9923950Z</when>
        <gx:coord>11.964154 51.36975 625.92</gx:coord>
        <when>2025-01-01T00:37:48.1163950Z</when>
        <gx:coord>11.963232 51.371426 627.444</gx:coord>
        <when>2025-01-01T00:37:50.0163950Z</when>
        <gx:coord>11.962975 51.371857 624.396</gx:coord>
        <when>2025-01-01T00:37:54.9913950Z</when>
        <gx:coord>11.961557 51.373936 618.3</gx:coord>
        <when>2025-01-01T00:37:55.1163950Z</when>
        <gx:coord>11.961557 51.373936 618.3</gx:coord>
        <when>2025-01-01T00:37:59.9923950Z</when>
        <gx:coord>11.95997 51.375977 616.776</gx:coord>
        <when>2025-01-01T00:38:04.9923950Z</when>
        <gx:coord>11.958382 51.37797 630.49207</gx:coord>
        <when>2025-01-01T00:38:07.1183950Z</when>
        <gx:coord>11.957523 51.379215 635.06396</gx:coord>
        <when>2025-01-01T00:38:09.9923950Z</when>
        <gx:coord>11.956966 51.38003 633.54</gx:coord>
        <when>2025-01-01T00:38:14.9923950Z</when>
        <gx:coord>11.955442 51.382027 624.396</gx:coord>
        <when>2025-01-01T00:38:20.0123950Z</when>
        <gx:coord>11.953791 51.384045 613.72797</gx:coord>
        <when>2025-01-01T00:38:24.1173950Z</when>
        <gx:coord>11.952074 51.386063 604.584</gx:coord>
        <when>2025-01-01T00:38:24.9923950Z</when>
        <gx:coord>11.952074 51.386063 604.584</gx:coord>
        <when>2025-01-01T00:38:25.1243950Z</when>
        <gx:coord>11.951731 51.386467 604.584</gx:coord>
        <when>2025-01-01T00:38:30.0223950Z</when>
        <gx:coord>11.950293 51.388077 603.06</gx:coord>
        <when>2025-01-01T00:38:34.9923950Z</when>
        <gx:coord>11.948425 51.39007 590.868</gx:coord>
        <when>2025-01-01T00:38:39.9933950Z</when>
        <gx:coord>11.946537 51.392113 589.344</gx:coord>
        <when>2025-01-01T00:38:44.9933950Z</when>
        <gx:coord>11.945143 51.39432 584.772</gx:coord>
        <when>2025-01-01T00:38:48.1253950Z</when>
        <gx:coord>11.944456 51.395737 575.628</gx:coord>
        <when>2025-01-01T00:38:48.1253950Z</when>
        <gx:coord>11.944242 51.39621 572.57996</gx:coord>
        <when>2025-01-01T00:38:49.1143950Z</when>
        <gx:coord>11.944242 51.39621 572.57996</gx:coord>
        <when>2025-01-01T00:38:49.9953950Z</when>
        <gx:coord>11.944048 51.396706 572.57996</gx:coord>
        <when>2025-01-01T00:38:54.9933950Z</when>
        <gx:coord>11.943426 51.399216 568.008</gx:coord>
        <when>2025-01-01T00:38:56.1143950Z</when>
        <gx:coord>11.943361 51.39973 568.008</gx:coord>
        <when>2025-01-01T00:38:58.1203950Z</when>
        <gx:coord>11.943319 51.40076 566.484</gx:coord>
        <when>2025-01-01T00:38:59.9933950Z</when>
        <gx:coord>11.943319 51.40179 564.95996</gx:coord>
        <when>2025-01-01T00:39:00.1303950Z</when>
        <gx:coord>11.94334 51.402306 564.95996</gx:coord>
        <when>2025-01-01T00:39:04.9933950Z</when>
        <gx:coord>11.943555 51.404366 558.86395</gx:coord>
        <when>2025-01-01T00:39:09.9933950Z</when>
        <gx:coord>11.944156 51.407005 549.72</gx:coord>
        <when>2025-01-01T00:39:10.0963950Z</when>
        <gx:coord>11.944156 51.407005 549.72</gx:coord>
        <when>2025-01-01T00:39:11.1163950Z</when>
        <gx:coord>11.944305 51.40754 548.196</gx:coord>
        <when>2025-01-01T00:39:14.9933950Z</when>
        <gx:coord>11.944971 51.409687 546.672</gx:coord>
        <when>2025-01-01T00:39:20.0093950Z</when>
        <gx:coord>11.945808 51.41237 543.62396</gx:coord>
        <when>2025-01-01T00:39:20.1173950Z</when>
        <gx:coord>11.94598 51.412903 540.576</gx:coord>
        <when>2025-01-01T00:39:24.9933950Z</when>
        <gx:coord>11.946623 51.41505 540.576</gx:coord>
        <when>2025-01-01T00:39:29.9933950Z</when>
        <gx:coord>11.947481 51.41769 545.148</gx:coord>
        <when>2025-01-01T00:39:31.1293950Z</when>
        <gx:coord>11.9478035 51.41874 543.62396</gx:coord>
        <when>2025-01-01T00:39:34.9933950Z</when>
        <gx:coord>11.948276 51.42033 542.1</gx:coord>
        <when>2025-01-01T00:39:39.9933950Z</when>
        <gx:coord>11.949005 51.422947 537.52795</gx:coord>
        <when>2025-01-01T00:39:44.9933950Z</when>
        <gx:coord>11.949735 51.42552 543.62396</gx:coord>
        <when>2025-01-01T00:39:49.9923950Z</when>
        <gx:coord>11.950421 51.428032 551.24396</gx:coord>
        <when>2025-01-01T00:39:51.1183950Z</when>
        <gx:coord>11.95055 51.428524 552.768</gx:coord>
        <when>2025-01-01T00:39:54.9933950Z</when>
        <gx:coord>11.951022 51.430477 561.912</gx:coord>
        <when>2025-01-01T00:39:59.1163950Z</when>
        <gx:coord>11.951709 51.432903 572.57996</gx:coord>
        <when>2025-01-01T00:39:59.9933950Z</when>
        <gx:coord>11.951709 51.432903 572.57996</gx:coord>
        <when>2025-01-01T00:40:04.1293950Z</when>
        <gx:coord>11.952503 51.43537 577.152</gx:coord>
        <when>2025-01-01T00:40:04.9933950Z</when>
        <gx:coord>11.952503 51.43537 575.628</gx:coord>
        <when>2025-01-01T00:40:09.9933950Z</when>
        <gx:coord>11.9533825 51.43788 571.05597</gx:coord>
        <when>2025-01-01T00:40:14.9933950Z</when>
        <gx:coord>11.954348 51.440414 568.008</gx:coord>
        <when>2025-01-01T00:40:19.9963950Z</when>
        <gx:coord>11.955571 51.442924 575.628</gx:coord>
        <when>2025-01-01T00:40:24.9933950Z</when>
        <gx:coord>11.956944 51.44537 574.104</gx:coord>
        <when>2025-01-01T00:40:29.9943950Z</when>
        <gx:coord>11.958103 51.447838 574.104</gx:coord>
        <when>2025-01-01T00:40:34.9943950Z</when>
        <gx:coord>11.958982 51.450306 574.104</gx:coord>
        <when>2025-01-01T00:40:37.1313950Z</when>
        <gx:coord>11.95937 51.451786 574.104</gx:coord>
        <when>2025-01-01T00:40:39.9943950Z</when>
        <gx:coord>11.959583 51.452774 575.628</gx:coord>
        <when>2025-01-01T00:40:44.9943950Z</when>
        <gx:coord>11.960098 51.45524 574.104</gx:coord>
        <when>2025-01-01T00:40:50.0183950Z</when>
        <gx:coord>11.960421 51.45773 572.57996</gx:coord>
        <when>2025-01-01T00:40:54.9943950Z</when>
        <gx:coord>11.960549 51.460262 563.436</gx:coord>
        <when>2025-01-01T00:40:59.9943950Z</when>
        <gx:coord>11.960657 51.462837 554.292</gx:coord>
        <when>2025-01-01T00:41:03.1153950Z</when>
        <gx:coord>11.960721 51.4644 551.24396</gx:coord>
        <when>2025-01-01T00:41:04.9943950Z</when>
        <gx:coord>11.960721 51.46543 549.72</gx:coord>
        <when>2025-01-01T00:41:09.9943950Z</when>
        <gx:coord>11.960721 51.46803 549.72</gx:coord>
        <when>2025-01-01T00:41:10.1253950Z</when>
        <gx:coord>11.960743 51.46852 549.72</gx:coord>
        <when>2025-01-01T00:41:14.9943950Z</when>
        <gx:coord>11.960807 51.47054 545.148</gx:coord>
        <when>2025-01-01T00:41:17.1073950Z</when>
        <gx:coord>11.96085 51.472042 542.1</gx:coord>
        <when>2025-01-01T00:41:20.0083950Z</when>
        <gx:coord>11.960915 51.47303 540.576</gx:coord>
        <when>2025-01-01T00:41:24.9943950Z</when>
        <gx:coord>11.960936 51.475433 542.1</gx:coord>
        <when>2025-01-01T00:41:29.9943950Z</when>
        <gx:coord>11.961021 51.477814 536.00397</gx:coord>
        <when>2025-01-01T00:41:34.3953950Z</when>
        <gx:coord>11.961193 51.479767 528.384</gx:coord>
        <when>2025-01-01T00:41:34.9943950Z</when>
        <gx:coord>11.961279 51.48024 526.86</gx:coord>
        <when>2025-01-01T00:41:39.1133950Z</when>
        <gx:coord>11.961773 51.482212 531.432</gx:coord>
        <when>2025-01-01T00:41:39.9943950Z</when>
        <gx:coord>11.961945 51.482704 534.48</gx:coord>
        <when>2025-01-01T00:41:44.1103950Z</when>
        <gx:coord>11.962975 51.485172 534.48</gx:coord>
        <when>2025-01-01T00:41:44.9943950Z</when>
        <gx:coord>11.962975 51.485172 534.48</gx:coord>
        <when>2025-01-01T00:41:50.0203950Z</when>
        <gx:coord>11.964326 51.4876 523.81195</gx:coord>
        <when>2025-01-01T00:41:54.1123950Z</when>
        <gx:coord>11.965807 51.490025 510.096</gx:coord>
        <when>2025-01-01T00:41:54.9943950Z</when>
        <gx:coord>11.965807 51.490025 510.096</gx:coord>
        <when>2025-01-01T00:41:59.1163950Z</when>
        <gx:coord>11.96703 51.49189 508.572</gx:coord>
        <when>2025-01-01T00:41:59.9943950Z</when>
        <gx:coord>11.967352 51.49234 507.04797</gx:coord>
        <when>2025-01-01T00:42:04.9943950Z</when>
        <gx:coord>11.969175 51.49453 504</gx:coord>
        <when>2025-01-01T00:42:10.0213950Z</when>
        <gx:coord>11.9713 51.496613 496.38</gx:coord>
        <when>2025-01-01T00:42:14.9943950Z</when>
        <gx:coord>11.973488 51.49865 487.236</gx:coord>
        <when>2025-01-01T00:42:18.1173950Z</when>
        <gx:coord>11.975269 51.50028 482.664</gx:coord>
        <when>2025-01-01T00:42:18.1173950Z</when>
        <gx:coord>11.975269 51.50028 479.61597</gx:coord>
        <when>2025-01-01T00:42:19.1143950Z</when>
        <gx:coord>11.975269 51.50028 479.61597</gx:coord>
        <when>2025-01-01T00:42:20.0013950Z</when>
        <gx:coord>11.975698 51.500687 478.09198</gx:coord>
        <when>2025-01-01T00:42:24.9953950Z</when>
        <gx:coord>11.97793 51.502663 471.99597</gx:coord>
        <when>2025-01-01T00:42:29.9953950Z</when>
        <gx:coord>11.9802265 51.504616 462.85202</gx:coord>
        <when>2025-01-01T00:42:34.9953950Z</when>
        <gx:coord>11.982672 51.50646 461.328</gx:coord>
        <when>2025-01-01T00:42:39.9953950Z</when>
        <gx:coord>11.9853325 51.508175 464.37598</gx:coord>
        <when>2025-01-01T00:42:40.1183950Z</when>
        <gx:coord>11.9853325 51.508175 464.37598</gx:coord>
        <when>2025-01-01T00:42:44.9953950Z</when>
        <gx:coord>11.988209 51.50972 464.37598</gx:coord>
        <when>2025-01-01T00:42:50.0153950Z</when>
        <gx:coord>11.991277 51.51114 462.85202</gx:coord>
        <when>2025-01-01T00:42:54.1153950Z</when>
        <gx:coord>11.994367 51.512554 458.27997</gx:coord>
        <when>2025-01-01T00:42:54.9953950Z</when>
        <gx:coord>11.994367 51.512554 456.75598</gx:coord>
        <when>2025-01-01T00:42:59.1143950Z</when>
        <gx:coord>11.99752 51.51397 447.612</gx:coord>
        <when>2025-01-01T00:42:59.9953950Z</when>
        <gx:coord>11.99752 51.51397 447.612</gx:coord>
        <when>2025-01-01T00:43:04.9953950Z</when>
        <gx:coord>12.000718 51.515343 447.612</gx:coord>
        <when>2025-01-01T00:43:06.1323950Z</when>
        <gx:coord>12.001362 51.515602 446.088</gx:coord>
        <when>2025-01-01T00:43:09.9953950Z</when>
        <gx:coord>12.004002 51.51665 438.46802</gx:coord>
        <when>2025-01-01T00:43:14.9953950Z</when>
        <gx:coord>12.007241 51.51794 436.94397</gx:coord>
        <when>2025-01-01T00:43:20.0043950Z</when>
        <gx:coord>12.010417 51.51916 435.41998</gx:coord>
        <when>2025-01-01T00:43:24.9953950Z</when>
        <gx:coord>12.013571 51.520363 438.46802</gx:coord>
        <when>2025-01-01T00:43:29.9953950Z</when>
        <gx:coord>12.01679 51.5215 443.03998</gx:coord>
        <when>2025-01-01T00:43:30.1173950Z</when>
        <gx:coord>12.017412 51.521717 443.03998</gx:coord>
        <when>2025-01-01T00:43:32.1153950Z</when>
        <gx:coord>12.018056 51.521954 444.56406</gx:coord>
        <when>2025-01-01T00:43:34.9953950Z</when>
        <gx:coord>12.019944 51.522617 444.56406</gx:coord>
        <when>2025-01-01T00:43:39.9953950Z</when>
        <gx:coord>12.023056 51.523796 432.372</gx:coord>
        <when>2025-01-01T00:43:44.9953950Z</when>
        <gx:coord>12.026124 51.525085 420.18002</gx:coord>
        <when>2025-01-01T00:43:47.1173950Z</when>
        <gx:coord>12.028012 51.525856 417.13202</gx:coord>
        <when>2025-01-01T00:43:49.9963950Z</when>
        <gx:coord>12.029257 51.526352 412.56003</gx:coord>
        <when>2025-01-01T00:43:54.9953950Z</when>
        <gx:coord>12.03239 51.527596 404.94</gx:coord>
        <when>2025-01-01T00:44:00.0163950Z</when>
        <gx:coord>12.035522 51.52882 398.84402</gx:coord>
        <when>2025-01-01T00:44:04.9953950Z</when>
        <gx:coord>12.038741 51.53 391.224</gx:coord>
        <when>2025-01-01T00:44:07.1093950Z</when>
        <gx:coord>12.040715 51.530643 388.17606</gx:coord>
        <when>2025-01-01T00:44:07.1103950Z</when>
        <gx:coord>12.040715 51.530643 386.65198</gx:coord>
        <when>2025-01-01T00:44:09.9953950Z</when>
        <gx:coord>12.042067 51.531006 383.604</gx:coord>
        <when>2025-01-01T00:44:10.1163950Z</when>
        <gx:coord>12.042067 51.531006 383.604</gx:coord>
        <when>2025-01-01T00:44:14.1163950Z</when>
        <gx:coord>12.044899 51.531456 375.984</gx:coord>
        <when>2025-01-01T00:44:14.9953950Z</when>
        <gx:coord>12.045608 51.5315 377.50803</gx:coord>
        <when>2025-01-01T00:44:20.0193950Z</when>
        <gx:coord>12.048998 51.53152 383.604</gx:coord>
        <when>2025-01-01T00:44:24.9963950Z</when>
        <gx:coord>12.05228 51.531372 379.03198</gx:coord>
        <when>2025-01-01T00:44:30.0173950Z</when>
        <gx:coord>12.055607 51.531223 377.50803</gx:coord>
        <when>2025-01-01T00:44:33.1173950Z</when>
        <gx:coord>12.057602 51.531136 377.50803</gx:coord>
        <when>2025-01-01T00:44:34.9963950Z</when>
        <gx:coord>12.058889 51.53105 377.50803</gx:coord>
        <when>2025-01-01T00:44:35.1163950Z</when>
        <gx:coord>12.058889 51.53105 377.50803</gx:coord>
        <when>2025-01-01T00:44:38.1163950Z</when>
        <gx:coord>12.060757 51.530792 374.46002</gx:coord>
        <when>2025-01-01T00:44:39.9963950Z</when>
        <gx:coord>12.061958 51.53058 366.84006</gx:coord>
        <when>2025-01-01T00:44:44.1233950Z</when>
        <gx:coord>12.064941 51.529934 354.648</gx:coord>
        <when>2025-01-01T00:44:44.9963950Z</when>
        <gx:coord>12.064941 51.529934 354.648</gx:coord>
        <when>2025-01-01T00:44:49.1263950Z</when>
        <gx:coord>12.067838 51.529312 350.07602</gx:coord>
        <when>2025-01-01T00:44:49.9953950Z</when>
        <gx:coord>12.067838 51.529312 348.552</gx:coord>
        <when>2025-01-01T00:44:54.9963950Z</when>
        <gx:coord>12.070627 51.52869 339.40802</gx:coord>
        <when>2025-01-01T00:44:59.9963950Z</when>
        <gx:coord>12.073566 51.5282 328.74002</gx:coord>
        <when>2025-01-01T00:45:00.1093950Z</when>
        <gx:coord>12.073566 51.5282 328.74002</gx:coord>
        <when>2025-01-01T00:45:02.1153950Z</when>
        <gx:coord>12.074833 51.5282 325.69202</gx:coord>
        <when>2025-01-01T00:45:02.1163950Z</when>
        <gx:coord>12.075477 51.52826 324.16797</gx:coord>
        <when>2025-01-01T00:45:04.9963950Z</when>
        <gx:coord>12.076742 51.528477 319.596</gx:coord>
        <when>2025-01-01T00:45:05.1173950Z</when>
        <gx:coord>12.076742 51.528477 319.596</gx:coord>
        <when>2025-01-01T00:45:08.0913950Z</when>
        <gx:coord>12.078481 51.529076 318.07202</gx:coord>
        <when>2025-01-01T00:45:09.9963950Z</when>
        <gx:coord>12.079468 51.529613 316.54797</gx:coord>
        <when>2025-01-01T00:45:11.1393950Z</when>
        <gx:coord>12.079897 51.529915 313.5</gx:coord>
        <when>2025-01-01T00:45:14.9963950Z</when>
        <gx:coord>12.081399 51.53129 298.26</gx:coord>
        <when>2025-01-01T00:45:16.1123950Z</when>
        <gx:coord>12.082086 51.532017 290.64</gx:coord>
        <when>2025-01-01T00:45:20.0123950Z</when>
        <gx:coord>12.083116 51.53311 279.972</gx:coord>
        <when>2025-01-01T00:45:24.9963950Z</when>
        <gx:coord>12.084639 51.53489 286.068</gx:coord>
        <when>2025-01-01T00:45:26.1113950Z</when>
        <gx:coord>12.084918 51.535233 284.544</gx:coord>
        <when>2025-01-01T00:45:29.9963950Z</when>
        <gx:coord>12.08597 51.536587 279.972</gx:coord>
        <when>2025-01-01T00:45:34.1063950Z</when>
        <gx:coord>12.086742 51.538002 275.40002</gx:coord>
        <when>2025-01-01T00:45:34.9963950Z</when>
        <gx:coord>12.086892 51.538387 273.87598</gx:coord>
        <when>2025-01-01T00:45:37.1163950Z</when>
        <gx:coord>12.087042 51.53912 270.828</gx:coord>
        <when>2025-01-01T00:45:39.9963950Z</when>
        <gx:coord>12.086892 51.540215 267.77997</gx:coord>
        <when>2025-01-01T00:45:41.1183950Z</when>
        <gx:coord>12.086784 51.540558 266.25598</gx:coord>
        <when>2025-01-01T00:45:43.1113950Z</when>
        <gx:coord>12.086184 51.541588 264.732</gx:coord>
        <when>2025-01-01T00:45:44.1243950Z</when>
        <gx:coord>12.086184 51.541588 261.68402</gx:coord>
        <when>2025-01-01T00:45:44.1253950Z</when>
        <gx:coord>12.085926 51.54191 260.15997</gx:coord>
        <when>2025-01-01T00:45:44.9963950Z</when>
        <gx:coord>12.085926 51.54191 260.15997</gx:coord>
        <when>2025-01-01T00:45:45.1113950Z</when>
        <gx:coord>12.085926 51.54191 260.15997</gx:coord>
        <when>2025-01-01T00:45:50.0193950Z</when>
        <gx:coord>12.084339 51.54328 246.444</gx:coord>
        <when>2025-01-01T00:45:50.1143950Z</when>
        <gx:coord>12.084339 51.54328 246.444</gx:coord>
        <when>2025-01-01T00:45:52.1153950Z</when>
        <gx:coord>12.083588 51.54373 241.872</gx:coord>
        <when>2025-01-01T00:45:54.1143950Z</when>
        <gx:coord>12.082815 51.544098 235.77599</gx:coord>
        <when>2025-01-01T00:45:54.9963950Z</when>
        <gx:coord>12.082407 51.54427 234.25201</gx:coord>
        <when>2025-01-01T00:45:58.1103950Z</when>
        <gx:coord>12.08127 51.544678 229.68001</gx:coord>
        <when>2025-01-01T00:45:59.1143950Z</when>
        <gx:coord>12.080519 51.54491 228.15599</gx:coord>
        <when>2025-01-01T00:46:00.0113950Z</when>
        <gx:coord>12.080519 51.54491 228.15599</gx:coord>
        <when>2025-01-01T00:46:01.1163950Z</when>
        <gx:coord>12.080154 51.54502 226.632</gx:coord>
        <when>2025-01-01T00:46:04.9973950Z</when>
        <gx:coord>12.078738 51.545383 212.91602</gx:coord>
        <when>2025-01-01T00:46:09.9973950Z</when>
        <gx:coord>12.077 51.545876 200.72401</gx:coord>
        <when>2025-01-01T00:46:11.1173950Z</when>
        <gx:coord>12.076313 51.54607 197.676</gx:coord>
        <when>2025-01-01T00:46:14.9963950Z</when>
        <gx:coord>12.075219 51.546394 193.104</gx:coord>
        <when>2025-01-01T00:46:20.0033950Z</when>
        <gx:coord>12.073374 51.546864 187.008</gx:coord>
        <when>2025-01-01T00:46:24.9973950Z</when>
        <gx:coord>12.0715065 51.5474 177.86401</gx:coord>
        <when>2025-01-01T00:46:29.9973950Z</when>
        <gx:coord>12.069704 51.548 167.19601</gx:coord>
        <when>2025-01-01T00:46:30.1133950Z</when>
        <gx:coord>12.069361 51.548088 164.148</gx:coord>
        <when>2025-01-01T00:46:34.9963950Z</when>
        <gx:coord>12.067966 51.548454 153.48</gx:coord>
        <when>2025-01-01T00:46:39.9973950Z</when>
        <gx:coord>12.06625 51.548946 141.288</gx:coord>
        <when>2025-01-01T00:46:44.1123950Z</when>
        <gx:coord>12.064468 51.549374 132.144</gx:coord>
        <when>2025-01-01T00:46:44.9973950Z</when>
        <gx:coord>12.064468 51.549374 132.144</gx:coord>
        <when>2025-01-01T00:46:49.1103950Z</when>
        <gx:coord>12.062731 51.54987 123</gx:coord>
        <when>2025-01-01T00:46:50.0153950Z</when>
        <gx:coord>12.062731 51.54987 121.476</gx:coord>
        <when>2025-01-01T00:46:54.9973950Z</when>
        <gx:coord>12.061079 51.55034 115.38001</gx:coord>
        <when>2025-01-01T00:46:56.1113950Z</when>
        <gx:coord>12.060757 51.55045 113.856</gx:coord>
        <when>2025-01-01T00:47:00.0113950Z</when>
        <gx:coord>12.059598 51.55081 113.856</gx:coord>
        <when>2025-01-01T00:47:02.1163950Z</when>
        <gx:coord>12.059083 51.550964 110.808</gx:coord>
        <when>2025-01-01T00:47:04.9973950Z</when>
        <gx:coord>12.058353 51.551136 110.808</gx:coord>
        <when>2025-01-01T00:47:09.9973950Z</when>
        <gx:coord>12.057344 51.551414 110.808</gx:coord>
        <when>2025-01-01T00:47:12.1143950Z</when>
        <gx:coord>12.05698 51.55152 110.808</gx:coord>
        <when>2025-01-01T00:47:14.9973950Z</when>
        <gx:coord>12.056508 51.55165 110.808</gx:coord>
        <when>2025-01-01T00:47:16.1763950Z</when>
        <gx:coord>12.056379 51.55167 110.808</gx:coord>
        <when>2025-01-01T00:47:18.1153950Z</when>
        <gx:coord>12.056187 51.551712 112.332</gx:coord>
        <when>2025-01-01T00:47:19.1133950Z</when>
        <gx:coord>12.056122 51.551712 110.808</gx:coord>
        <when>2025-01-01T00:47:19.9983950Z</when>
        <gx:coord>12.056036 51.551712 110.808</gx:coord>
        <when>2025-01-01T00:47:20.1123950Z</when>
        <gx:coord>12.056036 51.551712 110.808</gx:coord>
        <when>2025-01-01T00:47:21.1003950Z</when>
        <gx:coord>12.055971 51.551693 110.808</gx:coord>
        <when>2025-01-01T00:47:23.1163950Z</when>
        <gx:coord>12.055843 51.551605 110.808</gx:coord>
        <when>2025-01-01T00:47:24.9973950Z</when>
        <gx:coord>12.0557575 51.551544 110.808</gx:coord>
        <when>2025-01-01T00:47:26.1173950Z</when>
        <gx:coord>12.055714 51.5515 110.808</gx:coord>
        <when>2025-01-01T00:47:29.1133950Z</when>
        <gx:coord>12.05565 51.55139 110.808</gx:coord>
        <when>2025-01-01T00:47:29.1133950Z</when>
        <gx:coord>12.05565 51.55139 110.808</gx:coord>
        <when>2025-01-01T00:47:29.1143950Z</when>
        <gx:coord>12.05565 51.55139 110.808</gx:coord>
        <when>2025-01-01T00:47:29.9973950Z</when>
        <gx:coord>12.05565 51.55137 110.808</gx:coord>
        <when>2025-01-01T00:47:34.9983950Z</when>
        <gx:coord>12.055607 51.551308 110.808</gx:coord>
        <when>2025-01-01T00:47:39.9983950Z</when>
        <gx:coord>12.055607 51.551327 110.808</gx:coord>
        <when>2025-01-01T00:47:44.9983950Z</when>
        <gx:coord>12.055607 51.551327 110.808</gx:coord>
        <when>2025-01-01T00:47:50.0083950Z</when>
        <gx:coord>12.055607 51.551327 110.808</gx:coord>
        <when>2025-01-01T00:47:54.9983950Z</when>
        <gx:coord>12.055586 51.551285 110.808</gx:coord>
        <when>2025-01-01T00:47:57.1143950Z</when>
        <gx:coord>12.055564 51.55126 110.808</gx:coord>
        <when>2025-01-01T00:47:59.9983950Z</when>
        <gx:coord>12.0555 51.551178 110.808</gx:coord>
        <when>2025-01-01T00:48:04.9983950Z</when>
        <gx:coord>12.055392 51.551025 110.808</gx:coord>
        <when>2025-01-01T00:48:09.1253950Z</when>
        <gx:coord>12.055328 51.55092 110.808</gx:coord>
        <when>2025-01-01T00:48:09.9983950Z</when>
        <gx:coord>12.055328 51.550877 110.808</gx:coord>
        <when>2025-01-01T00:48:11.1193950Z</when>
        <gx:coord>12.055328 51.550858 110.808</gx:coord>
        <when>2025-01-01T00:48:12.1013950Z</when>
        <gx:coord>12.055328 51.55081 110.808</gx:coord>
        <when>2025-01-01T00:48:13.1253950Z</when>
        <gx:coord>12.055349 51.550793 110.808</gx:coord>
        <when>2025-01-01T00:48:14.1193950Z</when>
        <gx:coord>12.055392 51.550747 110.808</gx:coord>
        <when>2025-01-01T00:48:14.9983950Z</when>
        <gx:coord>12.055456 51.550728 110.808</gx:coord>
        <when>2025-01-01T00:48:15.1193950Z</when>
        <gx:coord>12.055456 51.550728 110.808</gx:coord>
        <when>2025-01-01T00:48:20.0103950Z</when>
        <gx:coord>12.055821 51.55062 110.808</gx:coord>
        <when>2025-01-01T00:48:24.9983950Z</when>
        <gx:coord>12.056251 51.550514 110.808</gx:coord>
        <when>2025-01-01T00:48:29.9983950Z</when>
        <gx:coord>12.056658 51.550385 110.808</gx:coord>
        <when>2025-01-01T00:48:34.9983950Z</when>
        <gx:coord>12.057066 51.550278 110.808</gx:coord>
        <when>2025-01-01T00:48:39.9983950Z</when>
        <gx:coord>12.057409 51.55017 110.808</gx:coord>
        <when>2025-01-01T00:48:44.9983950Z</when>
        <gx:coord>12.05771 51.550106 110.808</gx:coord>
        <when>2025-01-01T00:48:50.0013950Z</when>
        <gx:coord>12.057967 51.55002 110.808</gx:coord>
        <when>2025-01-01T00:48:52.1013950Z</when>
        <gx:coord>12.058053 51.549995 110.808</gx:coord>
        <when>2025-01-01T00:48:54.1173950Z</when>
        <gx:coord>12.058117 51.549953 110.808</gx:coord>
        <when>2025-01-01T00:48:54.9993950Z</when>
        <gx:coord>12.058139 51.549934 110.808</gx:coord>
        <when>2025-01-01T00:48:56.0983950Z</when>
        <gx:coord>12.058161 51.54991 110.808</gx:coord>
        <when>2025-01-01T00:48:57.0943950Z</when>
        <gx:coord>12.058161 51.54987 110.808</gx:coord>
        <when>2025-01-01T00:48:59.1133950Z</when>
        <gx:coord>12.058139 51.549805 110.808</gx:coord>
        <when>2025-01-01T00:48:59.9993950Z</when>
        <gx:coord>12.058139 51.549763 110.808</gx:coord>
        <when>2025-01-01T00:49:04.9993950Z</when>
        <gx:coord>12.05801 51.549545 110.808</gx:coord>
        <when>2025-01-01T00:49:09.9993950Z</when>
        <gx:coord>12.057924 51.54931 110.808</gx:coord>
        <when>2025-01-01T00:49:14.1103950Z</when>
        <gx:coord>12.057859 51.549183 110.808</gx:coord>
        <when>2025-01-01T00:49:14.9993950Z</when>
        <gx:coord>12.057859 51.54914 110.808</gx:coord>
        <when>2025-01-01T00:49:15.0923950Z</when>
        <gx:coord>12.057859 51.54914 110.808</gx:coord>
        <when>2025-01-01T00:49:16.0913950Z</when>
        <gx:coord>12.057859 51.54914 110.808</gx:coord>
        <when>2025-01-01T00:49:17.0883950Z</when>
        <gx:coord>12.057859 51.549118 110.808</gx:coord>
        <when>2025-01-01T00:49:18.0863950Z</when>
        <gx:coord>12.057881 51.549095 110.808</gx:coord>
        <when>2025-01-01T00:49:19.1043950Z</when>
        <gx:coord>12.057903 51.549076 110.808</gx:coord>
        <when>2025-01-01T00:49:20.0153950Z</when>
        <gx:coord>12.057945 51.549076 110.808</gx:coord>
        <when>2025-01-01T00:49:20.1123950Z</when>
        <gx:coord>12.057945 51.549076 110.808</gx:coord>
        <when>2025-01-01T00:49:24.9993950Z</when>
        <gx:coord>12.058161 51.549053 110.808</gx:coord>
        <when>2025-01-01T00:49:27.0943950Z</when>
        <gx:coord>12.058247 51.54903 110.808</gx:coord>
        <when>2025-01-01T00:49:29.1053950Z</when>
        <gx:coord>12.058289 51.54901 110.808</gx:coord>
        <when>2025-01-01T00:49:29.9993950Z</when>
        <gx:coord>12.0583105 51.54901 110.808</gx:coord>
        <when>2025-01-01T00:49:30.0923950Z</when>
        <gx:coord>12.0583105 51.54901 110.808</gx:coord>
        <when>2025-01-01T00:49:32.0943950Z</when>
        <gx:coord>12.058353 51.548965 110.808</gx:coord>
        <when>2025-01-01T00:49:34.9993950Z</when>
        <gx:coord>12.058353 51.54888 110.808</gx:coord>
        <when>2025-01-01T00:49:36.1123950Z</when>
        <gx:coord>12.058353 51.54884 110.808</gx:coord>
        <when>2025-01-01T00:49:39.0833950Z</when>
        <gx:coord>12.058353 51.548775 110.808</gx:coord>
        <when>2025-01-01T00:49:39.9993950Z</when>
        <gx:coord>12.058353 51.54875 110.808</gx:coord>
        <when>2025-01-01T00:49:44.9993950Z</when>
        <gx:coord>12.058374 51.548687 110.808</gx:coord>
        <when>2025-01-01T00:49:47.0903950Z</when>
        <gx:coord>12.058374 51.548668 110.808</gx:coord>
        <when>2025-01-01T00:49:48.0863950Z</when>
        <gx:coord>12.058374 51.548645 110.808</gx:coord>
        <when>2025-01-01T00:49:49.0913950Z</when>
        <gx:coord>12.058374 51.548645 110.808</gx:coord>
        <when>2025-01-01T00:49:49.9983950Z</when>
        <gx:coord>12.058353 51.548645 110.808</gx:coord>
        <when>2025-01-01T00:49:50.0893950Z</when>
        <gx:coord>12.058353 51.548645 110.808</gx:coord>
        <when>2025-01-01T00:49:51.0913950Z</when>
        <gx:coord>12.058353 51.548622 110.808</gx:coord>
        <when>2025-01-01T00:49:53.0953950Z</when>
        <gx:coord>12.058332 51.548622 110.808</gx:coord>
        <when>2025-01-01T00:49:54.9993950Z</when>
        <gx:coord>12.0583105 51.548645 110.808</gx:coord>
        <when>2025-01-01T00:49:59.9993950Z</when>
        <gx:coord>12.0583105 51.548645 110.808</gx:coord>
        <when>2025-01-01T00:50:04.9993950Z</when>
        <gx:coord>12.0583105 51.548645 110.808</gx:coord>
        <when>2025-01-01T00:50:09.9993950Z</when>
        <gx:coord>12.0583105 51.548645 110.808</gx:coord>
        <when>2025-01-01T00:50:14.9993950Z</when>
        <gx:coord>12.0583105 51.548645 110.808</gx:coord>
        <when>2025-01-01T00:50:20.0133950Z</when>
        <gx:coord>12.0583105 51.548645 110.808</gx:coord>
        <when>2025-01-01T00:50:20.8253950Z</when>
        <gx:coord>12.0583105 51.548645 110.808</gx:coord>
        <coordinates />
      </gx:Track>
    </Placemark>
    <Placemark>
      <name>Takeoff: 2025-01-01</name>
      <styleUrl>#downArrowIcon</styleUrl>
      <Point>
        <altitudeMode>relativeToGround</altitudeMode>
        <coordinates>12.841923,50.748768,20</coordinates>
      </Point>
    </Placemark>
    <Placemark>
      <name>Landing: 2025-01-01</name>
      <styleUrl>#downArrowIcon</styleUrl>
      <Point>
        <altitudeMode>relativeToGround</altitudeMode>
        <coordinates>12.05565,51.55139,20</coordinates>
      </Point>
    </Placemark>
    <Placemark>
      <name>Log Stop: 2025-01-01</name>
      <styleUrl>#downArrowIcon</styleUrl>
      <Point>
        <altitudeMode>relativeToGround</altitudeMode>
        <coordinates>12.0583105,51.548645,20</coordinates>
      </Point>
    </Placemark>
  </Document>
</kml>
