<?xml version="1.0" encoding="utf-8"?>
<kml xmlns:gx="http://www.google.com/kml/ext/2.2" creator="kml-heatmap" xmlns="http://www.opengis.net/kml/2.2">
  <Document>
    <name>SkyDemon Track Log</name>
    <Style id="skydemonLogStyle">
      <LineStyle>
        <color>7f00ffff</color>
        <width>4</width>
      </LineStyle>
      <PolyStyle>
        <color>7fffa400</color>
      </PolyStyle>
    </Style>
    <Style id="downArrowIcon">
      <IconStyle>
        <href>http://maps.google.com/mapfiles/kml/pal4/icon28.png</href>
      </IconStyle>
    </Style>
    <Placemark>
      <name>Log Start: 2025-01-01</name>
      <styleUrl>#downArrowIcon</styleUrl>
      <Point>
        <altitudeMode>relativeToGround</altitudeMode>
        <coordinates>9.98801,53.627014,20</coordinates>
      </Point>
    </Placemark>
    <Placemark>
      <name>EDDH Hamburg - EDDH Hamburg</name>
      <styleUrl>#skydemonLogStyle</styleUrl>
      <gx:Track>
        <extrude>1</extrude>
        <altitudeMode>absolute</altitudeMode>
        <when>2025-01-01T00:00:00.9119490Z</when>
        <gx:coord>9.98801 53.627014 17.961994</gx:coord>
        <when>2025-01-01T00:00:05.9129490Z</when>
        <gx:coord>9.98801 53.627014 17.961994</gx:coord>
        <when>2025-01-01T00:00:10.9129490Z</when>
        <gx:coord>9.98801 53.627014 17.961994</gx:coord>
        <when>2025-01-01T00:00:15.9129490Z</when>
        <gx:coord>9.98801 53.627014 17.961994</gx:coord>
        <when>2025-01-01T00:00:20.9129490Z</when>
        <gx:coord>9.98801 53.627014 17.961994</gx:coord>
        <when>2025-01-01T00:00:25.9129490Z</when>
        <gx:coord>9.98801 53.627014 17.961994</gx:coord>
        <when>2025-01-01T00:00:30.9129490Z</when>
        <gx:coord>9.98801 53.627014 17.961994</gx:coord>
        <when>2025-01-01T00:00:35.9139490Z</when>
        <gx:coord>9.98801 53.627014 17.961994</gx:coord>
        <when>2025-01-01T00:00:40.9139490Z</when>
        <gx:coord>9.98801 53.627014 17.961994</gx:coord>
        <when>2025-01-01T00:00:45.9129490Z</when>
        <gx:coord>9.98801 53.627014 17.961994</gx:coord>
        <when>2025-01-01T00:00:50.9139490Z</when>
        <gx:coord>9.98801 53.627014 17.961994</gx:coord>
        <when>2025-01-01T00:00:55.9139490Z</when>
        <gx:coord>9.98801 53.627014 17.961994</gx:coord>
        <when>2025-01-01T00:01:00.9139490Z</when>
        <gx:coord>9.98801 53.627014 17.961994</gx:coord>
        <when>2025-01-01T00:01:05.9139490Z</when>
        <gx:coord>9.98801 53.627014 17.961994</gx:coord>
        <when>2025-01-01T00:01:10.9139490Z</when>
        <gx:coord>9.98801 53.627014 17.961994</gx:coord>
        <when>2025-01-01T00:01:15.9139490Z</when>
        <gx:coord>9.98801 53.627014 17.961994</gx:coord>
        <when>2025-01-01T00:01:20.9139490Z</when>
        <gx:coord>9.98801 53.627014 17.961994</gx:coord>
        <when>2025-01-01T00:01:25.9139490Z</when>
        <gx:coord>9.98801 53.627014 17.961994</gx:coord>
        <when>2025-01-01T00:01:30.9139490Z</when>
        <gx:coord>9.98801 53.627014 17.961994</gx:coord>
        <when>2025-01-01T00:01:35.9139490Z</when>
        <gx:coord>9.98801 53.627014 17.961994</gx:coord>
        <when>2025-01-01T00:01:40.9139490Z</when>
        <gx:coord>9.98801 53.627014 17.961994</gx:coord>
        <when>2025-01-01T00:01:45.9149490Z</when>
        <gx:coord>9.98801 53.627014 17.961994</gx:coord>
        <when>2025-01-01T00:01:50.9149490Z</when>
        <gx:coord>9.98801 53.627014 17.961994</gx:coord>
        <when>2025-01-01T00:01:55.9149490Z</when>
        <gx:coord>9.98801 53.627014 17.961994</gx:coord>
        <when>2025-01-01T00:02:00.9149490Z</when>
        <gx:coord>9.98801 53.627014 17.961994</gx:coord>
        <when>2025-01-01T00:02:05.9149490Z</when>
        <gx:coord>9.98801 53.627014 17.961994</gx:coord>
        <when>2025-01-01T00:02:10.9149490Z</when>
        <gx:coord>9.98801 53.627014 17.961994</gx:coord>
        <when>2025-01-01T00:02:15.9149490Z</when>
        <gx:coord>9.98801 53.627014 17.961994</gx:coord>
        <when>2025-01-01T00:02:20.9149490Z</when>
        <gx:coord>9.98801 53.627014 17.961994</gx:coord>
        <when>2025-01-01T00:02:25.9149490Z</when>
        <gx:coord>9.98801 53.627014 17.961994</gx:coord>
        <when>2025-01-01T00:02:30.9149490Z</when>
        <gx:coord>9.98801 53.627014 17.961994</gx:coord>
        <when>2025-01-01T00:02:35.9149490Z</when>
        <gx:coord>9.98801 53.627014 17.961994</gx:coord>
        <when>2025-01-01T00:02:40.9139490Z</when>
        <gx:coord>9.98801 53.627014 17.961994</gx:coord>
        <when>2025-01-01T00:02:45.9159490Z</when>
        <gx:coord>9.98801 53.627014 17.961994</gx:coord>
        <when>2025-01-01T00:02:50.9159490Z</when>
        <gx:coord>9.98801 53.627014 17.961994</gx:coord>
        <when>2025-01-01T00:02:55.9159490Z</when>
        <gx:coord>9.98801 53.627014 17.961994</gx:coord>
        <when>2025-01-01T00:03:00.9159490Z</when>
        <gx:coord>9.98801 53.627014 17.961994</gx:coord>
        <when>2025-01-01T00:03:05.9159490Z</when>
        <gx:coord>9.98801 53.627014 17.961994</gx:coord>
        <when>2025-01-01T00:03:10.9159490Z</when>
        <gx:coord>9.98801 53.627014 17.961994</gx:coord>
        <when>2025-01-01T00:03:15.9159490Z</when>
        <gx:coord>9.98801 53.627014 17.961994</gx:coord>
        <when>2025-01-01T00:03:20.9149490Z</when>
        <gx:coord>9.98801 53.627014 17.961994</gx:coord>
        <when>2025-01-01T00:03:25.9159490Z</when>
        <gx:coord>9.98801 53.627014 17.961994</gx:coord>
        <when>2025-01-01T00:03:30.9159490Z</when>
        <gx:coord>9.987967 53.627014 17.961994</gx:coord>
        <when>2025-01-01T00:03:32.1299490Z</when>
        <gx:coord>9.987967 53.627014 17.961994</gx:coord>
        <when>2025-01-01T00:03:34.0949490Z</when>
        <gx:coord>9.987925 53.627014 17.961994</gx:coord>
        <when>2025-01-01T00:03:35.9159490Z</when>
        <gx:coord>9.987881 53.62699 17.961994</gx:coord>
        <when>2025-01-01T00:03:36.0909490Z</when>
        <gx:coord>9.987881 53.62699 17.961994</gx:coord>
        <when>2025-01-01T00:03:36.0919490Z</when>
        <gx:coord>9.987881 53.62699 17.961994</gx:coord>
        <when>2025-01-01T00:03:38.1059490Z</when>
        <gx:coord>9.987817 53.627014 17.961994</gx:coord>
        <when>2025-01-01T00:03:40.1189490Z</when>
        <gx:coord>9.987753 53.627037 17.961994</gx:coord>
        <when>2025-01-01T00:03:40.9159490Z</when>
        <gx:coord>9.987688 53.62708 17.961994</gx:coord>
        <when>2025-01-01T00:03:44.9069490Z</when>
        <gx:coord>9.987623 53.627163 17.961994</gx:coord>
        <when>2025-01-01T00:03:45.9159490Z</when>
        <gx:coord>9.987623 53.627163 17.961994</gx:coord>
        <when>2025-01-01T00:03:46.9069490Z</when>
        <gx:coord>9.987559 53.627163 17.961994</gx:coord>
        <when>2025-01-01T00:03:50.1239490Z</when>
        <gx:coord>9.987495 53.627186 17.961994</gx:coord>
        <when>2025-01-01T00:03:50.9159490Z</when>
        <gx:coord>9.98741 53.62721 17.961994</gx:coord>
        <when>2025-01-01T00:03:52.1239490Z</when>
        <gx:coord>9.98741 53.62721 17.961994</gx:coord>
        <when>2025-01-01T00:03:54.1309490Z</when>
        <gx:coord>9.987324 53.62725 17.961994</gx:coord>
        <when>2025-01-01T00:03:55.9159490Z</when>
        <gx:coord>9.987238 53.627293 17.961994</gx:coord>
        <when>2025-01-01T00:03:56.1179490Z</when>
        <gx:coord>9.987238 53.627293 17.961994</gx:coord>
        <when>2025-01-01T00:04:00.9169490Z</when>
        <gx:coord>9.987087 53.62744 17.961994</gx:coord>
        <when>2025-01-01T00:04:02.9069490Z</when>
        <gx:coord>9.987044 53.627487 17.961994</gx:coord>
        <when>2025-01-01T00:04:04.1059490Z</when>
        <gx:coord>9.987044 53.627487 17.961994</gx:coord>
        <when>2025-01-01T00:04:05.9169490Z</when>
        <gx:coord>9.98698 53.62753 17.961994</gx:coord>
        <when>2025-01-01T00:04:06.1189490Z</when>
        <gx:coord>9.98698 53.62753 17.961994</gx:coord>
        <when>2025-01-01T00:04:08.1119490Z</when>
        <gx:coord>9.986851 53.62753 17.961994</gx:coord>
        <when>2025-01-01T00:04:10.1249490Z</when>
        <gx:coord>9.986744 53.627506 17.961994</gx:coord>
        <when>2025-01-01T00:04:10.9169490Z</when>
        <gx:coord>9.986637 53.62744 17.961994</gx:coord>
        <when>2025-01-01T00:04:15.9179490Z</when>
        <gx:coord>9.986401 53.627335 16.437996</gx:coord>
        <when>2025-01-01T00:04:20.9169490Z</when>
        <gx:coord>9.986057 53.627163 16.437996</gx:coord>
        <when>2025-01-01T00:04:25.9169490Z</when>
        <gx:coord>9.985843 53.627056 16.437996</gx:coord>
        <when>2025-01-01T00:04:30.9169490Z</when>
        <gx:coord>9.985499 53.626884 16.437996</gx:coord>
        <when>2025-01-01T00:04:35.9169490Z</when>
        <gx:coord>9.985264 53.626755 16.437996</gx:coord>
        <when>2025-01-01T00:04:36.1269490Z</when>
        <gx:coord>9.985264 53.626755 16.437996</gx:coord>
        <when>2025-01-01T00:04:40.1249490Z</when>
        <gx:coord>9.985006 53.626713 16.437996</gx:coord>
        <when>2025-01-01T00:04:40.9159490Z</when>
        <gx:coord>9.984877 53.626694 16.437996</gx:coord>
        <when>2025-01-01T00:04:42.1219490Z</when>
        <gx:coord>9.984877 53.626694 16.437996</gx:coord>
        <when>2025-01-01T00:04:45.9169490Z</when>
        <gx:coord>9.984663 53.626736 16.437996</gx:coord>
        <when>2025-01-01T00:04:46.1289490Z</when>
        <gx:coord>9.984663 53.626736 16.437996</gx:coord>
        <when>2025-01-01T00:04:48.9079490Z</when>
        <gx:coord>9.984512 53.626778 16.437996</gx:coord>
        <when>2025-01-01T00:04:50.9169490Z</when>
        <gx:coord>9.984469 53.6268 16.437996</gx:coord>
        <when>2025-01-01T00:04:55.9179490Z</when>
        <gx:coord>9.984384 53.626865 16.437996</gx:coord>
        <when>2025-01-01T00:05:00.9179490Z</when>
        <gx:coord>9.984341 53.626884 16.437996</gx:coord>
        <when>2025-01-01T00:05:05.9179490Z</when>
        <gx:coord>9.984341 53.626884 16.437996</gx:coord>
        <when>2025-01-01T00:05:10.9179490Z</when>
        <gx:coord>9.984341 53.626884 16.437996</gx:coord>
        <when>2025-01-01T00:05:15.9179490Z</when>
        <gx:coord>9.98432 53.626884 16.437996</gx:coord>
        <when>2025-01-01T00:05:20.9179490Z</when>
        <gx:coord>9.98432 53.626884 16.437996</gx:coord>
        <when>2025-01-01T00:05:25.9179490Z</when>
        <gx:coord>9.98432 53.626884 16.437996</gx:coord>
        <when>2025-01-01T00:05:30.9179490Z</when>
        <gx:coord>9.98432 53.626884 16.437996</gx:coord>
        <when>2025-01-01T00:05:35.9179490Z</when>
        <gx:coord>9.98432 53.626884 16.437996</gx:coord>
        <when>2025-01-01T00:05:40.9179490Z</when>
        <gx:coord>9.98432 53.626884 17.961994</gx:coord>
        <when>2025-01-01T00:05:45.9179490Z</when>
        <gx:coord>9.98432 53.626884 17.961994</gx:coord>
        <when>2025-01-01T00:05:50.9179490Z</when>
        <gx:coord>9.98432 53.626884 17.961994</gx:coord>
        <when>2025-01-01T00:05:55.9179490Z</when>
        <gx:coord>9.98432 53.626884 16.437996</gx:coord>
        <when>2025-01-01T00:06:00.9179490Z</when>
        <gx:coord>9.98432 53.626884 16.437996</gx:coord>
        <when>2025-01-01T00:06:05.9179490Z</when>
        <gx:coord>9.98432 53.626884 16.437996</gx:coord>
        <when>2025-01-01T00:06:10.9169490Z</when>
        <gx:coord>9.98432 53.626884 16.437996</gx:coord>
        <when>2025-01-01T00:06:15.9189490Z</when>
        <gx:coord>9.98432 53.626884 16.437996</gx:coord>
        <when>2025-01-01T00:06:20.9019490Z</when>
        <gx:coord>9.98432 53.626884 16.437996</gx:coord>
        <when>2025-01-01T00:06:20.9179490Z</when>
        <gx:coord>9.98432 53.626884 16.437996</gx:coord>
        <when>2025-01-01T00:06:25.9189490Z</when>
        <gx:coord>9.984298 53.626907 16.437996</gx:coord>
        <when>2025-01-01T00:06:30.9189490Z</when>
        <gx:coord>9.984083 53.627056 16.437996</gx:coord>
        <when>2025-01-01T00:06:35.9189490Z</when>
        <gx:coord>9.983954 53.627163 16.437996</gx:coord>
        <when>2025-01-01T00:06:40.9189490Z</when>
        <gx:coord>9.98374 53.627316 16.437996</gx:coord>
        <when>2025-01-01T00:06:45.9179490Z</when>
        <gx:coord>9.983547 53.62744 16.437996</gx:coord>
        <when>2025-01-01T00:06:48.1189490Z</when>
        <gx:coord>9.983439 53.62753 16.437996</gx:coord>
        <when>2025-01-01T00:06:50.1219490Z</when>
        <gx:coord>9.983311 53.62757 16.437996</gx:coord>
        <when>2025-01-01T00:06:50.9189490Z</when>
        <gx:coord>9.983139 53.627617 16.437996</gx:coord>
        <when>2025-01-01T00:06:52.1249490Z</when>
        <gx:coord>9.983139 53.627617 16.437996</gx:coord>
        <when>2025-01-01T00:06:54.1259490Z</when>
        <gx:coord>9.982967 53.627636 16.437996</gx:coord>
        <when>2025-01-01T00:06:55.9189490Z</when>
        <gx:coord>9.982817 53.627617 16.437996</gx:coord>
        <when>2025-01-01T00:06:56.1059490Z</when>
        <gx:coord>9.982817 53.627617 16.437996</gx:coord>
        <when>2025-01-01T00:06:58.1209490Z</when>
        <gx:coord>9.982667 53.627594 16.437996</gx:coord>
        <when>2025-01-01T00:07:00.9199490Z</when>
        <gx:coord>9.982473 53.627506 16.437996</gx:coord>
        <when>2025-01-01T00:07:05.9199490Z</when>
        <gx:coord>9.982367 53.62744 16.437996</gx:coord>
        <when>2025-01-01T00:07:08.1269490Z</when>
        <gx:coord>9.98226 53.6274 16.437996</gx:coord>
        <when>2025-01-01T00:07:10.9199490Z</when>
        <gx:coord>9.981787 53.627163 16.437996</gx:coord>
        <when>2025-01-01T00:07:12.1359490Z</when>
        <gx:coord>9.981787 53.627163 16.437996</gx:coord>
        <when>2025-01-01T00:07:12.1389490Z</when>
        <gx:coord>9.981787 53.627163 16.437996</gx:coord>
        <when>2025-01-01T00:07:15.9199490Z</when>
        <gx:coord>9.981014 53.626778 16.437996</gx:coord>
        <when>2025-01-01T00:07:16.1169490Z</when>
        <gx:coord>9.981014 53.626778 16.437996</gx:coord>
        <when>2025-01-01T00:07:20.1219490Z</when>
        <gx:coord>9.979984 53.626263 16.437996</gx:coord>
        <when>2025-01-01T00:07:20.9199490Z</when>
        <gx:coord>9.9793625 53.625984 16.437996</gx:coord>
        <when>2025-01-01T00:07:25.9199490Z</when>
        <gx:coord>9.977989 53.625275 16.437996</gx:coord>
        <when>2025-01-01T00:07:26.1219490Z</when>
        <gx:coord>9.977989 53.625275 16.437996</gx:coord>
        <when>2025-01-01T00:07:30.9199490Z</when>
        <gx:coord>9.975586 53.624096 17.961994</gx:coord>
        <when>2025-01-01T00:07:35.9199490Z</when>
        <gx:coord>9.973848 53.62326 24.057999</gx:coord>
        <when>2025-01-01T00:07:36.0989490Z</when>
        <gx:coord>9.973848 53.62326 24.057999</gx:coord>
        <when>2025-01-01T00:07:40.9199490Z</when>
        <gx:coord>9.971188 53.621887 36.249992</gx:coord>
        <when>2025-01-01T00:07:45.9199490Z</when>
        <gx:coord>9.969406 53.620983 48.441994</gx:coord>
        <when>2025-01-01T00:07:50.1219490Z</when>
        <gx:coord>9.966788 53.619656 74.34999</gx:coord>
        <when>2025-01-01T00:07:50.9199490Z</when>
        <gx:coord>9.966788 53.619656 74.34999</gx:coord>
        <when>2025-01-01T00:07:55.9199490Z</when>
        <gx:coord>9.965094 53.618797 85.018005</gx:coord>
        <when>2025-01-01T00:07:58.1209490Z</when>
        <gx:coord>9.963398 53.617916 91.11399</gx:coord>
        <when>2025-01-01T00:08:00.9199490Z</when>
        <gx:coord>9.962561 53.617485 98.734</gx:coord>
        <when>2025-01-01T00:08:04.1229490Z</when>
        <gx:coord>9.960844 53.616566 109.402</gx:coord>
        <when>2025-01-01T00:08:05.9199490Z</when>
        <gx:coord>9.960844 53.616566 109.402</gx:coord>
        <when>2025-01-01T00:08:10.9209490Z</when>
        <gx:coord>9.958313 53.615192 132.262</gx:coord>
        <when>2025-01-01T00:08:14.1169490Z</when>
        <gx:coord>9.95666 53.61429 145.978</gx:coord>
        <when>2025-01-01T00:08:15.9209490Z</when>
        <gx:coord>9.95666 53.61429 145.978</gx:coord>
        <when>2025-01-01T00:08:20.9209490Z</when>
        <gx:coord>9.954171 53.61296 156.646</gx:coord>
        <when>2025-01-01T00:08:25.9209490Z</when>
        <gx:coord>9.952391 53.61195 156.646</gx:coord>
        <when>2025-01-01T00:08:26.1169490Z</when>
        <gx:coord>9.952391 53.61195 156.646</gx:coord>
        <when>2025-01-01T00:08:30.9209490Z</when>
        <gx:coord>9.949665 53.61032 173.41002</gx:coord>
        <when>2025-01-01T00:08:32.1209490Z</when>
        <gx:coord>9.948914 53.60974 182.554</gx:coord>
        <when>2025-01-01T00:08:34.1099490Z</when>
        <gx:coord>9.948914 53.60974 182.554</gx:coord>
        <when>2025-01-01T00:08:35.9209490Z</when>
        <gx:coord>9.948313 53.60912 188.65</gx:coord>
        <when>2025-01-01T00:08:38.1169490Z</when>
        <gx:coord>9.947906 53.60845 193.222</gx:coord>
        <when>2025-01-01T00:08:40.9209490Z</when>
        <gx:coord>9.947626 53.607037 196.26999</gx:coord>
        <when>2025-01-01T00:08:42.1189490Z</when>
        <gx:coord>9.947626 53.607037 196.26999</gx:coord>
        <when>2025-01-01T00:08:44.1159490Z</when>
        <gx:coord>9.947756 53.60633 196.26999</gx:coord>
        <when>2025-01-01T00:08:45.9209490Z</when>
        <gx:coord>9.948013 53.60562 197.794</gx:coord>
        <when>2025-01-01T00:08:50.1089490Z</when>
        <gx:coord>9.948914 53.604225 202.366</gx:coord>
        <when>2025-01-01T00:08:50.9209490Z</when>
        <gx:coord>9.949514 53.603584 211.50998</gx:coord>
        <when>2025-01-01T00:08:52.1219490Z</when>
        <gx:coord>9.949514 53.603584 211.50998</gx:coord>
        <when>2025-01-01T00:08:52.1269490Z</when>
        <gx:coord>9.950459 53.60309 211.50998</gx:coord>
        <when>2025-01-01T00:08:52.1269490Z</when>
        <gx:coord>9.950459 53.60309 220.65399</gx:coord>
        <when>2025-01-01T00:08:54.1179490Z</when>
        <gx:coord>9.950459 53.60309 220.65399</gx:coord>
        <when>2025-01-01T00:08:55.9219490Z</when>
        <gx:coord>9.95121 53.60251 228.274</gx:coord>
        <when>2025-01-01T00:08:56.1139490Z</when>
        <gx:coord>9.95121 53.60251 228.274</gx:coord>
        <when>2025-01-01T00:09:00.1259490Z</when>
        <gx:coord>9.952927 53.601692 240.46597</gx:coord>
        <when>2025-01-01T00:09:00.9219490Z</when>
        <gx:coord>9.953098 53.60062 246.562</gx:coord>
        <when>2025-01-01T00:09:02.1169490Z</when>
        <gx:coord>9.953098 53.60062 246.562</gx:coord>
        <when>2025-01-01T00:09:02.1169490Z</when>
        <gx:coord>9.95385 53.60004 252.65799</gx:coord>
        <when>2025-01-01T00:09:05.9219490Z</when>
        <gx:coord>9.954578 53.599483 257.22998</gx:coord>
        <when>2025-01-01T00:09:10.9219490Z</when>
        <gx:coord>9.956875 53.597748 272.46997</gx:coord>
        <when>2025-01-01T00:09:15.9219490Z</when>
        <gx:coord>9.958506 53.59659 281.61398</gx:coord>
        <when>2025-01-01T00:09:16.1219490Z</when>
        <gx:coord>9.959343 53.59603 286.18597</gx:coord>
        <when>2025-01-01T00:09:20.9209490Z</when>
        <gx:coord>9.961081 53.59489 292.28198</gx:coord>
        <when>2025-01-01T00:09:25.9219490Z</when>
        <gx:coord>9.962776 53.593754 301.426</gx:coord>
        <when>2025-01-01T00:09:30.1169490Z</when>
        <gx:coord>9.965179 53.59202 318.19</gx:coord>
        <when>2025-01-01T00:09:30.9219490Z</when>
        <gx:coord>9.965179 53.59202 318.19</gx:coord>
        <when>2025-01-01T00:09:35.9229490Z</when>
        <gx:coord>9.96681 53.59088 331.906</gx:coord>
        <when>2025-01-01T00:09:38.1229490Z</when>
        <gx:coord>9.968462 53.589764 338.00198</gx:coord>
        <when>2025-01-01T00:09:40.1219490Z</when>
        <gx:coord>9.969299 53.589226 348.66998</gx:coord>
        <when>2025-01-01T00:09:40.9219490Z</when>
        <gx:coord>9.969299 53.589226 348.66998</gx:coord>
        <when>2025-01-01T00:09:45.9229490Z</when>
        <gx:coord>9.971058 53.588177 363.91</gx:coord>
        <when>2025-01-01T00:09:50.1229490Z</when>
        <gx:coord>9.973677 53.58663 380.674</gx:coord>
        <when>2025-01-01T00:09:50.9289490Z</when>
        <gx:coord>9.973677 53.58663 380.674</gx:coord>
        <when>2025-01-01T00:09:52.1139490Z</when>
        <gx:coord>9.973677 53.58663 380.674</gx:coord>
        <when>2025-01-01T00:09:56.2559490Z</when>
        <gx:coord>9.97653 53.58517 385.246</gx:coord>
        <when>2025-01-01T00:10:00.9229490Z</when>
        <gx:coord>9.978439 53.58414 388.294</gx:coord>
        <when>2025-01-01T00:10:02.1169490Z</when>
        <gx:coord>9.978439 53.58414 388.294</gx:coord>
        <when>2025-01-01T00:10:04.1169490Z</when>
        <gx:coord>9.979298 53.58354 392.866</gx:coord>
        <when>2025-01-01T00:10:05.9229490Z</when>
        <gx:coord>9.980092 53.58292 397.438</gx:coord>
        <when>2025-01-01T00:10:10.1159490Z</when>
        <gx:coord>9.982324 53.580967 412.678</gx:coord>
        <when>2025-01-01T00:10:10.9219490Z</when>
        <gx:coord>9.982324 53.580967 412.678</gx:coord>
        <when>2025-01-01T00:10:15.9229490Z</when>
        <gx:coord>9.98374 53.579594 420.298</gx:coord>
        <when>2025-01-01T00:10:20.1149490Z</when>
        <gx:coord>9.985907 53.5776 449.254</gx:coord>
        <when>2025-01-01T00:10:20.9229490Z</when>
        <gx:coord>9.985907 53.5776 449.254</gx:coord>
        <when>2025-01-01T00:10:22.1179490Z</when>
        <gx:coord>9.986615 53.576973 449.254</gx:coord>
        <when>2025-01-01T00:10:25.9229490Z</when>
        <gx:coord>9.987302 53.576374 467.542</gx:coord>
        <when>2025-01-01T00:10:30.9229490Z</when>
        <gx:coord>9.989276 53.57451 476.686</gx:coord>
        <when>2025-01-01T00:10:32.1069490Z</when>
        <gx:coord>9.9899845 53.573864 479.73404</gx:coord>
        <when>2025-01-01T00:10:36.3849490Z</when>
        <gx:coord>9.991422 53.57251 481.258</gx:coord>
        <when>2025-01-01T00:10:40.9229490Z</when>
        <gx:coord>9.992903 53.571136 484.30597</gx:coord>
        <when>2025-01-01T00:10:45.9239490Z</when>
        <gx:coord>9.994404 53.569744 481.258</gx:coord>
        <when>2025-01-01T00:10:50.9239490Z</when>
        <gx:coord>9.9967 53.56762 470.59</gx:coord>
        <when>2025-01-01T00:10:55.9239490Z</when>
        <gx:coord>9.998159 53.566162 469.066</gx:coord>
        <when>2025-01-01T00:11:01.1119490Z</when>
        <gx:coord>10.000606 53.56408 459.922</gx:coord>
        <when>2025-01-01T00:11:04.0939490Z</when>
        <gx:coord>10.002516 53.56279 459.922</gx:coord>
        <when>2025-01-01T00:11:05.9239490Z</when>
        <gx:coord>10.002516 53.56279 461.44598</gx:coord>
        <when>2025-01-01T00:11:10.9249490Z</when>
        <gx:coord>10.004897 53.56071 466.018</gx:coord>
        <when>2025-01-01T00:11:15.9239490Z</when>
        <gx:coord>10.006464 53.559338 466.018</gx:coord>
        <when>2025-01-01T00:11:20.9249490Z</when>
        <gx:coord>10.008823 53.55732 466.018</gx:coord>
        <when>2025-01-01T00:11:25.9249490Z</when>
        <gx:coord>10.010476 53.55599 467.542</gx:coord>
        <when>2025-01-01T00:11:30.9249490Z</when>
        <gx:coord>10.013159 53.554123 462.97</gx:coord>
        <when>2025-01-01T00:11:35.9239490Z</when>
        <gx:coord>10.015047 53.55292 462.97</gx:coord>
        <when>2025-01-01T00:11:36.1199490Z</when>
        <gx:coord>10.015047 53.55292 462.97</gx:coord>
        <when>2025-01-01T00:11:40.9239490Z</when>
        <gx:coord>10.018287 53.551376 462.97</gx:coord>
        <when>2025-01-01T00:11:45.9249490Z</when>
        <gx:coord>10.020582 53.550518 466.018</gx:coord>
        <when>2025-01-01T00:11:46.1179490Z</when>
        <gx:coord>10.020582 53.550518 466.018</gx:coord>
        <when>2025-01-01T00:11:46.1199490Z</when>
        <gx:coord>10.021763 53.55011 466.018</gx:coord>
        <when>2025-01-01T00:11:50.9239490Z</when>
        <gx:coord>10.024145 53.54938 464.494</gx:coord>
        <when>2025-01-01T00:11:55.9249490Z</when>
        <gx:coord>10.02659 53.54867 462.97</gx:coord>
        <when>2025-01-01T00:12:00.9249490Z</when>
        <gx:coord>10.030174 53.5476 462.97</gx:coord>
        <when>2025-01-01T00:12:05.9259490Z</when>
        <gx:coord>10.032557 53.54689 462.97</gx:coord>
        <when>2025-01-01T00:12:10.9249490Z</when>
        <gx:coord>10.036203 53.545925 462.97</gx:coord>
        <when>2025-01-01T00:12:15.9259490Z</when>
        <gx:coord>10.038692 53.545387 464.494</gx:coord>
        <when>2025-01-01T00:12:20.1219490Z</when>
        <gx:coord>10.0412035 53.54481 464.494</gx:coord>
        <when>2025-01-01T00:12:20.9259490Z</when>
        <gx:coord>10.042491 53.54455 462.97</gx:coord>
        <when>2025-01-01T00:12:25.9259490Z</when>
        <gx:coord>10.045044 53.544037 464.494</gx:coord>
        <when>2025-01-01T00:12:28.1279490Z</when>
        <gx:coord>10.047577 53.543457 464.494</gx:coord>
        <when>2025-01-01T00:12:30.9259490Z</when>
        <gx:coord>10.048842 53.54318 462.97</gx:coord>
        <when>2025-01-01T00:12:35.9259490Z</when>
        <gx:coord>10.05146 53.542664 461.44598</gx:coord>
        <when>2025-01-01T00:12:40.9249490Z</when>
        <gx:coord>10.055429 53.54202 461.44598</gx:coord>
        <when>2025-01-01T00:12:45.9259490Z</when>
        <gx:coord>10.058112 53.54155 461.44598</gx:coord>
        <when>2025-01-01T00:12:50.9259490Z</when>
        <gx:coord>10.062189 53.54084 456.874</gx:coord>
        <when>2025-01-01T00:12:55.9259490Z</when>
        <gx:coord>10.064893 53.540413 461.44598</gx:coord>
        <when>2025-01-01T00:13:00.9269490Z</when>
        <gx:coord>10.068927 53.539787 459.922</gx:coord>
        <when>2025-01-01T00:13:05.9269490Z</when>
        <gx:coord>10.071651 53.539402 458.398</gx:coord>
        <when>2025-01-01T00:13:10.1219490Z</when>
        <gx:coord>10.075644 53.538696 458.398</gx:coord>
        <when>2025-01-01T00:13:10.9359490Z</when>
        <gx:coord>10.075644 53.538696 459.922</gx:coord>
        <when>2025-01-01T00:13:15.9319490Z</when>
        <gx:coord>10.078239 53.538136 456.874</gx:coord>
        <when>2025-01-01T00:13:20.1099490Z</when>
        <gx:coord>10.0807495 53.53743 453.826</gx:coord>
        <when>2025-01-01T00:13:20.9269490Z</when>
        <gx:coord>10.08193 53.537 455.35</gx:coord>
        <when>2025-01-01T00:13:25.9269490Z</when>
        <gx:coord>10.084183 53.536076 464.494</gx:coord>
        <when>2025-01-01T00:13:28.1159490Z</when>
        <gx:coord>10.085235 53.53556 462.97</gx:coord>
        <when>2025-01-01T00:13:30.9279490Z</when>
        <gx:coord>10.08708 53.53438 464.494</gx:coord>
        <when>2025-01-01T00:13:34.1169490Z</when>
        <gx:coord>10.087873 53.533737 466.018</gx:coord>
        <when>2025-01-01T00:13:35.9269490Z</when>
        <gx:coord>10.088582 53.533073 467.542</gx:coord>
        <when>2025-01-01T00:13:38.1139490Z</when>
        <gx:coord>10.089161 53.532364 467.542</gx:coord>
        <when>2025-01-01T00:13:40.9279490Z</when>
        <gx:coord>10.089806 53.530884 467.542</gx:coord>
        <when>2025-01-01T00:13:42.1069490Z</when>
        <gx:coord>10.089806 53.530884 467.542</gx:coord>
        <when>2025-01-01T00:13:45.9279490Z</when>
        <gx:coord>10.0898695 53.52934 469.066</gx:coord>
        <when>2025-01-01T00:13:46.1219490Z</when>
        <gx:coord>10.0898695 53.52934 469.066</gx:coord>
        <when>2025-01-01T00:13:50.1129490Z</when>
        <gx:coord>10.089376 53.527794 470.59</gx:coord>
        <when>2025-01-01T00:13:50.9939490Z</when>
        <gx:coord>10.088925 53.527065 470.59</gx:coord>
        <when>2025-01-01T00:13:54.1149490Z</when>
        <gx:coord>10.088367 53.526337 470.59</gx:coord>
        <when>2025-01-01T00:13:55.9279490Z</when>
        <gx:coord>10.087638 53.52565 470.59</gx:coord>
        <when>2025-01-01T00:13:58.1139490Z</when>
        <gx:coord>10.086802 53.525005 470.59</gx:coord>
        <when>2025-01-01T00:14:00.9279490Z</when>
        <gx:coord>10.084784 53.523888 469.066</gx:coord>
        <when>2025-01-01T00:14:02.1139490Z</when>
        <gx:coord>10.084784 53.523888 469.066</gx:coord>
        <when>2025-01-01T00:14:05.9279490Z</when>
        <gx:coord>10.082445 53.522987 462.97</gx:coord>
        <when>2025-01-01T00:14:06.1779490Z</when>
        <gx:coord>10.082445 53.522987 462.97</gx:coord>
        <when>2025-01-01T00:14:10.9279490Z</when>
        <gx:coord>10.078454 53.52217 462.97</gx:coord>
        <when>2025-01-01T00:14:12.0939490Z</when>
        <gx:coord>10.078454 53.52217 462.97</gx:coord>
        <when>2025-01-01T00:14:12.0949490Z</when>
        <gx:coord>10.078454 53.52217 462.97</gx:coord>
        <when>2025-01-01T00:14:12.0979490Z</when>
        <gx:coord>10.076995 53.522064 462.97</gx:coord>
        <when>2025-01-01T00:14:15.9279490Z</when>
        <gx:coord>10.075514 53.522 461.44598</gx:coord>
        <when>2025-01-01T00:14:16.1229490Z</when>
        <gx:coord>10.075514 53.522 461.44598</gx:coord>
        <when>2025-01-01T00:14:20.9279490Z</when>
        <gx:coord>10.0710945 53.522366 462.97</gx:coord>
        <when>2025-01-01T00:14:22.1149490Z</when>
        <gx:coord>10.0710945 53.522366 462.97</gx:coord>
        <when>2025-01-01T00:14:25.9289490Z</when>
        <gx:coord>10.06824 53.522987 462.97</gx:coord>
        <when>2025-01-01T00:14:28.1179490Z</when>
        <gx:coord>10.066889 53.523415 462.97</gx:coord>
        <when>2025-01-01T00:14:30.9279490Z</when>
        <gx:coord>10.064228 53.524338 462.97</gx:coord>
        <when>2025-01-01T00:14:35.9279490Z</when>
        <gx:coord>10.061609 53.525326 461.44598</gx:coord>
        <when>2025-01-01T00:14:40.1179490Z</when>
        <gx:coord>10.059056 53.52642 456.874</gx:coord>
        <when>2025-01-01T00:14:40.9289490Z</when>
        <gx:coord>10.057833 53.527042 455.35</gx:coord>
        <when>2025-01-01T00:14:45.9289490Z</when>
        <gx:coord>10.055494 53.52835 455.35</gx:coord>
        <when>2025-01-01T00:14:50.1239490Z</when>
        <gx:coord>10.052104 53.530346 458.398</gx:coord>
        <when>2025-01-01T00:14:50.9279490Z</when>
        <gx:coord>10.052104 53.530346 458.398</gx:coord>
        <when>2025-01-01T00:14:55.9289490Z</when>
        <gx:coord>10.049765 53.531612 458.398</gx:coord>
        <when>2025-01-01T00:15:00.9289490Z</when>
        <gx:coord>10.045946 53.53333 459.922</gx:coord>
        <when>2025-01-01T00:15:05.9299490Z</when>
        <gx:coord>10.043371 53.534466 461.44598</gx:coord>
        <when>2025-01-01T00:15:08.1249490Z</when>
        <gx:coord>10.042105 53.53507 459.922</gx:coord>
        <when>2025-01-01T00:15:10.9299490Z</when>
        <gx:coord>10.039573 53.53627 459.922</gx:coord>
        <when>2025-01-01T00:15:15.9299490Z</when>
        <gx:coord>10.036934 53.537407 459.922</gx:coord>
        <when>2025-01-01T00:15:18.1119490Z</when>
        <gx:coord>10.035582 53.537945 458.398</gx:coord>
        <when>2025-01-01T00:15:20.9299490Z</when>
        <gx:coord>10.03277 53.53893 456.874</gx:coord>
        <when>2025-01-01T00:15:25.9299490Z</when>
        <gx:coord>10.029896 53.539833 458.398</gx:coord>
        <when>2025-01-01T00:15:26.1239490Z</when>
        <gx:coord>10.028458 53.54026 458.398</gx:coord>
        <when>2025-01-01T00:15:30.9299490Z</when>
        <gx:coord>10.025582 53.5411 459.922</gx:coord>
        <when>2025-01-01T00:15:35.9299490Z</when>
        <gx:coord>10.022707 53.54187 461.44598</gx:coord>
        <when>2025-01-01T00:15:40.9549490Z</when>
        <gx:coord>10.018394 53.543007 461.44598</gx:coord>
        <when>2025-01-01T00:15:46.1519490Z</when>
        <gx:coord>10.014081 53.54406 461.44598</gx:coord>
        <when>2025-01-01T00:15:50.9299490Z</when>
        <gx:coord>10.011249 53.54481 461.44598</gx:coord>
        <when>2025-01-01T00:15:54.1209490Z</when>
        <gx:coord>10.009811 53.545174 461.44598</gx:coord>
        <when>2025-01-01T00:15:55.9299490Z</when>
        <gx:coord>10.008373 53.545475 459.922</gx:coord>
        <when>2025-01-01T00:16:00.9309490Z</when>
        <gx:coord>10.004017 53.546227 464.494</gx:coord>
        <when>2025-01-01T00:16:04.1329490Z</when>
        <gx:coord>10.0011425 53.54676 464.494</gx:coord>
        <when>2025-01-01T00:16:05.9309490Z</when>
        <gx:coord>10.0011425 53.54676 464.494</gx:coord>
        <when>2025-01-01T00:16:11.3799490Z</when>
        <gx:coord>9.996829 53.5476 458.398</gx:coord>
        <when>2025-01-01T00:16:15.9309490Z</when>
        <gx:coord>9.993911 53.54809 458.398</gx:coord>
        <when>2025-01-01T00:16:20.9309490Z</when>
        <gx:coord>9.98947 53.548714 459.922</gx:coord>
        <when>2025-01-01T00:16:25.9309490Z</when>
        <gx:coord>9.986507 53.549057 458.398</gx:coord>
        <when>2025-01-01T00:16:26.1179490Z</when>
        <gx:coord>9.986507 53.549057 458.398</gx:coord>
        <when>2025-01-01T00:16:30.9309490Z</when>
        <gx:coord>9.982044 53.549446 458.398</gx:coord>
        <when>2025-01-01T00:16:35.9309490Z</when>
        <gx:coord>9.979062 53.549618 459.922</gx:coord>
        <when>2025-01-01T00:16:40.9309490Z</when>
        <gx:coord>9.974513 53.54981 456.874</gx:coord>
        <when>2025-01-01T00:16:42.1219490Z</when>
        <gx:coord>9.972968 53.54994 456.874</gx:coord>
        <when>2025-01-01T00:16:45.9319490Z</when>
        <gx:coord>9.971445 53.55011 456.874</gx:coord>
        <when>2025-01-01T00:16:50.9309490Z</when>
        <gx:coord>9.966852 53.550625 456.874</gx:coord>
        <when>2025-01-01T00:16:55.9319490Z</when>
        <gx:coord>9.963848 53.55084 458.398</gx:coord>
        <when>2025-01-01T00:17:00.9309490Z</when>
        <gx:coord>9.959364 53.551075 459.922</gx:coord>
        <when>2025-01-01T00:17:05.9319490Z</when>
        <gx:coord>9.956425 53.551205 459.922</gx:coord>
        <when>2025-01-01T00:17:10.9319490Z</when>
        <gx:coord>9.9519825 53.551376 462.97</gx:coord>
        <when>2025-01-01T00:17:15.9319490Z</when>
        <gx:coord>9.948957 53.551567 461.44598</gx:coord>
        <when>2025-01-01T00:17:20.1229490Z</when>
        <gx:coord>9.944323 53.551826 459.922</gx:coord>
        <when>2025-01-01T00:17:20.9319490Z</when>
        <gx:coord>9.944323 53.551826 459.922</gx:coord>
        <when>2025-01-01T00:17:25.9329490Z</when>
        <gx:coord>9.941211 53.552 459.922</gx:coord>
        <when>2025-01-01T00:17:30.9329490Z</when>
        <gx:coord>9.936619 53.552277 461.44598</gx:coord>
        <when>2025-01-01T00:17:35.9329490Z</when>
        <gx:coord>9.933572 53.55247 461.44598</gx:coord>
        <when>2025-01-01T00:17:40.9329490Z</when>
        <gx:coord>9.929023 53.552685 461.44598</gx:coord>
        <when>2025-01-01T00:17:45.9329490Z</when>
        <gx:coord>9.925976 53.552814 462.97</gx:coord>
        <when>2025-01-01T00:17:50.9329490Z</when>
        <gx:coord>9.921448 53.55303 461.44598</gx:coord>
        <when>2025-01-01T00:17:55.9329490Z</when>
        <gx:coord>9.918423 53.553158 461.44598</gx:coord>
        <when>2025-01-01T00:17:58.1249490Z</when>
        <gx:coord>9.915398 53.553284 461.44598</gx:coord>
        <when>2025-01-01T00:18:00.9329490Z</when>
        <gx:coord>9.913874 53.55333 458.398</gx:coord>
        <when>2025-01-01T00:18:05.9329490Z</when>
        <gx:coord>9.91087 53.553394 458.398</gx:coord>
        <when>2025-01-01T00:18:10.9329490Z</when>
        <gx:coord>9.906385 53.55352 458.398</gx:coord>
        <when>2025-01-01T00:18:15.9339490Z</when>
        <gx:coord>9.903402 53.553627 458.398</gx:coord>
        <when>2025-01-01T00:18:20.9329490Z</when>
        <gx:coord>9.898874 53.55378 458.398</gx:coord>
        <when>2025-01-01T00:18:25.9339490Z</when>
        <gx:coord>9.895828 53.553844 459.922</gx:coord>
        <when>2025-01-01T00:18:30.9339490Z</when>
        <gx:coord>9.891279 53.553993 458.398</gx:coord>
        <when>2025-01-01T00:18:35.9339490Z</when>
        <gx:coord>9.888231 53.554035 459.922</gx:coord>
        <when>2025-01-01T00:18:36.1189490Z</when>
        <gx:coord>9.886686 53.554058 459.922</gx:coord>
        <when>2025-01-01T00:18:40.9339490Z</when>
        <gx:coord>9.883618 53.5541 458.398</gx:coord>
        <when>2025-01-01T00:18:45.9339490Z</when>
        <gx:coord>9.88055 53.55408 459.922</gx:coord>
        <when>2025-01-01T00:18:48.1179490Z</when>
        <gx:coord>9.879026 53.554058 459.922</gx:coord>
        <when>2025-01-01T00:18:50.9339490Z</when>
        <gx:coord>9.875979 53.55395 458.398</gx:coord>
        <when>2025-01-01T00:18:55.9339490Z</when>
        <gx:coord>9.872953 53.553757 459.922</gx:coord>
        <when>2025-01-01T00:19:00.9339490Z</when>
        <gx:coord>9.868512 53.553307 458.398</gx:coord>
        <when>2025-01-01T00:19:05.9349490Z</when>
        <gx:coord>9.865551 53.552963 459.922</gx:coord>
        <when>2025-01-01T00:19:10.9349490Z</when>
        <gx:coord>9.861174 53.552383 459.922</gx:coord>
        <when>2025-01-01T00:19:14.1169490Z</when>
        <gx:coord>9.8597355 53.552193 459.922</gx:coord>
        <when>2025-01-01T00:19:14.1209490Z</when>
        <gx:coord>9.858298 53.551956 459.922</gx:coord>
        <when>2025-01-01T00:19:15.9349490Z</when>
        <gx:coord>9.858298 53.551956 458.398</gx:coord>
        <when>2025-01-01T00:19:16.1189490Z</when>
        <gx:coord>9.858298 53.551956 458.398</gx:coord>
        <when>2025-01-01T00:19:20.9339490Z</when>
        <gx:coord>9.854115 53.55118 458.398</gx:coord>
        <when>2025-01-01T00:19:25.9349490Z</when>
        <gx:coord>9.851389 53.55056 458.398</gx:coord>
        <when>2025-01-01T00:19:30.9359490Z</when>
        <gx:coord>9.847248 53.54966 458.398</gx:coord>
        <when>2025-01-01T00:19:35.9359490Z</when>
        <gx:coord>9.84448 53.54912 459.922</gx:coord>
        <when>2025-01-01T00:19:40.0999490Z</when>
        <gx:coord>9.841841 53.5485 459.922</gx:coord>
        <when>2025-01-01T00:19:40.9359490Z</when>
        <gx:coord>9.840595 53.54809 459.922</gx:coord>
        <when>2025-01-01T00:19:44.1059490Z</when>
        <gx:coord>9.839458 53.547623 459.922</gx:coord>
        <when>2025-01-01T00:19:45.9359490Z</when>
        <gx:coord>9.8384495 53.547085 461.44598</gx:coord>
        <when>2025-01-01T00:19:50.0959490Z</when>
        <gx:coord>9.836755 53.54584 467.542</gx:coord>
        <when>2025-01-01T00:19:50.0959490Z</when>
        <gx:coord>9.836755 53.54584 467.542</gx:coord>
        <when>2025-01-01T00:19:50.9359490Z</when>
        <gx:coord>9.836025 53.545174 472.11404</gx:coord>
        <when>2025-01-01T00:19:54.1119490Z</when>
        <gx:coord>9.835403 53.544487 470.59</gx:coord>
        <when>2025-01-01T00:19:55.9359490Z</when>
        <gx:coord>9.834952 53.54376 467.542</gx:coord>
        <when>2025-01-01T00:19:56.1189490Z</when>
        <gx:coord>9.834545 53.542984 467.542</gx:coord>
        <when>2025-01-01T00:20:00.9359490Z</when>
        <gx:coord>9.833944 53.541443 469.066</gx:coord>
        <when>2025-01-01T00:20:02.1129490Z</when>
        <gx:coord>9.833944 53.541443 469.066</gx:coord>
        <when>2025-01-01T00:20:05.9369490Z</when>
        <gx:coord>9.833922 53.539875 464.494</gx:coord>
        <when>2025-01-01T00:20:06.1129490Z</when>
        <gx:coord>9.833922 53.539875 464.494</gx:coord>
        <when>2025-01-01T00:20:10.0939490Z</when>
        <gx:coord>9.834523 53.538353 467.542</gx:coord>
        <when>2025-01-01T00:20:10.9359490Z</when>
        <gx:coord>9.834995 53.537643 466.018</gx:coord>
        <when>2025-01-01T00:20:14.0979490Z</when>
        <gx:coord>9.835617 53.536957 467.542</gx:coord>
        <when>2025-01-01T00:20:15.9369490Z</when>
        <gx:coord>9.836326 53.536335 469.066</gx:coord>
        <when>2025-01-01T00:20:18.1169490Z</when>
        <gx:coord>9.83712 53.535774 472.11404</gx:coord>
        <when>2025-01-01T00:20:20.9369490Z</when>
        <gx:coord>9.83905 53.534832 470.59</gx:coord>
        <when>2025-01-01T00:20:22.1179490Z</when>
        <gx:coord>9.83905 53.534832 470.59</gx:coord>
        <when>2025-01-01T00:20:25.9369490Z</when>
        <gx:coord>9.841326 53.53417 469.066</gx:coord>
        <when>2025-01-01T00:20:26.1149490Z</when>
        <gx:coord>9.841326 53.53417 469.066</gx:coord>
        <when>2025-01-01T00:20:30.1039490Z</when>
        <gx:coord>9.843793 53.533844 472.11404</gx:coord>
        <when>2025-01-01T00:20:30.9369490Z</when>
        <gx:coord>9.84508 53.53378 472.11404</gx:coord>
        <when>2025-01-01T00:20:34.0969490Z</when>
        <gx:coord>9.846368 53.533825 470.59</gx:coord>
        <when>2025-01-01T00:20:35.9369490Z</when>
        <gx:coord>9.847677 53.53391 470.59</gx:coord>
        <when>2025-01-01T00:20:40.9369490Z</when>
        <gx:coord>9.85154 53.53451 470.59</gx:coord>
        <when>2025-01-01T00:20:44.1179490Z</when>
        <gx:coord>9.852827 53.534767 467.542</gx:coord>
        <when>2025-01-01T00:20:45.9369490Z</when>
        <gx:coord>9.8541565 53.535046 462.97</gx:coord>
        <when>2025-01-01T00:20:50.9369490Z</when>
        <gx:coord>9.858362 53.535713 455.35</gx:coord>
        <when>2025-01-01T00:20:52.1109490Z</when>
        <gx:coord>9.858362 53.535713 455.35</gx:coord>
        <when>2025-01-01T00:20:54.1219490Z</when>
        <gx:coord>9.861195 53.53597 453.826</gx:coord>
        <when>2025-01-01T00:20:55.9379490Z</when>
        <gx:coord>9.861195 53.53597 456.874</gx:coord>
        <when>2025-01-01T00:21:00.9379490Z</when>
        <gx:coord>9.8652935 53.536377 461.44598</gx:coord>
        <when>2025-01-01T00:21:05.9369490Z</when>
        <gx:coord>9.868019 53.53655 464.494</gx:coord>
        <when>2025-01-01T00:21:10.9379490Z</when>
        <gx:coord>9.872203 53.536762 458.398</gx:coord>
        <when>2025-01-01T00:21:15.9379490Z</when>
        <gx:coord>9.874971 53.536934 458.398</gx:coord>
        <when>2025-01-01T00:21:20.9379490Z</when>
        <gx:coord>9.879026 53.53726 459.922</gx:coord>
        <when>2025-01-01T00:21:25.9389490Z</when>
        <gx:coord>9.881666 53.53749 459.922</gx:coord>
        <when>2025-01-01T00:21:30.9389490Z</when>
        <gx:coord>9.885614 53.537815 458.398</gx:coord>
        <when>2025-01-01T00:21:35.9389490Z</when>
        <gx:coord>9.888189 53.53803 459.922</gx:coord>
        <when>2025-01-01T00:21:36.1179490Z</when>
        <gx:coord>9.889455 53.538136 459.922</gx:coord>
        <when>2025-01-01T00:21:40.9389490Z</when>
        <gx:coord>9.891966 53.538353 459.922</gx:coord>
        <when>2025-01-01T00:21:45.9389490Z</when>
        <gx:coord>9.894455 53.5385 461.44598</gx:coord>
        <when>2025-01-01T00:21:50.9389490Z</when>
        <gx:coord>9.8982315 53.538715 459.922</gx:coord>
        <when>2025-01-01T00:21:55.9399490Z</when>
        <gx:coord>9.900742 53.538864 459.922</gx:coord>
        <when>2025-01-01T00:22:00.9399490Z</when>
        <gx:coord>9.904497 53.53904 459.922</gx:coord>
        <when>2025-01-01T00:22:05.9399490Z</when>
        <gx:coord>9.907007 53.539146 461.44598</gx:coord>
        <when>2025-01-01T00:22:10.9399490Z</when>
        <gx:coord>9.910763 53.539207 459.922</gx:coord>
        <when>2025-01-01T00:22:15.9399490Z</when>
        <gx:coord>9.913294 53.539207 458.398</gx:coord>
        <when>2025-01-01T00:22:20.9399490Z</when>
        <gx:coord>9.917114 53.539146 466.018</gx:coord>
        <when>2025-01-01T00:22:22.1189490Z</when>
        <gx:coord>9.91838 53.539146 466.018</gx:coord>
        <when>2025-01-01T00:22:25.9399490Z</when>
        <gx:coord>9.919667 53.539146 466.018</gx:coord>
        <when>2025-01-01T00:22:30.9409490Z</when>
        <gx:coord>9.923422 53.539146 467.542</gx:coord>
        <when>2025-01-01T00:22:35.9409490Z</when>
        <gx:coord>9.925933 53.539146 467.542</gx:coord>
        <when>2025-01-01T00:22:40.1219490Z</when>
        <gx:coord>9.928486 53.5391 467.542</gx:coord>
        <when>2025-01-01T00:22:40.9409490Z</when>
        <gx:coord>9.929752 53.53908 466.018</gx:coord>
        <when>2025-01-01T00:22:45.9409490Z</when>
        <gx:coord>9.932306 53.53904 466.018</gx:coord>
        <when>2025-01-01T00:22:50.9409490Z</when>
        <gx:coord>9.936169 53.53906 466.018</gx:coord>
        <when>2025-01-01T00:22:55.9409490Z</when>
        <gx:coord>9.938744 53.538994 466.018</gx:coord>
        <when>2025-01-01T00:23:00.9409490Z</when>
        <gx:coord>9.942648 53.53904 466.018</gx:coord>
        <when>2025-01-01T00:23:05.9409490Z</when>
        <gx:coord>9.945245 53.53908 466.018</gx:coord>
        <when>2025-01-01T00:23:06.1269490Z</when>
        <gx:coord>9.946554 53.53908 466.018</gx:coord>
        <when>2025-01-01T00:23:10.9419490Z</when>
        <gx:coord>9.949129 53.539017 464.494</gx:coord>
        <when>2025-01-01T00:23:15.9419490Z</when>
        <gx:coord>9.951725 53.53893 464.494</gx:coord>
        <when>2025-01-01T00:23:20.9409490Z</when>
        <gx:coord>9.95563 53.538845 466.018</gx:coord>
        <when>2025-01-01T00:23:25.9409490Z</when>
        <gx:coord>9.958269 53.538803 466.018</gx:coord>
        <when>2025-01-01T00:23:30.9419490Z</when>
        <gx:coord>9.962261 53.538696 464.494</gx:coord>
        <when>2025-01-01T00:23:35.9419490Z</when>
        <gx:coord>9.964964 53.538586 462.97</gx:coord>
        <when>2025-01-01T00:23:40.9589490Z</when>
        <gx:coord>9.968977 53.538353 462.97</gx:coord>
        <when>2025-01-01T00:23:45.9419490Z</when>
        <gx:coord>9.971617 53.538094 462.97</gx:coord>
        <when>2025-01-01T00:23:48.1239490Z</when>
        <gx:coord>9.972925 53.53792 459.922</gx:coord>
        <when>2025-01-01T00:23:50.1169490Z</when>
        <gx:coord>9.975479 53.537537 461.44598</gx:coord>
        <when>2025-01-01T00:23:50.9439490Z</when>
        <gx:coord>9.975479 53.537537 461.44598</gx:coord>
        <when>2025-01-01T00:23:55.9419490Z</when>
        <gx:coord>9.97801 53.537148 461.44598</gx:coord>
        <when>2025-01-01T00:24:00.9429490Z</when>
        <gx:coord>9.981873 53.536613 462.97</gx:coord>
        <when>2025-01-01T00:24:05.9429490Z</when>
        <gx:coord>9.984512 53.53623 461.44598</gx:coord>
        <when>2025-01-01T00:24:10.9429490Z</when>
        <gx:coord>9.988375 53.53554 462.97</gx:coord>
        <when>2025-01-01T00:24:15.9429490Z</when>
        <gx:coord>9.990929 53.535088 461.44598</gx:coord>
        <when>2025-01-01T00:24:20.9429490Z</when>
        <gx:coord>9.994812 53.534424 459.922</gx:coord>
        <when>2025-01-01T00:24:25.9429490Z</when>
        <gx:coord>9.997452 53.534058 459.922</gx:coord>
        <when>2025-01-01T00:24:30.9429490Z</when>
        <gx:coord>10.001442 53.53359 466.018</gx:coord>
        <when>2025-01-01T00:24:32.1229490Z</when>
        <gx:coord>10.002794 53.533417 466.018</gx:coord>
        <when>2025-01-01T00:24:35.9429490Z</when>
        <gx:coord>10.004168 53.533264 464.494</gx:coord>
        <when>2025-01-01T00:24:40.1179490Z</when>
        <gx:coord>10.006957 53.533073 464.494</gx:coord>
        <when>2025-01-01T00:24:40.9439490Z</when>
        <gx:coord>10.008352 53.53301 464.494</gx:coord>
        <when>2025-01-01T00:24:45.9439490Z</when>
        <gx:coord>10.01112 53.5329 467.542</gx:coord>
        <when>2025-01-01T00:24:50.9439490Z</when>
        <gx:coord>10.015219 53.532665 467.542</gx:coord>
        <when>2025-01-01T00:24:55.9439490Z</when>
        <gx:coord>10.017943 53.532494 466.018</gx:coord>
        <when>2025-01-01T00:25:00.9439490Z</when>
        <gx:coord>10.022127 53.532516 464.494</gx:coord>
        <when>2025-01-01T00:25:02.1179490Z</when>
        <gx:coord>10.022127 53.532516 464.494</gx:coord>
        <when>2025-01-01T00:25:05.9439490Z</when>
        <gx:coord>10.024939 53.532837 464.494</gx:coord>
        <when>2025-01-01T00:25:08.1049490Z</when>
        <gx:coord>10.026312 53.533073 464.494</gx:coord>
        <when>2025-01-01T00:25:10.9439490Z</when>
        <gx:coord>10.028994 53.533737 467.542</gx:coord>
        <when>2025-01-01T00:25:14.1239490Z</when>
        <gx:coord>10.031654 53.53434 469.066</gx:coord>
        <when>2025-01-01T00:25:15.9449490Z</when>
        <gx:coord>10.031654 53.53434 467.542</gx:coord>
        <when>2025-01-01T00:25:20.1049490Z</when>
        <gx:coord>10.034337 53.53498 462.97</gx:coord>
        <when>2025-01-01T00:25:20.9449490Z</when>
        <gx:coord>10.035688 53.535305 461.44598</gx:coord>
        <when>2025-01-01T00:25:25.9439490Z</when>
        <gx:coord>10.038393 53.53597 461.44598</gx:coord>
        <when>2025-01-01T00:25:30.9449490Z</when>
        <gx:coord>10.042448 53.536957 461.44598</gx:coord>
        <when>2025-01-01T00:25:35.9449490Z</when>
        <gx:coord>10.04513 53.53762 459.922</gx:coord>
        <when>2025-01-01T00:25:40.9449490Z</when>
        <gx:coord>10.0491 53.53863 459.922</gx:coord>
        <when>2025-01-01T00:25:45.9449490Z</when>
        <gx:coord>10.051739 53.53923 459.922</gx:coord>
        <when>2025-01-01T00:25:50.9449490Z</when>
        <gx:coord>10.055817 53.54011 458.398</gx:coord>
        <when>2025-01-01T00:25:54.1129490Z</when>
        <gx:coord>10.058519 53.54069 458.398</gx:coord>
        <when>2025-01-01T00:25:55.9449490Z</when>
        <gx:coord>10.058519 53.54069 458.398</gx:coord>
        <when>2025-01-01T00:26:00.9449490Z</when>
        <gx:coord>10.062511 53.541504 461.44598</gx:coord>
        <when>2025-01-01T00:26:05.9449490Z</when>
        <gx:coord>10.065128 53.54217 461.44598</gx:coord>
        <when>2025-01-01T00:26:06.1219490Z</when>
        <gx:coord>10.065128 53.54217 461.44598</gx:coord>
        <when>2025-01-01T00:26:10.1169490Z</when>
        <gx:coord>10.067468 53.54318 459.922</gx:coord>
        <when>2025-01-01T00:26:10.9449490Z</when>
        <gx:coord>10.068455 53.543823 462.97</gx:coord>
        <when>2025-01-01T00:26:15.9459490Z</when>
        <gx:coord>10.070043 53.54524 469.066</gx:coord>
        <when>2025-01-01T00:26:16.1219490Z</when>
        <gx:coord>10.070043 53.54524 469.066</gx:coord>
        <when>2025-01-01T00:26:20.1209490Z</when>
        <gx:coord>10.071222 53.54676 467.542</gx:coord>
        <when>2025-01-01T00:26:20.9459490Z</when>
        <gx:coord>10.0716095 53.5476 466.018</gx:coord>
        <when>2025-01-01T00:26:24.1279490Z</when>
        <gx:coord>10.071823 53.54846 467.542</gx:coord>
        <when>2025-01-01T00:26:25.9449490Z</when>
        <gx:coord>10.071867 53.54934 470.59</gx:coord>
        <when>2025-01-01T00:26:26.1209490Z</when>
        <gx:coord>10.071867 53.54934 470.59</gx:coord>
        <when>2025-01-01T00:26:30.9459490Z</when>
        <gx:coord>10.071266 53.552 472.11404</gx:coord>
        <when>2025-01-01T00:26:32.1129490Z</when>
        <gx:coord>10.071266 53.552 472.11404</gx:coord>
        <when>2025-01-01T00:26:35.9459490Z</when>
        <gx:coord>10.070257 53.553738 470.59</gx:coord>
        <when>2025-01-01T00:26:36.1199490Z</when>
        <gx:coord>10.070257 53.553738 470.59</gx:coord>
        <when>2025-01-01T00:26:40.1259490Z</when>
        <gx:coord>10.068605 53.555344 470.59</gx:coord>
        <when>2025-01-01T00:26:40.9459490Z</when>
        <gx:coord>10.067596 53.556076 470.59</gx:coord>
        <when>2025-01-01T00:26:42.1009490Z</when>
        <gx:coord>10.066502 53.556763 470.59</gx:coord>
        <when>2025-01-01T00:26:45.9459490Z</when>
        <gx:coord>10.065279 53.55736 469.066</gx:coord>
        <when>2025-01-01T00:26:46.1199490Z</when>
        <gx:coord>10.065279 53.55736 469.066</gx:coord>
        <when>2025-01-01T00:26:50.1289490Z</when>
        <gx:coord>10.062639 53.55839 467.542</gx:coord>
        <when>2025-01-01T00:26:50.9459490Z</when>
        <gx:coord>10.06118 53.558758 466.018</gx:coord>
        <when>2025-01-01T00:26:54.1219490Z</when>
        <gx:coord>10.059657 53.558994 462.97</gx:coord>
        <when>2025-01-01T00:26:55.9459490Z</when>
        <gx:coord>10.058069 53.55912 461.44598</gx:coord>
        <when>2025-01-01T00:27:00.1179490Z</when>
        <gx:coord>10.0548725 53.55906 452.302</gx:coord>
        <when>2025-01-01T00:27:00.1179490Z</when>
        <gx:coord>10.0548725 53.55906 452.302</gx:coord>
        <when>2025-01-01T00:27:00.1179490Z</when>
        <gx:coord>10.053263 53.55897 449.254</gx:coord>
        <when>2025-01-01T00:27:00.9469490Z</when>
        <gx:coord>10.053263 53.55897 449.254</gx:coord>
        <when>2025-01-01T00:27:05.9469490Z</when>
        <gx:coord>10.050108 53.558628 444.682</gx:coord>
        <when>2025-01-01T00:27:10.9469490Z</when>
        <gx:coord>10.045345 53.558113 443.158</gx:coord>
        <when>2025-01-01T00:27:14.1189490Z</when>
        <gx:coord>10.0437355 53.558155 447.73</gx:coord>
        <when>2025-01-01T00:27:15.9469490Z</when>
        <gx:coord>10.04217 53.558327 450.77798</gx:coord>
        <when>2025-01-01T00:27:18.1189490Z</when>
        <gx:coord>10.040667 53.55861 452.302</gx:coord>
        <when>2025-01-01T00:27:20.1209490Z</when>
        <gx:coord>10.037856 53.559486 455.35</gx:coord>
        <when>2025-01-01T00:27:20.9469490Z</when>
        <gx:coord>10.037856 53.559486 455.35</gx:coord>
        <when>2025-01-01T00:27:22.1199490Z</when>
        <gx:coord>10.037856 53.559486 455.35</gx:coord>
        <when>2025-01-01T00:27:25.9469490Z</when>
        <gx:coord>10.035389 53.56073 447.73</gx:coord>
        <when>2025-01-01T00:27:28.1259490Z</when>
        <gx:coord>10.034251 53.561417 443.158</gx:coord>
        <when>2025-01-01T00:27:30.9469490Z</when>
        <gx:coord>10.032169 53.562943 432.49</gx:coord>
        <when>2025-01-01T00:27:35.9469490Z</when>
        <gx:coord>10.030131 53.56453 432.49</gx:coord>
        <when>2025-01-01T00:27:40.9469490Z</when>
        <gx:coord>10.027299 53.566933 440.11</gx:coord>
        <when>2025-01-01T00:27:45.9459490Z</when>
        <gx:coord>10.025518 53.568542 443.158</gx:coord>
        <when>2025-01-01T00:27:50.9469490Z</when>
        <gx:coord>10.0229645 53.57097 449.254</gx:coord>
        <when>2025-01-01T00:27:55.9469490Z</when>
        <gx:coord>10.021291 53.572598 449.254</gx:coord>
        <when>2025-01-01T00:27:56.1209490Z</when>
        <gx:coord>10.020454 53.573414 449.254</gx:coord>
        <when>2025-01-01T00:28:00.9469490Z</when>
        <gx:coord>10.018845 53.575 455.35</gx:coord>
        <when>2025-01-01T00:28:05.9469490Z</when>
        <gx:coord>10.0173 53.57657 461.44598</gx:coord>
        <when>2025-01-01T00:28:10.1239490Z</when>
        <gx:coord>10.015648 53.578026 462.97</gx:coord>
        <when>2025-01-01T00:28:10.9469490Z</when>
        <gx:coord>10.014639 53.578648 462.97</gx:coord>
        <when>2025-01-01T00:28:12.1239490Z</when>
        <gx:coord>10.014639 53.578648 462.97</gx:coord>
        <when>2025-01-01T00:28:15.9479490Z</when>
        <gx:coord>10.012342 53.5797 459.922</gx:coord>
        <when>2025-01-01T00:28:18.1249490Z</when>
        <gx:coord>10.011077 53.58011 455.35</gx:coord>
        <when>2025-01-01T00:28:20.9469490Z</when>
        <gx:coord>10.008352 53.580708 453.826</gx:coord>
        <when>2025-01-01T00:28:22.1249490Z</when>
        <gx:coord>10.008352 53.580708 453.826</gx:coord>
        <when>2025-01-01T00:28:25.9469490Z</when>
        <gx:coord>10.005541 53.58101 452.302</gx:coord>
        <when>2025-01-01T00:28:30.9479490Z</when>
        <gx:coord>10.001228 53.581203 444.682</gx:coord>
        <when>2025-01-01T00:28:35.9479490Z</when>
        <gx:coord>9.998266 53.581287 450.77798</gx:coord>
        <when>2025-01-01T00:28:38.1209490Z</when>
        <gx:coord>9.995306 53.58133 449.254</gx:coord>
        <when>2025-01-01T00:28:40.9479490Z</when>
        <gx:coord>9.993803 53.58133 447.73</gx:coord>
        <when>2025-01-01T00:28:45.9479490Z</when>
        <gx:coord>9.990821 53.581375 447.73</gx:coord>
        <when>2025-01-01T00:28:48.1169490Z</when>
        <gx:coord>9.98934 53.581394 449.254</gx:coord>
        <when>2025-01-01T00:28:50.9479490Z</when>
        <gx:coord>9.9864435 53.581394 456.874</gx:coord>
        <when>2025-01-01T00:28:55.9479490Z</when>
        <gx:coord>9.983611 53.581352 461.44598</gx:coord>
        <when>2025-01-01T00:29:00.9479490Z</when>
        <gx:coord>9.979383 53.581223 462.97</gx:coord>
        <when>2025-01-01T00:29:05.9489490Z</when>
        <gx:coord>9.976573 53.58105 466.018</gx:coord>
        <when>2025-01-01T00:29:10.1179490Z</when>
        <gx:coord>9.973804 53.580814 472.11404</gx:coord>
        <when>2025-01-01T00:29:10.9489490Z</when>
        <gx:coord>9.97241 53.580666 472.11404</gx:coord>
        <when>2025-01-01T00:29:15.9489490Z</when>
        <gx:coord>9.969599 53.580322 462.97</gx:coord>
        <when>2025-01-01T00:29:18.1239490Z</when>
        <gx:coord>9.966745 53.579914 461.44598</gx:coord>
        <when>2025-01-01T00:29:20.9489490Z</when>
        <gx:coord>9.965329 53.5797 464.494</gx:coord>
        <when>2025-01-01T00:29:24.1149490Z</when>
        <gx:coord>9.963978 53.579464 467.542</gx:coord>
        <when>2025-01-01T00:29:25.9489490Z</when>
        <gx:coord>9.96269 53.579163 470.59</gx:coord>
        <when>2025-01-01T00:29:28.1139490Z</when>
        <gx:coord>9.96151 53.57882 473.638</gx:coord>
        <when>2025-01-01T00:29:28.1149490Z</when>
        <gx:coord>9.96151 53.57882 473.638</gx:coord>
        <when>2025-01-01T00:29:30.9479490Z</when>
        <gx:coord>9.959385 53.57796 476.686</gx:coord>
        <when>2025-01-01T00:29:32.1229490Z</when>
        <gx:coord>9.959385 53.57796 476.686</gx:coord>
        <when>2025-01-01T00:29:35.9489490Z</when>
        <gx:coord>9.957712 53.57689 473.638</gx:coord>
        <when>2025-01-01T00:29:36.1249490Z</when>
        <gx:coord>9.957712 53.57689 473.638</gx:coord>
        <when>2025-01-01T00:29:40.1179490Z</when>
        <gx:coord>9.956596 53.575623 473.638</gx:coord>
        <when>2025-01-01T00:29:40.9489490Z</when>
        <gx:coord>9.956253 53.574936 475.162</gx:coord>
        <when>2025-01-01T00:29:45.9489490Z</when>
        <gx:coord>9.955888 53.573586 473.638</gx:coord>
        <when>2025-01-01T00:29:46.1199490Z</when>
        <gx:coord>9.955888 53.573586 473.638</gx:coord>
        <when>2025-01-01T00:29:50.1199490Z</when>
        <gx:coord>9.956017 53.572212 478.20996</gx:coord>
        <when>2025-01-01T00:29:50.9489490Z</when>
        <gx:coord>9.956317 53.571526 478.20996</gx:coord>
        <when>2025-01-01T00:29:52.1189490Z</when>
        <gx:coord>9.956317 53.571526 478.20996</gx:coord>
        <when>2025-01-01T00:29:54.1029490Z</when>
        <gx:coord>9.957519 53.5703 479.73404</gx:coord>
        <when>2025-01-01T00:29:55.9559490Z</when>
        <gx:coord>9.957519 53.5703 479.73404</gx:coord>
        <when>2025-01-01T00:29:56.1159490Z</when>
        <gx:coord>9.957519 53.5703 479.73404</gx:coord>
        <when>2025-01-01T00:30:00.1259490Z</when>
        <gx:coord>9.959385 53.5694 482.782</gx:coord>
        <when>2025-01-01T00:30:00.9489490Z</when>
        <gx:coord>9.960501 53.569077 479.73404</gx:coord>
        <when>2025-01-01T00:30:04.1249490Z</when>
        <gx:coord>9.961746 53.568863 475.162</gx:coord>
        <when>2025-01-01T00:30:06.3529490Z</when>
        <gx:coord>9.963076 53.568733 469.066</gx:coord>
        <when>2025-01-01T00:30:06.4589490Z</when>
        <gx:coord>9.964471 53.56869 466.018</gx:coord>
        <when>2025-01-01T00:30:08.1209490Z</when>
        <gx:coord>9.964471 53.56869 466.018</gx:coord>
        <when>2025-01-01T00:30:10.1239490Z</when>
        <gx:coord>9.965908 53.568733 461.44598</gx:coord>
        <when>2025-01-01T00:30:10.9489490Z</when>
        <gx:coord>9.967346 53.568863 458.398</gx:coord>
        <when>2025-01-01T00:30:14.1159490Z</when>
        <gx:coord>9.968784 53.569057 455.35</gx:coord>
        <when>2025-01-01T00:30:15.9499490Z</when>
        <gx:coord>9.9702 53.569313 453.826</gx:coord>
        <when>2025-01-01T00:30:20.1199490Z</when>
        <gx:coord>9.972968 53.56998 455.35</gx:coord>
        <when>2025-01-01T00:30:20.9499490Z</when>
        <gx:coord>9.974234 53.570473 459.922</gx:coord>
        <when>2025-01-01T00:30:24.1239490Z</when>
        <gx:coord>9.975286 53.571095 469.066</gx:coord>
        <when>2025-01-01T00:30:25.9499490Z</when>
        <gx:coord>9.976144 53.571804 476.686</gx:coord>
        <when>2025-01-01T00:30:26.1189490Z</when>
        <gx:coord>9.976144 53.571804 476.686</gx:coord>
        <when>2025-01-01T00:30:30.0969490Z</when>
        <gx:coord>9.977131 53.573433 482.782</gx:coord>
        <when>2025-01-01T00:30:30.9489490Z</when>
        <gx:coord>9.977282 53.574337 484.30597</gx:coord>
        <when>2025-01-01T00:30:32.1209490Z</when>
        <gx:coord>9.977282 53.574337 484.30597</gx:coord>
        <when>2025-01-01T00:30:35.9689490Z</when>
        <gx:coord>9.976809 53.576138 482.782</gx:coord>
        <when>2025-01-01T00:30:36.1169490Z</when>
        <gx:coord>9.976809 53.576138 482.782</gx:coord>
        <when>2025-01-01T00:30:40.1139490Z</when>
        <gx:coord>9.975457 53.577835 473.638</gx:coord>
        <when>2025-01-01T00:30:40.9499490Z</when>
        <gx:coord>9.974513 53.578606 467.542</gx:coord>
        <when>2025-01-01T00:30:42.1229490Z</when>
        <gx:coord>9.974513 53.578606 467.542</gx:coord>
        <when>2025-01-01T00:30:45.9659490Z</when>
        <gx:coord>9.972345 53.580086 456.874</gx:coord>
        <when>2025-01-01T00:30:50.9499490Z</when>
        <gx:coord>9.96902 53.58206 461.44598</gx:coord>
        <when>2025-01-01T00:30:54.1209490Z</when>
        <gx:coord>9.967926 53.58266 458.398</gx:coord>
        <when>2025-01-01T00:30:55.9719490Z</when>
        <gx:coord>9.966874 53.583282 455.35</gx:coord>
        <when>2025-01-01T00:30:58.1209490Z</when>
        <gx:coord>9.964792 53.584484 449.254</gx:coord>
        <when>2025-01-01T00:31:00.9499490Z</when>
        <gx:coord>9.963762 53.585087 444.682</gx:coord>
        <when>2025-01-01T00:31:05.9749490Z</when>
        <gx:coord>9.961681 53.586266 435.538</gx:coord>
        <when>2025-01-01T00:31:10.9509490Z</when>
        <gx:coord>9.958656 53.588047 426.394</gx:coord>
        <when>2025-01-01T00:31:14.1229490Z</when>
        <gx:coord>9.956703 53.589226 418.774</gx:coord>
        <when>2025-01-01T00:31:15.9739490Z</when>
        <gx:coord>9.956703 53.589226 418.774</gx:coord>
        <when>2025-01-01T00:31:20.9509490Z</when>
        <gx:coord>9.95372 53.590965 403.534</gx:coord>
        <when>2025-01-01T00:31:25.9789490Z</when>
        <gx:coord>9.951682 53.592144 392.866</gx:coord>
        <when>2025-01-01T00:31:28.1259490Z</when>
        <gx:coord>9.949794 53.59341 389.818</gx:coord>
        <when>2025-01-01T00:31:28.1259490Z</when>
        <gx:coord>9.949794 53.59341 385.246</gx:coord>
        <when>2025-01-01T00:31:30.9509490Z</when>
        <gx:coord>9.948893 53.594055 379.15</gx:coord>
        <when>2025-01-01T00:31:35.9779490Z</when>
        <gx:coord>9.947219 53.595364 363.91</gx:coord>
        <when>2025-01-01T00:31:36.1219490Z</when>
        <gx:coord>9.9464245 53.59603 354.766</gx:coord>
        <when>2025-01-01T00:31:40.9499490Z</when>
        <gx:coord>9.944987 53.597404 339.52597</gx:coord>
        <when>2025-01-01T00:31:42.1199490Z</when>
        <gx:coord>9.944987 53.597404 339.52597</gx:coord>
        <when>2025-01-01T00:31:44.1169490Z</when>
        <gx:coord>9.9438715 53.59884 322.762</gx:coord>
        <when>2025-01-01T00:31:45.9749490Z</when>
        <gx:coord>9.9438715 53.59884 322.762</gx:coord>
        <when>2025-01-01T00:31:50.1229490Z</when>
        <gx:coord>9.943013 53.60032 304.47403</gx:coord>
        <when>2025-01-01T00:31:50.1239490Z</when>
        <gx:coord>9.943013 53.60032 304.47403</gx:coord>
        <when>2025-01-01T00:31:50.9509490Z</when>
        <gx:coord>9.942734 53.601093 293.806</gx:coord>
        <when>2025-01-01T00:31:52.1209490Z</when>
        <gx:coord>9.942541 53.601868 286.18597</gx:coord>
        <when>2025-01-01T00:31:55.9669490Z</when>
        <gx:coord>9.942455 53.60264 278.56598</gx:coord>
        <when>2025-01-01T00:31:56.1419490Z</when>
        <gx:coord>9.942455 53.60264 278.56598</gx:coord>
        <when>2025-01-01T00:32:00.1229490Z</when>
        <gx:coord>9.942648 53.604935 251.13397</gx:coord>
        <when>2025-01-01T00:32:00.9519490Z</when>
        <gx:coord>9.942648 53.604935 251.13397</gx:coord>
        <when>2025-01-01T00:32:02.1229490Z</when>
        <gx:coord>9.942648 53.604935 251.13397</gx:coord>
        <when>2025-01-01T00:32:05.9639490Z</when>
        <gx:coord>9.943249 53.606415 229.79797</gx:coord>
        <when>2025-01-01T00:32:06.1259490Z</when>
        <gx:coord>9.943678 53.607124 219.12997</gx:coord>
        <when>2025-01-01T00:32:08.1249490Z</when>
        <gx:coord>9.943678 53.607124 219.12997</gx:coord>
        <when>2025-01-01T00:32:10.9519490Z</when>
        <gx:coord>9.944773 53.608433 197.794</gx:coord>
        <when>2025-01-01T00:32:12.1129490Z</when>
        <gx:coord>9.945416 53.60903 187.126</gx:coord>
        <when>2025-01-01T00:32:14.1239490Z</when>
        <gx:coord>9.945416 53.60903 187.126</gx:coord>
        <when>2025-01-01T00:32:15.9689490Z</when>
        <gx:coord>9.946146 53.60961 177.982</gx:coord>
        <when>2025-01-01T00:32:16.1209490Z</when>
        <gx:coord>9.946983 53.610126 177.982</gx:coord>
        <when>2025-01-01T00:32:20.1219490Z</when>
        <gx:coord>9.947884 53.6106 158.17</gx:coord>
        <when>2025-01-01T00:32:20.1229490Z</when>
        <gx:coord>9.948807 53.61105 150.54999</gx:coord>
        <when>2025-01-01T00:32:20.9519490Z</when>
        <gx:coord>9.948807 53.61105 150.54999</gx:coord>
        <when>2025-01-01T00:32:25.9729490Z</when>
        <gx:coord>9.950695 53.61195 133.78598</gx:coord>
        <when>2025-01-01T00:32:30.1239490Z</when>
        <gx:coord>9.953485 53.61328 110.925995</gx:coord>
        <when>2025-01-01T00:32:30.9519490Z</when>
        <gx:coord>9.953485 53.61328 110.925995</gx:coord>
        <when>2025-01-01T00:32:35.9599490Z</when>
        <gx:coord>9.955373 53.614162 95.686005</gx:coord>
        <when>2025-01-01T00:32:36.1289490Z</when>
        <gx:coord>9.955373 53.614162 95.686005</gx:coord>
        <when>2025-01-01T00:32:38.1309490Z</when>
        <gx:coord>9.956425 53.614548 86.54199</gx:coord>
        <when>2025-01-01T00:32:38.1309490Z</when>
        <gx:coord>9.95681 53.61517 80.44599</gx:coord>
        <when>2025-01-01T00:32:40.1229490Z</when>
        <gx:coord>9.95681 53.61517 80.44599</gx:coord>
        <when>2025-01-01T00:32:40.9519490Z</when>
        <gx:coord>9.958183 53.615578 72.826</gx:coord>
        <when>2025-01-01T00:32:45.9529490Z</when>
        <gx:coord>9.960051 53.61652 59.109993</gx:coord>
        <when>2025-01-01T00:32:48.1229490Z</when>
        <gx:coord>9.961896 53.617424 48.441994</gx:coord>
        <when>2025-01-01T00:32:50.9519490Z</when>
        <gx:coord>9.962797 53.617874 39.297997</gx:coord>
        <when>2025-01-01T00:32:52.1229490Z</when>
        <gx:coord>9.962797 53.617874 39.297997</gx:coord>
        <when>2025-01-01T00:32:55.9529490Z</when>
        <gx:coord>9.9646 53.618732 27.105995</gx:coord>
        <when>2025-01-01T00:33:00.9519490Z</when>
        <gx:coord>9.967132 53.619976 19.485996</gx:coord>
        <when>2025-01-01T00:33:04.1199490Z</when>
        <gx:coord>9.967926 53.62036 17.961994</gx:coord>
        <when>2025-01-01T00:33:04.1239490Z</when>
        <gx:coord>9.968677 53.620728 17.961994</gx:coord>
        <when>2025-01-01T00:33:04.1239490Z</when>
        <gx:coord>9.968677 53.620728 16.437996</gx:coord>
        <when>2025-01-01T00:33:05.9639490Z</when>
        <gx:coord>9.968677 53.620728 16.437996</gx:coord>
        <when>2025-01-01T00:33:10.1249490Z</when>
        <gx:coord>9.97005 53.621437 16.437996</gx:coord>
        <when>2025-01-01T00:33:10.9529490Z</when>
        <gx:coord>9.970694 53.621735 16.437996</gx:coord>
        <when>2025-01-01T00:33:15.9709490Z</when>
        <gx:coord>9.97183 53.62229 16.437996</gx:coord>
        <when>2025-01-01T00:33:16.1209490Z</when>
        <gx:coord>9.97183 53.62229 16.437996</gx:coord>
        <when>2025-01-01T00:33:20.9529490Z</when>
        <gx:coord>9.973076 53.622917 16.437996</gx:coord>
        <when>2025-01-01T00:33:22.1409490Z</when>
        <gx:coord>9.973076 53.622917 16.437996</gx:coord>
        <when>2025-01-01T00:33:25.9529490Z</when>
        <gx:coord>9.9737835 53.623238 16.437996</gx:coord>
        <when>2025-01-01T00:33:30.9529490Z</when>
        <gx:coord>9.974749 53.62371 16.437996</gx:coord>
        <when>2025-01-01T00:33:35.9539490Z</when>
        <gx:coord>9.975371 53.62401 16.437996</gx:coord>
        <when>2025-01-01T00:33:40.9539490Z</when>
        <gx:coord>9.976208 53.624416 16.437996</gx:coord>
        <when>2025-01-01T00:33:42.1209490Z</when>
        <gx:coord>9.976208 53.624416 16.437996</gx:coord>
        <when>2025-01-01T00:33:45.9539490Z</when>
        <gx:coord>9.976681 53.624653 16.437996</gx:coord>
        <when>2025-01-01T00:33:46.1269490Z</when>
        <gx:coord>9.976681 53.624653 16.437996</gx:coord>
        <when>2025-01-01T00:33:50.1099490Z</when>
        <gx:coord>9.97711 53.624783 16.437996</gx:coord>
        <when>2025-01-01T00:33:50.9539490Z</when>
        <gx:coord>9.977303 53.624805 16.437996</gx:coord>
        <when>2025-01-01T00:33:52.1009490Z</when>
        <gx:coord>9.977303 53.624805 16.437996</gx:coord>
        <when>2025-01-01T00:33:54.1199490Z</when>
        <gx:coord>9.977495 53.624805 16.437996</gx:coord>
        <when>2025-01-01T00:33:55.9539490Z</when>
        <gx:coord>9.977646 53.624783 16.437996</gx:coord>
        <when>2025-01-01T00:33:56.1259490Z</when>
        <gx:coord>9.977646 53.624783 16.437996</gx:coord>
        <when>2025-01-01T00:33:56.1269490Z</when>
        <gx:coord>9.977646 53.624783 16.437996</gx:coord>
        <when>2025-01-01T00:33:58.1209490Z</when>
        <gx:coord>9.977775 53.62474 16.437996</gx:coord>
        <when>2025-01-01T00:34:00.9529490Z</when>
        <gx:coord>9.977989 53.624588 14.913995</gx:coord>
        <when>2025-01-01T00:34:05.9539490Z</when>
        <gx:coord>9.978204 53.62444 14.913995</gx:coord>
        <when>2025-01-01T00:34:08.1269490Z</when>
        <gx:coord>9.9783325 53.624374 14.913995</gx:coord>
        <when>2025-01-01T00:34:10.1199490Z</when>
        <gx:coord>9.978439 53.624332 14.913995</gx:coord>
        <when>2025-01-01T00:34:10.9539490Z</when>
        <gx:coord>9.978569 53.62429 16.437996</gx:coord>
        <when>2025-01-01T00:34:14.1209490Z</when>
        <gx:coord>9.978719 53.624268 16.437996</gx:coord>
        <when>2025-01-01T00:34:15.9539490Z</when>
        <gx:coord>9.9788685 53.624245 16.437996</gx:coord>
        <when>2025-01-01T00:34:16.1209490Z</when>
        <gx:coord>9.9788685 53.624245 16.437996</gx:coord>
        <when>2025-01-01T00:34:20.9539490Z</when>
        <gx:coord>9.9793625 53.62429 16.437996</gx:coord>
        <when>2025-01-01T00:34:25.9549490Z</when>
        <gx:coord>9.979727 53.62435 16.437996</gx:coord>
        <when>2025-01-01T00:34:26.1179490Z</when>
        <gx:coord>9.979727 53.62435 16.437996</gx:coord>
        <when>2025-01-01T00:34:30.9549490Z</when>
        <gx:coord>9.980328 53.624462 16.437996</gx:coord>
        <when>2025-01-01T00:34:34.1059490Z</when>
        <gx:coord>9.980543 53.624527 16.437996</gx:coord>
        <when>2025-01-01T00:34:35.9539490Z</when>
        <gx:coord>9.980736 53.624588 14.913995</gx:coord>
        <when>2025-01-01T00:34:40.9549490Z</when>
        <gx:coord>9.981316 53.624825 14.913995</gx:coord>
        <when>2025-01-01T00:34:42.1169490Z</when>
        <gx:coord>9.981316 53.624825 14.913995</gx:coord>
        <when>2025-01-01T00:34:45.9549490Z</when>
        <gx:coord>9.981701 53.624996 14.913995</gx:coord>
        <when>2025-01-01T00:34:50.9549490Z</when>
        <gx:coord>9.98226 53.625275 14.913995</gx:coord>
        <when>2025-01-01T00:34:55.9549490Z</when>
        <gx:coord>9.982603 53.62547 14.913995</gx:coord>
        <when>2025-01-01T00:35:00.9549490Z</when>
        <gx:coord>9.983225 53.62577 14.913995</gx:coord>
        <when>2025-01-01T00:35:04.1189490Z</when>
        <gx:coord>9.983439 53.625877 16.437996</gx:coord>
        <when>2025-01-01T00:35:05.9549490Z</when>
        <gx:coord>9.983675 53.625984 16.437996</gx:coord>
        <when>2025-01-01T00:35:10.9569490Z</when>
        <gx:coord>9.984384 53.626328 16.437996</gx:coord>
        <when>2025-01-01T00:35:15.9559490Z</when>
        <gx:coord>9.984856 53.626564 16.437996</gx:coord>
        <when>2025-01-01T00:35:20.9559490Z</when>
        <gx:coord>9.985542 53.626907 16.437996</gx:coord>
        <when>2025-01-01T00:35:25.9559490Z</when>
        <gx:coord>9.986014 53.627144 16.437996</gx:coord>
        <when>2025-01-01T00:35:30.9559490Z</when>
        <gx:coord>9.986637 53.62744 16.437996</gx:coord>
        <when>2025-01-01T00:35:35.9559490Z</when>
        <gx:coord>9.987022 53.627636 16.437996</gx:coord>
        <when>2025-01-01T00:35:40.9559490Z</when>
        <gx:coord>9.987495 53.627872 16.437996</gx:coord>
        <when>2025-01-01T00:35:42.1199490Z</when>
        <gx:coord>9.987495 53.627872 16.437996</gx:coord>
        <when>2025-01-01T00:35:45.9559490Z</when>
        <gx:coord>9.987709 53.62798 16.437996</gx:coord>
        <when>2025-01-01T00:35:46.1109490Z</when>
        <gx:coord>9.987709 53.62798 16.437996</gx:coord>
        <when>2025-01-01T00:35:47.1239490Z</when>
        <gx:coord>9.987817 53.62798 16.437996</gx:coord>
        <when>2025-01-01T00:35:48.1249490Z</when>
        <gx:coord>9.987817 53.62798 16.437996</gx:coord>
        <when>2025-01-01T00:35:50.1079490Z</when>
        <gx:coord>9.987903 53.62796 16.437996</gx:coord>
        <when>2025-01-01T00:35:50.9559490Z</when>
        <gx:coord>9.987988 53.627937 16.437996</gx:coord>
        <when>2025-01-01T00:35:52.1249490Z</when>
        <gx:coord>9.987988 53.627937 16.437996</gx:coord>
        <when>2025-01-01T00:35:55.9559490Z</when>
        <gx:coord>9.988074 53.62783 16.437996</gx:coord>
        <when>2025-01-01T00:36:00.9569490Z</when>
        <gx:coord>9.988268 53.627617 16.437996</gx:coord>
        <when>2025-01-01T00:36:05.9569490Z</when>
        <gx:coord>9.988396 53.627464 16.437996</gx:coord>
        <when>2025-01-01T00:36:06.1049490Z</when>
        <gx:coord>9.988396 53.627464 16.437996</gx:coord>
        <when>2025-01-01T00:36:08.1189490Z</when>
        <gx:coord>9.988396 53.6274 16.437996</gx:coord>
        <when>2025-01-01T00:36:10.1199490Z</when>
        <gx:coord>9.988375 53.627335 16.437996</gx:coord>
        <when>2025-01-01T00:36:10.9559490Z</when>
        <gx:coord>9.98831 53.627293 16.437996</gx:coord>
        <when>2025-01-01T00:36:12.9409490Z</when>
        <gx:coord>9.988246 53.62725 16.437996</gx:coord>
        <when>2025-01-01T00:36:15.9569490Z</when>
        <gx:coord>9.988182 53.627228 16.437996</gx:coord>
        <when>2025-01-01T00:36:20.9559490Z</when>
        <gx:coord>9.987988 53.627163 16.437996</gx:coord>
        <when>2025-01-01T00:36:25.9569490Z</when>
        <gx:coord>9.987925 53.627144 16.437996</gx:coord>
        <when>2025-01-01T00:36:30.9569490Z</when>
        <gx:coord>9.987903 53.627144 16.437996</gx:coord>
        <when>2025-01-01T00:36:35.9569490Z</when>
        <gx:coord>9.987903 53.627144 16.437996</gx:coord>
        <when>2025-01-01T00:36:40.9569490Z</when>
        <gx:coord>9.987903 53.627144 16.437996</gx:coord>
        <when>2025-01-01T00:36:45.9579490Z</when>
        <gx:coord>9.987903 53.627144 16.437996</gx:coord>
        <when>2025-01-01T00:36:50.9579490Z</when>
        <gx:coord>9.987903 53.627144 16.437996</gx:coord>
        <when>2025-01-01T00:36:52.6369490Z</when>
        <gx:coord>9.987903 53.627144 16.437996</gx:coord>
        <coordinates />
      </gx:Track>
    </Placemark>
    <Placemark>
      <name>Takeoff: 2025-01-01</name>
      <styleUrl>#downArrowIcon</styleUrl>
      <Point>
        <altitudeMode>relativeToGround</altitudeMode>
        <coordinates>9.981787,53.627163,20</coordinates>
      </Point>
    </Placemark>
    <Placemark>
      <name>Landing: 2025-01-01</name>
      <styleUrl>#downArrowIcon</styleUrl>
      <Point>
        <altitudeMode>relativeToGround</altitudeMode>
        <coordinates>9.987817,53.62798,20</coordinates>
      </Point>
    </Placemark>
    <Placemark>
      <name>Log Stop: 2025-01-01</name>
      <styleUrl>#downArrowIcon</styleUrl>
      <Point>
        <altitudeMode>relativeToGround</altitudeMode>
        <coordinates>9.987903,53.627144,20</coordinates>
      </Point>
    </Placemark>
  </Document>
</kml>
