<?xml version="1.0" encoding="utf-8"?>
<kml xmlns:gx="http://www.google.com/kml/ext/2.2" creator="kml-heatmap" xmlns="http://www.opengis.net/kml/2.2">
  <Document>
    <name>SkyDemon Track Log</name>
    <Style id="skydemonLogStyle">
      <LineStyle>
        <color>7f00ffff</color>
        <width>4</width>
      </LineStyle>
      <PolyStyle>
        <color>7fffa400</color>
      </PolyStyle>
    </Style>
    <Style id="downArrowIcon">
      <IconStyle>
        <href>http://maps.google.com/mapfiles/kml/pal4/icon28.png</href>
      </IconStyle>
    </Style>
    <Placemark>
      <name>Log Start: 2026-01-01</name>
      <styleUrl>#downArrowIcon</styleUrl>
      <Point>
        <altitudeMode>relativeToGround</altitudeMode>
        <coordinates>12.058129,51.54826,20</coordinates>
      </Point>
    </Placemark>
    <Placemark>
      <name>EDAQ Halle-Oppin - EDAQ Halle-Oppin</name>
      <styleUrl>#skydemonLogStyle</styleUrl>
      <gx:Track>
        <extrude>1</extrude>
        <altitudeMode>absolute</altitudeMode>
        <when>2026-01-01T00:00:00.8262500Z</when>
        <gx:coord>12.058129 51.54826 108.3449</gx:coord>
        <when>2026-01-01T00:00:05.8272500Z</when>
        <gx:coord>12.058123 51.548252 108.39952</gx:coord>
        <when>2026-01-01T00:00:10.8272500Z</when>
        <gx:coord>12.05813 51.54826 108.39868</gx:coord>
        <when>2026-01-01T00:00:15.8272500Z</when>
        <gx:coord>12.058125 51.54826 108.25044</gx:coord>
        <when>2026-01-01T00:00:20.8272500Z</when>
        <gx:coord>12.058127 51.548264 108.176674</gx:coord>
        <when>2026-01-01T00:00:25.8272500Z</when>
        <gx:coord>12.0581255 51.548267 108.18343</gx:coord>
        <when>2026-01-01T00:00:30.8272500Z</when>
        <gx:coord>12.058131 51.548264 107.991</gx:coord>
        <when>2026-01-01T00:00:35.8272500Z</when>
        <gx:coord>12.058133 51.54827 107.72037</gx:coord>
        <when>2026-01-01T00:00:40.8272500Z</when>
        <gx:coord>12.05813 51.54826 107.542206</gx:coord>
        <when>2026-01-01T00:00:45.8272500Z</when>
        <gx:coord>12.0581255 51.54826 107.4418</gx:coord>
        <when>2026-01-01T00:00:50.8272500Z</when>
        <gx:coord>12.058126 51.548264 107.39485</gx:coord>
        <when>2026-01-01T00:00:55.8272500Z</when>
        <gx:coord>12.058126 51.548264 107.47125</gx:coord>
        <when>2026-01-01T00:01:00.8272500Z</when>
        <gx:coord>12.058119 51.548267 107.5939</gx:coord>
        <when>2026-01-01T00:01:05.8272500Z</when>
        <gx:coord>12.0581255 51.548264 107.86233</gx:coord>
        <when>2026-01-01T00:01:10.8272500Z</when>
        <gx:coord>12.058129 51.548264 107.94056</gx:coord>
        <when>2026-01-01T00:01:15.8262500Z</when>
        <gx:coord>12.05813 51.548267 107.8308</gx:coord>
        <when>2026-01-01T00:01:20.8272500Z</when>
        <gx:coord>12.058119 51.548267 107.99221</gx:coord>
        <when>2026-01-01T00:01:25.8272500Z</when>
        <gx:coord>12.058112 51.548264 108.13417</gx:coord>
        <when>2026-01-01T00:01:30.8272500Z</when>
        <gx:coord>12.058121 51.548264 108.2268</gx:coord>
        <when>2026-01-01T00:01:33.0362500Z</when>
        <gx:coord>12.058091 51.54826 108.3196</gx:coord>
        <when>2026-01-01T00:01:33.0942500Z</when>
        <gx:coord>12.058091 51.54826 108.3196</gx:coord>
        <when>2026-01-01T00:01:34.0912500Z</when>
        <gx:coord>12.05807 51.548267 108.32628</gx:coord>
        <when>2026-01-01T00:01:34.1072500Z</when>
        <gx:coord>12.058062 51.548275 108.35813</gx:coord>
        <when>2026-01-01T00:01:34.8022500Z</when>
        <gx:coord>12.058062 51.548275 108.35813</gx:coord>
        <when>2026-01-01T00:01:35.0932500Z</when>
        <gx:coord>12.058062 51.548275 108.35813</gx:coord>
        <when>2026-01-01T00:01:35.8272500Z</when>
        <gx:coord>12.058047 51.548283 108.345215</gx:coord>
        <when>2026-01-01T00:01:36.0942500Z</when>
        <gx:coord>12.058047 51.548283 108.345215</gx:coord>
        <when>2026-01-01T00:01:37.0892500Z</when>
        <gx:coord>12.058041 51.5483 108.35188</gx:coord>
        <when>2026-01-01T00:01:38.0932500Z</when>
        <gx:coord>12.058029 51.548317 108.43696</gx:coord>
        <when>2026-01-01T00:01:38.0942500Z</when>
        <gx:coord>12.058029 51.548317 108.43696</gx:coord>
        <when>2026-01-01T00:01:40.0892500Z</when>
        <gx:coord>12.058032 51.548363 108.43485</gx:coord>
        <when>2026-01-01T00:01:40.8262500Z</when>
        <gx:coord>12.058038 51.54839 108.4058</gx:coord>
        <when>2026-01-01T00:01:45.8272500Z</when>
        <gx:coord>12.058095 51.54855 108.28319</gx:coord>
        <when>2026-01-01T00:01:48.0952500Z</when>
        <gx:coord>12.058124 51.548634 108.1894</gx:coord>
        <when>2026-01-01T00:01:50.8272500Z</when>
        <gx:coord>12.058186 51.54875 108.00767</gx:coord>
        <when>2026-01-01T00:01:55.8272500Z</when>
        <gx:coord>12.05826 51.548927 107.81873</gx:coord>
        <when>2026-01-01T00:01:56.0862500Z</when>
        <gx:coord>12.05826 51.548927 107.81873</gx:coord>
        <when>2026-01-01T00:01:57.0942500Z</when>
        <gx:coord>12.058255 51.54895 107.819916</gx:coord>
        <when>2026-01-01T00:01:58.0932500Z</when>
        <gx:coord>12.058249 51.548973 107.70626</gx:coord>
        <when>2026-01-01T00:02:00.0922500Z</when>
        <gx:coord>12.058211 51.54901 107.86866</gx:coord>
        <when>2026-01-01T00:02:00.8272500Z</when>
        <gx:coord>12.058182 51.549026 107.82875</gx:coord>
        <when>2026-01-01T00:02:01.0912500Z</when>
        <gx:coord>12.058182 51.549026 107.82875</gx:coord>
        <when>2026-01-01T00:02:02.0892500Z</when>
        <gx:coord>12.05814 51.549038 107.7572</gx:coord>
        <when>2026-01-01T00:02:05.8262500Z</when>
        <gx:coord>12.057966 51.54907 107.58445</gx:coord>
        <when>2026-01-01T00:02:07.0912500Z</when>
        <gx:coord>12.0579405 51.54908 107.65368</gx:coord>
        <when>2026-01-01T00:02:09.0942500Z</when>
        <gx:coord>12.0578785 51.549114 107.77568</gx:coord>
        <when>2026-01-01T00:02:10.0872500Z</when>
        <gx:coord>12.057863 51.54914 107.91033</gx:coord>
        <when>2026-01-01T00:02:10.8262500Z</when>
        <gx:coord>12.057854 51.549168 107.939964</gx:coord>
        <when>2026-01-01T00:02:11.1082500Z</when>
        <gx:coord>12.057854 51.549168 107.939964</gx:coord>
        <when>2026-01-01T00:02:12.0852500Z</when>
        <gx:coord>12.057856 51.549194 107.96497</gx:coord>
        <when>2026-01-01T00:02:15.8262500Z</when>
        <gx:coord>12.057909 51.549305 107.95092</gx:coord>
        <when>2026-01-01T00:02:20.0992500Z</when>
        <gx:coord>12.057971 51.54946 107.82535</gx:coord>
        <when>2026-01-01T00:02:20.8262500Z</when>
        <gx:coord>12.057991 51.549515 108.056854</gx:coord>
        <when>2026-01-01T00:02:25.8262500Z</when>
        <gx:coord>12.058103 51.54977 107.95813</gx:coord>
        <when>2026-01-01T00:02:28.0922500Z</when>
        <gx:coord>12.05813 51.549847 107.95739</gx:coord>
        <when>2026-01-01T00:02:29.0932500Z</when>
        <gx:coord>12.058124 51.54988 108.16954</gx:coord>
        <when>2026-01-01T00:02:30.0942500Z</when>
        <gx:coord>12.058106 51.549915 107.68583</gx:coord>
        <when>2026-01-01T00:02:30.8262500Z</when>
        <gx:coord>12.058076 51.54995 107.94636</gx:coord>
        <when>2026-01-01T00:02:31.0882500Z</when>
        <gx:coord>12.058076 51.54995 107.94636</gx:coord>
        <when>2026-01-01T00:02:32.1032500Z</when>
        <gx:coord>12.058029 51.549976 107.80131</gx:coord>
        <when>2026-01-01T00:02:33.0902500Z</when>
        <gx:coord>12.057973 51.55 107.943535</gx:coord>
        <when>2026-01-01T00:02:40.6552500Z</when>
        <gx:coord>12.05745 51.55015 107.91302</gx:coord>
        <when>2026-01-01T00:02:45.6562500Z</when>
        <gx:coord>12.057007 51.550278 107.83826</gx:coord>
        <when>2026-01-01T00:02:50.6562500Z</when>
        <gx:coord>12.056537 51.55041 107.434</gx:coord>
        <when>2026-01-01T00:02:55.6552500Z</when>
        <gx:coord>12.05609 51.550537 107.32419</gx:coord>
        <when>2026-01-01T00:03:00.6562500Z</when>
        <gx:coord>12.055651 51.55066 107.168434</gx:coord>
        <when>2026-01-01T00:03:05.6562500Z</when>
        <gx:coord>12.05521 51.55078 107.311676</gx:coord>
        <when>2026-01-01T00:03:10.6562500Z</when>
        <gx:coord>12.054741 51.55091 107.34656</gx:coord>
        <when>2026-01-01T00:03:15.6562500Z</when>
        <gx:coord>12.054242 51.551052 107.57885</gx:coord>
        <when>2026-01-01T00:03:20.6562500Z</when>
        <gx:coord>12.053728 51.551197 107.7587</gx:coord>
        <when>2026-01-01T00:03:25.6562500Z</when>
        <gx:coord>12.053212 51.551342 107.81678</gx:coord>
        <when>2026-01-01T00:03:30.6562500Z</when>
        <gx:coord>12.05271 51.551483 107.840965</gx:coord>
        <when>2026-01-01T00:03:35.6562500Z</when>
        <gx:coord>12.052201 51.551624 107.93229</gx:coord>
        <when>2026-01-01T00:03:40.6692500Z</when>
        <gx:coord>12.051698 51.551765 108.15197</gx:coord>
        <when>2026-01-01T00:03:45.6562500Z</when>
        <gx:coord>12.051199 51.55191 108.271935</gx:coord>
        <when>2026-01-01T00:03:50.6562500Z</when>
        <gx:coord>12.050713 51.552048 108.661064</gx:coord>
        <when>2026-01-01T00:03:55.6562500Z</when>
        <gx:coord>12.050229 51.55218 108.86667</gx:coord>
        <when>2026-01-01T00:04:00.6562500Z</when>
        <gx:coord>12.049741 51.552315 109.36197</gx:coord>
        <when>2026-01-01T00:04:05.6562500Z</when>
        <gx:coord>12.049225 51.55246 109.71093</gx:coord>
        <when>2026-01-01T00:04:10.6552500Z</when>
        <gx:coord>12.048667 51.552616 110.12404</gx:coord>
        <when>2026-01-01T00:04:15.6562500Z</when>
        <gx:coord>12.048073 51.552784 110.55344</gx:coord>
        <when>2026-01-01T00:04:20.6562500Z</when>
        <gx:coord>12.047464 51.55296 110.99158</gx:coord>
        <when>2026-01-01T00:04:25.6562500Z</when>
        <gx:coord>12.046925 51.553104 111.39676</gx:coord>
        <when>2026-01-01T00:04:28.0932500Z</when>
        <gx:coord>12.046782 51.553154 111.67506</gx:coord>
        <when>2026-01-01T00:04:29.0842500Z</when>
        <gx:coord>12.046734 51.55319 111.76822</gx:coord>
        <when>2026-01-01T00:04:30.0932500Z</when>
        <gx:coord>12.0467 51.553223 111.86941</gx:coord>
        <when>2026-01-01T00:04:30.6562500Z</when>
        <gx:coord>12.046674 51.55326 111.97991</gx:coord>
        <when>2026-01-01T00:04:32.0882500Z</when>
        <gx:coord>12.046659 51.553303 112.07243</gx:coord>
        <when>2026-01-01T00:04:35.6562500Z</when>
        <gx:coord>12.046657 51.5535 112.37358</gx:coord>
        <when>2026-01-01T00:04:40.7032500Z</when>
        <gx:coord>12.046656 51.553772 112.694016</gx:coord>
        <when>2026-01-01T00:04:45.6562500Z</when>
        <gx:coord>12.046651 51.553925 112.96594</gx:coord>
        <when>2026-01-01T00:04:46.0912500Z</when>
        <gx:coord>12.046651 51.553925 112.96594</gx:coord>
        <when>2026-01-01T00:04:50.6562500Z</when>
        <gx:coord>12.046652 51.55392 113.023766</gx:coord>
        <when>2026-01-01T00:04:55.6562500Z</when>
        <gx:coord>12.046652 51.55392 113.07516</gx:coord>
        <when>2026-01-01T00:05:00.6562500Z</when>
        <gx:coord>12.046652 51.55392 113.05311</gx:coord>
        <when>2026-01-01T00:05:05.6562500Z</when>
        <gx:coord>12.046651 51.55392 113.02236</gx:coord>
        <when>2026-01-01T00:05:10.6562500Z</when>
        <gx:coord>12.046651 51.55392 112.95651</gx:coord>
        <when>2026-01-01T00:05:15.6562500Z</when>
        <gx:coord>12.046652 51.55392 112.9147</gx:coord>
        <when>2026-01-01T00:05:20.6562500Z</when>
        <gx:coord>12.046653 51.55392 112.78495</gx:coord>
        <when>2026-01-01T00:05:25.6562500Z</when>
        <gx:coord>12.046654 51.55392 112.75571</gx:coord>
        <when>2026-01-01T00:05:30.6562500Z</when>
        <gx:coord>12.046653 51.55392 112.76228</gx:coord>
        <when>2026-01-01T00:05:35.6562500Z</when>
        <gx:coord>12.046653 51.55392 112.75906</gx:coord>
        <when>2026-01-01T00:05:40.6692500Z</when>
        <gx:coord>12.046652 51.55392 112.739235</gx:coord>
        <when>2026-01-01T00:05:45.6562500Z</when>
        <gx:coord>12.046652 51.55392 112.78032</gx:coord>
        <when>2026-01-01T00:05:50.6562500Z</when>
        <gx:coord>12.046651 51.55392 112.76287</gx:coord>
        <when>2026-01-01T00:05:55.6562500Z</when>
        <gx:coord>12.04665 51.55392 112.80397</gx:coord>
        <when>2026-01-01T00:06:00.6562500Z</when>
        <gx:coord>12.046649 51.55392 112.82294</gx:coord>
        <when>2026-01-01T00:06:05.6562500Z</when>
        <gx:coord>12.04665 51.55392 112.82212</gx:coord>
        <when>2026-01-01T00:06:10.6582500Z</when>
        <gx:coord>12.04665 51.55392 112.77269</gx:coord>
        <when>2026-01-01T00:06:15.6562500Z</when>
        <gx:coord>12.04665 51.55392 112.685524</gx:coord>
        <when>2026-01-01T00:06:20.6562500Z</when>
        <gx:coord>12.046651 51.55392 112.62497</gx:coord>
        <when>2026-01-01T00:06:25.6562500Z</when>
        <gx:coord>12.046652 51.55392 112.5471</gx:coord>
        <when>2026-01-01T00:06:30.6562500Z</when>
        <gx:coord>12.046652 51.55392 112.554855</gx:coord>
        <when>2026-01-01T00:06:35.6562500Z</when>
        <gx:coord>12.046652 51.55392 112.57489</gx:coord>
        <when>2026-01-01T00:06:40.6702500Z</when>
        <gx:coord>12.046652 51.55392 112.55237</gx:coord>
        <when>2026-01-01T00:06:45.6562500Z</when>
        <gx:coord>12.046653 51.55392 112.55062</gx:coord>
        <when>2026-01-01T00:06:50.6562500Z</when>
        <gx:coord>12.046653 51.55392 112.59558</gx:coord>
        <when>2026-01-01T00:06:55.6562500Z</when>
        <gx:coord>12.046654 51.55392 112.65161</gx:coord>
        <when>2026-01-01T00:07:00.6562500Z</when>
        <gx:coord>12.046655 51.55392 112.615</gx:coord>
        <when>2026-01-01T00:07:03.1932500Z</when>
        <gx:coord>12.046654 51.55392 112.677765</gx:coord>
        <when>2026-01-01T00:07:05.0742500Z</when>
        <gx:coord>12.046654 51.55392 112.66473</gx:coord>
        <when>2026-01-01T00:07:11.0382500Z</when>
        <gx:coord>12.046659 51.55392 112.6764</gx:coord>
        <when>2026-01-01T00:07:13.2982500Z</when>
        <gx:coord>12.046661 51.553917 112.73013</gx:coord>
        <when>2026-01-01T00:07:14.2612500Z</when>
        <gx:coord>12.046659 51.553917 112.810585</gx:coord>
        <when>2026-01-01T00:07:14.3792500Z</when>
        <gx:coord>12.046659 51.553917 112.810585</gx:coord>
        <when>2026-01-01T00:07:14.6202500Z</when>
        <gx:coord>12.046659 51.553917 112.810585</gx:coord>
        <when>2026-01-01T00:07:15.3602500Z</when>
        <gx:coord>12.046659 51.553917 112.804</gx:coord>
        <when>2026-01-01T00:07:21.1962500Z</when>
        <gx:coord>12.046653 51.55392 112.73209</gx:coord>
        <when>2026-01-01T00:07:26.1962500Z</when>
        <gx:coord>12.046654 51.553925 113.05945</gx:coord>
        <when>2026-01-01T00:07:33.1622500Z</when>
        <gx:coord>12.046652 51.553925 112.795555</gx:coord>
        <when>2026-01-01T00:07:38.1632500Z</when>
        <gx:coord>12.04665 51.553925 112.71429</gx:coord>
        <when>2026-01-01T00:07:43.1632500Z</when>
        <gx:coord>12.046651 51.553925 112.61733</gx:coord>
        <when>2026-01-01T00:07:48.1632500Z</when>
        <gx:coord>12.046651 51.55392 112.67158</gx:coord>
        <when>2026-01-01T00:07:53.1622500Z</when>
        <gx:coord>12.04665 51.55392 112.68777</gx:coord>
        <when>2026-01-01T00:07:58.1622500Z</when>
        <gx:coord>12.04665 51.55392 112.73498</gx:coord>
        <when>2026-01-01T00:08:03.1622500Z</when>
        <gx:coord>12.04665 51.553925 112.78136</gx:coord>
        <when>2026-01-01T00:08:05.0902500Z</when>
        <gx:coord>12.04665 51.55393 112.780365</gx:coord>
        <when>2026-01-01T00:08:08.1622500Z</when>
        <gx:coord>12.046649 51.553993 112.85322</gx:coord>
        <when>2026-01-01T00:08:13.1622500Z</when>
        <gx:coord>12.04665 51.554142 112.97518</gx:coord>
        <when>2026-01-01T00:08:14.0892500Z</when>
        <gx:coord>12.04665 51.554142 112.97518</gx:coord>
        <when>2026-01-01T00:08:15.0862500Z</when>
        <gx:coord>12.046654 51.554165 112.95444</gx:coord>
        <when>2026-01-01T00:08:16.0862500Z</when>
        <gx:coord>12.04667 51.55419 113.0172</gx:coord>
        <when>2026-01-01T00:08:18.0872500Z</when>
        <gx:coord>12.046741 51.55424 113.01304</gx:coord>
        <when>2026-01-01T00:08:18.1622500Z</when>
        <gx:coord>12.046791 51.554264 113.109314</gx:coord>
        <when>2026-01-01T00:08:20.0872500Z</when>
        <gx:coord>12.04684 51.55428 113.12935</gx:coord>
        <when>2026-01-01T00:08:21.0902500Z</when>
        <gx:coord>12.046891 51.554295 113.13363</gx:coord>
        <when>2026-01-01T00:08:22.0912500Z</when>
        <gx:coord>12.046946 51.554302 113.072235</gx:coord>
        <when>2026-01-01T00:08:23.0902500Z</when>
        <gx:coord>12.047 51.554302 113.03176</gx:coord>
        <when>2026-01-01T00:08:23.1622500Z</when>
        <gx:coord>12.047057 51.554295 112.98441</gx:coord>
        <when>2026-01-01T00:08:25.0942500Z</when>
        <gx:coord>12.04712 51.55428 112.90389</gx:coord>
        <when>2026-01-01T00:08:25.0942500Z</when>
        <gx:coord>12.04712 51.55428 112.90389</gx:coord>
        <when>2026-01-01T00:08:28.4872500Z</when>
        <gx:coord>12.047447 51.554188 112.696</gx:coord>
        <when>2026-01-01T00:08:28.4882500Z</when>
        <gx:coord>12.04761 51.55414 112.39498</gx:coord>
        <when>2026-01-01T00:08:29.0942500Z</when>
        <gx:coord>12.04761 51.55414 112.39498</gx:coord>
        <when>2026-01-01T00:08:31.0922500Z</when>
        <gx:coord>12.048018 51.554024 111.86984</gx:coord>
        <when>2026-01-01T00:08:33.1762500Z</when>
        <gx:coord>12.048821 51.553802 111.217735</gx:coord>
        <when>2026-01-01T00:08:34.0922500Z</when>
        <gx:coord>12.048821 51.553802 111.217735</gx:coord>
        <when>2026-01-01T00:08:38.0952500Z</when>
        <gx:coord>12.050196 51.553417 110.164604</gx:coord>
        <when>2026-01-01T00:08:38.1632500Z</when>
        <gx:coord>12.050592 51.553307 110.18047</gx:coord>
        <when>2026-01-01T00:08:43.1632500Z</when>
        <gx:coord>12.052793 51.552704 113.42953</gx:coord>
        <when>2026-01-01T00:08:44.0892500Z</when>
        <gx:coord>12.052793 51.552704 113.42953</gx:coord>
        <when>2026-01-01T00:08:48.1642500Z</when>
        <gx:coord>12.055195 51.552036 124.625336</gx:coord>
        <when>2026-01-01T00:08:53.0882500Z</when>
        <gx:coord>12.057674 51.551373 141.43188</gx:coord>
        <when>2026-01-01T00:08:53.1642500Z</when>
        <gx:coord>12.057674 51.551373 141.43188</gx:coord>
        <when>2026-01-01T00:08:58.1642500Z</when>
        <gx:coord>12.060104 51.55072 162.32986</gx:coord>
        <when>2026-01-01T00:09:01.0962500Z</when>
        <gx:coord>12.061523 51.550335 174.90034</gx:coord>
        <when>2026-01-01T00:09:03.1632500Z</when>
        <gx:coord>12.062467 51.55009 182.86287</gx:coord>
        <when>2026-01-01T00:09:08.1642500Z</when>
        <gx:coord>12.064815 51.54952 201.06775</gx:coord>
        <when>2026-01-01T00:09:10.0902500Z</when>
        <gx:coord>12.065773 51.54931 207.57956</gx:coord>
        <when>2026-01-01T00:09:13.1642500Z</when>
        <gx:coord>12.067245 51.549 215.8521</gx:coord>
        <when>2026-01-01T00:09:18.1642500Z</when>
        <gx:coord>12.069767 51.548492 228.93164</gx:coord>
        <when>2026-01-01T00:09:22.0872500Z</when>
        <gx:coord>12.07183 51.54812 238.80197</gx:coord>
        <when>2026-01-01T00:09:23.1642500Z</when>
        <gx:coord>12.072351 51.548027 240.76323</gx:coord>
        <when>2026-01-01T00:09:28.1642500Z</when>
        <gx:coord>12.074981 51.54755 255.3231</gx:coord>
        <when>2026-01-01T00:09:33.2152500Z</when>
        <gx:coord>12.077683 51.546963 264.5536</gx:coord>
        <when>2026-01-01T00:09:34.0812500Z</when>
        <gx:coord>12.077683 51.546963 264.5536</gx:coord>
        <when>2026-01-01T00:09:35.0922500Z</when>
        <gx:coord>12.0788 51.546707 271.99573</gx:coord>
        <when>2026-01-01T00:09:38.1642500Z</when>
        <gx:coord>12.080451 51.546318 286.6457</gx:coord>
        <when>2026-01-01T00:09:42.0862500Z</when>
        <gx:coord>12.082027 51.54583 296.53192</gx:coord>
        <when>2026-01-01T00:09:43.0892500Z</when>
        <gx:coord>12.082988 51.545418 302.60876</gx:coord>
        <when>2026-01-01T00:09:43.1642500Z</when>
        <gx:coord>12.082988 51.545418 302.60876</gx:coord>
        <when>2026-01-01T00:09:45.0862500Z</when>
        <gx:coord>12.083411 51.54518 307.75647</gx:coord>
        <when>2026-01-01T00:09:47.0942500Z</when>
        <gx:coord>12.084515 51.5444 315.336</gx:coord>
        <when>2026-01-01T00:09:48.0922500Z</when>
        <gx:coord>12.084515 51.5444 317.73154</gx:coord>
        <when>2026-01-01T00:09:48.1642500Z</when>
        <gx:coord>12.084823 51.54411 319.19666</gx:coord>
        <when>2026-01-01T00:09:51.0862500Z</when>
        <gx:coord>12.085348 51.5435 322.68787</gx:coord>
        <when>2026-01-01T00:09:53.1642500Z</when>
        <gx:coord>12.085912 51.54251 326.71222</gx:coord>
        <when>2026-01-01T00:09:54.0902500Z</when>
        <gx:coord>12.085912 51.54251 326.71222</gx:coord>
        <when>2026-01-01T00:09:56.0912500Z</when>
        <gx:coord>12.086188 51.541462 333.4041</gx:coord>
        <when>2026-01-01T00:09:57.0902500Z</when>
        <gx:coord>12.086188 51.541462 333.4041</gx:coord>
        <when>2026-01-01T00:09:58.1642500Z</when>
        <gx:coord>12.0862 51.54075 337.63388</gx:coord>
        <when>2026-01-01T00:10:00.0912500Z</when>
        <gx:coord>12.086149 51.54039 338.2438</gx:coord>
        <when>2026-01-01T00:10:03.1042500Z</when>
        <gx:coord>12.085728 51.539318 335.5673</gx:coord>
        <when>2026-01-01T00:10:03.1642500Z</when>
        <gx:coord>12.0854845 51.538975 335.56342</gx:coord>
        <when>2026-01-01T00:10:08.1642500Z</when>
        <gx:coord>12.084025 51.537247 328.55084</gx:coord>
        <when>2026-01-01T00:10:10.1012500Z</when>
        <gx:coord>12.08371 51.536884 326.32602</gx:coord>
        <when>2026-01-01T00:10:13.1632500Z</when>
        <gx:coord>12.082408 51.535374 322.53857</gx:coord>
        <when>2026-01-01T00:10:18.1632500Z</when>
        <gx:coord>12.0807295 51.533413 311.56348</gx:coord>
        <when>2026-01-01T00:10:23.1642500Z</when>
        <gx:coord>12.078985 51.53138 308.207</gx:coord>
        <when>2026-01-01T00:10:24.1022500Z</when>
        <gx:coord>12.078985 51.53138 308.207</gx:coord>
        <when>2026-01-01T00:10:28.1642500Z</when>
        <gx:coord>12.077259 51.52931 313.30582</gx:coord>
        <when>2026-01-01T00:10:29.0972500Z</when>
        <gx:coord>12.077259 51.52931 313.30582</gx:coord>
        <when>2026-01-01T00:10:31.0932500Z</when>
        <gx:coord>12.075925 51.528294 325.75818</gx:coord>
        <when>2026-01-01T00:10:32.0862500Z</when>
        <gx:coord>12.075925 51.528294 332.10663</gx:coord>
        <when>2026-01-01T00:10:33.0832500Z</when>
        <gx:coord>12.075404 51.52803 337.83188</gx:coord>
        <when>2026-01-01T00:10:33.1832500Z</when>
        <gx:coord>12.074856 51.527798 341.96353</gx:coord>
        <when>2026-01-01T00:10:34.1002500Z</when>
        <gx:coord>12.074856 51.527798 341.96353</gx:coord>
        <when>2026-01-01T00:10:36.0852500Z</when>
        <gx:coord>12.073691 51.52746 348.0383</gx:coord>
        <when>2026-01-01T00:10:38.1642500Z</when>
        <gx:coord>12.071874 51.5272 356.96744</gx:coord>
        <when>2026-01-01T00:10:39.0852500Z</when>
        <gx:coord>12.071874 51.5272 356.96744</gx:coord>
        <when>2026-01-01T00:10:41.1022500Z</when>
        <gx:coord>12.070643 51.527195 361.80286</gx:coord>
        <when>2026-01-01T00:10:41.1022500Z</when>
        <gx:coord>12.070032 51.527252 364.48056</gx:coord>
        <when>2026-01-01T00:10:43.1642500Z</when>
        <gx:coord>12.068817 51.527447 364.9425</gx:coord>
        <when>2026-01-01T00:10:44.0872500Z</when>
        <gx:coord>12.068817 51.527447 364.9425</gx:coord>
        <when>2026-01-01T00:10:48.1652500Z</when>
        <gx:coord>12.065816 51.528275 360.55756</gx:coord>
        <when>2026-01-01T00:10:53.1652500Z</when>
        <gx:coord>12.062859 51.529247 368.61194</gx:coord>
        <when>2026-01-01T00:10:58.1652500Z</when>
        <gx:coord>12.059893 51.530205 373.4791</gx:coord>
        <when>2026-01-01T00:11:03.1652500Z</when>
        <gx:coord>12.05681 51.531044 374.62408</gx:coord>
        <when>2026-01-01T00:11:08.1652500Z</when>
        <gx:coord>12.053746 51.53189 378.04272</gx:coord>
        <when>2026-01-01T00:11:13.1652500Z</when>
        <gx:coord>12.050674 51.532784 373.63306</gx:coord>
        <when>2026-01-01T00:11:14.0922500Z</when>
        <gx:coord>12.050051 51.532963 373.63306</gx:coord>
        <when>2026-01-01T00:11:18.1652500Z</when>
        <gx:coord>12.047551 51.533672 380.2901</gx:coord>
        <when>2026-01-01T00:11:23.1652500Z</when>
        <gx:coord>12.044434 51.534542 385.53983</gx:coord>
        <when>2026-01-01T00:11:28.1652500Z</when>
        <gx:coord>12.041317 51.535393 387.0428</gx:coord>
        <when>2026-01-01T00:11:33.1872500Z</when>
        <gx:coord>12.038227 51.536217 386.55435</gx:coord>
        <when>2026-01-01T00:11:38.1652500Z</when>
        <gx:coord>12.03526 51.536995 389.18008</gx:coord>
        <when>2026-01-01T00:11:43.0872500Z</when>
        <gx:coord>12.033031 51.537556 389.42007</gx:coord>
        <when>2026-01-01T00:11:43.1652500Z</when>
        <gx:coord>12.032488 51.537685 388.59818</gx:coord>
        <when>2026-01-01T00:11:48.1652500Z</when>
        <gx:coord>12.029848 51.538307 386.45438</gx:coord>
        <when>2026-01-01T00:11:53.1652500Z</when>
        <gx:coord>12.027263 51.538895 382.09763</gx:coord>
        <when>2026-01-01T00:11:57.0962500Z</when>
        <gx:coord>12.025216 51.539383 381.7272</gx:coord>
        <when>2026-01-01T00:11:58.1652500Z</when>
        <gx:coord>12.024719 51.539528 381.5988</gx:coord>
        <when>2026-01-01T00:12:03.1662500Z</when>
        <gx:coord>12.022267 51.540276 380.69083</gx:coord>
        <when>2026-01-01T00:12:08.1652500Z</when>
        <gx:coord>12.019793 51.54102 381.3408</gx:coord>
        <when>2026-01-01T00:12:13.1652500Z</when>
        <gx:coord>12.017325 51.54173 382.83347</gx:coord>
        <when>2026-01-01T00:12:18.1652500Z</when>
        <gx:coord>12.014827 51.542393 384.71747</gx:coord>
        <when>2026-01-01T00:12:23.1652500Z</when>
        <gx:coord>12.012301 51.54307 386.60767</gx:coord>
        <when>2026-01-01T00:12:28.1652500Z</when>
        <gx:coord>12.009736 51.543797 386.14648</gx:coord>
        <when>2026-01-01T00:12:33.1652500Z</when>
        <gx:coord>12.007265 51.5445 388.33105</gx:coord>
        <when>2026-01-01T00:12:34.0892500Z</when>
        <gx:coord>12.007265 51.5445 388.33105</gx:coord>
        <when>2026-01-01T00:12:36.0852500Z</when>
        <gx:coord>12.006391 51.544865 390.35645</gx:coord>
        <when>2026-01-01T00:12:38.0892500Z</when>
        <gx:coord>12.005659 51.545322 391.89896</gx:coord>
        <when>2026-01-01T00:12:38.1652500Z</when>
        <gx:coord>12.005354 51.545586 391.36197</gx:coord>
        <when>2026-01-01T00:12:40.0912500Z</when>
        <gx:coord>12.005094 51.54587 389.83408</gx:coord>
        <when>2026-01-01T00:12:42.0892500Z</when>
        <gx:coord>12.004699 51.546486 387.14764</gx:coord>
        <when>2026-01-01T00:12:43.1652500Z</when>
        <gx:coord>12.004475 51.54715 386.5097</gx:coord>
        <when>2026-01-01T00:12:45.0872500Z</when>
        <gx:coord>12.004434 51.547493 386.93933</gx:coord>
        <when>2026-01-01T00:12:46.0922500Z</when>
        <gx:coord>12.004432 51.54784 387.33856</gx:coord>
        <when>2026-01-01T00:12:48.1702500Z</when>
        <gx:coord>12.004573 51.548878 385.52744</gx:coord>
        <when>2026-01-01T00:12:51.0882500Z</when>
        <gx:coord>12.004782 51.549572 383.74808</gx:coord>
        <when>2026-01-01T00:12:53.0912500Z</when>
        <gx:coord>12.005232 51.5506 382.8372</gx:coord>
        <when>2026-01-01T00:12:53.1662500Z</when>
        <gx:coord>12.005232 51.5506 380.83377</gx:coord>
        <when>2026-01-01T00:12:58.1662500Z</when>
        <gx:coord>12.005936 51.552296 379.86752</gx:coord>
        <when>2026-01-01T00:13:03.1662500Z</when>
        <gx:coord>12.006518 51.55397 376.89706</gx:coord>
        <when>2026-01-01T00:13:08.1662500Z</when>
        <gx:coord>12.0073 51.555653 370.14914</gx:coord>
        <when>2026-01-01T00:13:13.1662500Z</when>
        <gx:coord>12.008251 51.557373 361.63315</gx:coord>
        <when>2026-01-01T00:13:18.1652500Z</when>
        <gx:coord>12.009211 51.559162 355.5571</gx:coord>
        <when>2026-01-01T00:13:22.0872500Z</when>
        <gx:coord>12.009842 51.560223 357.58844</gx:coord>
        <when>2026-01-01T00:13:23.1662500Z</when>
        <gx:coord>12.010369 51.5609 360.5794</gx:coord>
        <when>2026-01-01T00:13:26.1062500Z</when>
        <gx:coord>12.010997 51.561527 364.21063</gx:coord>
        <when>2026-01-01T00:13:28.1662500Z</when>
        <gx:coord>12.012172 51.562344 367.09027</gx:coord>
        <when>2026-01-01T00:13:29.0892500Z</when>
        <gx:coord>12.012172 51.562344 367.09027</gx:coord>
        <when>2026-01-01T00:13:31.0952500Z</when>
        <gx:coord>12.013122 51.56278 370.78964</gx:coord>
        <when>2026-01-01T00:13:33.1102500Z</when>
        <gx:coord>12.014177 51.563095 371.44867</gx:coord>
        <when>2026-01-01T00:13:33.1702500Z</when>
        <gx:coord>12.01473 51.56319 372.9955</gx:coord>
        <when>2026-01-01T00:13:35.1082500Z</when>
        <gx:coord>12.015282 51.563244 373.56006</gx:coord>
        <when>2026-01-01T00:13:37.0952500Z</when>
        <gx:coord>12.016364 51.563232 370.72488</gx:coord>
        <when>2026-01-01T00:13:38.1662500Z</when>
        <gx:coord>12.017383 51.563053 363.31085</gx:coord>
        <when>2026-01-01T00:13:39.0882500Z</when>
        <gx:coord>12.017383 51.563053 363.31085</gx:coord>
        <when>2026-01-01T00:13:43.1662500Z</when>
        <gx:coord>12.019789 51.562317 340.0285</gx:coord>
        <when>2026-01-01T00:13:45.0902500Z</when>
        <gx:coord>12.020773 51.562004 332.05197</gx:coord>
        <when>2026-01-01T00:13:48.1662500Z</when>
        <gx:coord>12.022298 51.561558 319.70444</gx:coord>
        <when>2026-01-01T00:13:53.0932500Z</when>
        <gx:coord>12.024894 51.560818 300.6211</gx:coord>
        <when>2026-01-01T00:13:53.1662500Z</when>
        <gx:coord>12.024894 51.560818 300.6211</gx:coord>
        <when>2026-01-01T00:13:58.0942500Z</when>
        <gx:coord>12.027438 51.560047 283.7168</gx:coord>
        <when>2026-01-01T00:13:58.1662500Z</when>
        <gx:coord>12.027438 51.560047 279.38422</gx:coord>
        <when>2026-01-01T00:14:01.0922500Z</when>
        <gx:coord>12.028923 51.559612 265.76453</gx:coord>
        <when>2026-01-01T00:14:03.1662500Z</when>
        <gx:coord>12.0299 51.559326 256.60513</gx:coord>
        <when>2026-01-01T00:14:08.1662500Z</when>
        <gx:coord>12.032369 51.558617 236.3152</gx:coord>
        <when>2026-01-01T00:14:09.0892500Z</when>
        <gx:coord>12.032866 51.558468 232.05345</gx:coord>
        <when>2026-01-01T00:14:13.1662500Z</when>
        <gx:coord>12.03483 51.55786 214.59279</gx:coord>
        <when>2026-01-01T00:14:16.0872500Z</when>
        <gx:coord>12.036321 51.55742 201.45331</gx:coord>
        <when>2026-01-01T00:14:18.1662500Z</when>
        <gx:coord>12.037314 51.55714 193.46695</gx:coord>
        <when>2026-01-01T00:14:23.1662500Z</when>
        <gx:coord>12.03971 51.55644 173.25293</gx:coord>
        <when>2026-01-01T00:14:24.0932500Z</when>
        <gx:coord>12.040179 51.556297 169.35393</gx:coord>
        <when>2026-01-01T00:14:28.1662500Z</when>
        <gx:coord>12.042108 51.55573 151.8496</gx:coord>
        <when>2026-01-01T00:14:32.0852500Z</when>
        <gx:coord>12.044075 51.55516 136.18323</gx:coord>
        <when>2026-01-01T00:14:33.2192500Z</when>
        <gx:coord>12.044565 51.55502 132.43802</gx:coord>
        <when>2026-01-01T00:14:38.1662500Z</when>
        <gx:coord>12.046968 51.55432 118.34989</gx:coord>
        <when>2026-01-01T00:14:40.0942500Z</when>
        <gx:coord>12.047437 51.554188 116.613304</gx:coord>
        <when>2026-01-01T00:14:43.1772500Z</when>
        <gx:coord>12.049182 51.5537 114.824425</gx:coord>
        <when>2026-01-01T00:14:46.0952500Z</when>
        <gx:coord>12.049981 51.553474 113.80446</gx:coord>
        <when>2026-01-01T00:14:48.1672500Z</when>
        <gx:coord>12.051103 51.553154 112.08138</gx:coord>
        <when>2026-01-01T00:14:50.0922500Z</when>
        <gx:coord>12.051809 51.552963 111.59952</gx:coord>
        <when>2026-01-01T00:14:53.1662500Z</when>
        <gx:coord>12.052799 51.55269 110.88054</gx:coord>
        <when>2026-01-01T00:14:58.1672500Z</when>
        <gx:coord>12.054583 51.552177 110.27964</gx:coord>
        <when>2026-01-01T00:15:03.1672500Z</when>
        <gx:coord>12.056761 51.551567 113.169174</gx:coord>
        <when>2026-01-01T00:15:04.0892500Z</when>
        <gx:coord>12.056761 51.551567 113.169174</gx:coord>
        <when>2026-01-01T00:15:08.1672500Z</when>
        <gx:coord>12.059122 51.550922 126.43871</gx:coord>
        <when>2026-01-01T00:15:13.1662500Z</when>
        <gx:coord>12.061458 51.550255 146.5948</gx:coord>
        <when>2026-01-01T00:15:18.0892500Z</when>
        <gx:coord>12.063707 51.549644 168.41039</gx:coord>
        <when>2026-01-01T00:15:18.1672500Z</when>
        <gx:coord>12.063707 51.549644 168.41039</gx:coord>
        <when>2026-01-01T00:15:23.1672500Z</when>
        <gx:coord>12.066037 51.549084 176.40407</gx:coord>
        <when>2026-01-01T00:15:28.1672500Z</when>
        <gx:coord>12.068542 51.54854 189.12186</gx:coord>
        <when>2026-01-01T00:15:32.0862500Z</when>
        <gx:coord>12.070566 51.54811 201.35027</gx:coord>
        <when>2026-01-01T00:15:33.1852500Z</when>
        <gx:coord>12.0710745 51.548008 205.23047</gx:coord>
        <when>2026-01-01T00:15:38.1672500Z</when>
        <gx:coord>12.073576 51.547386 221.36229</gx:coord>
        <when>2026-01-01T00:15:41.0892500Z</when>
        <gx:coord>12.075064 51.546978 231.9014</gx:coord>
        <when>2026-01-01T00:15:43.1672500Z</when>
        <gx:coord>12.076064 51.546715 238.45003</gx:coord>
        <when>2026-01-01T00:15:44.0932500Z</when>
        <gx:coord>12.076568 51.54659 238.45003</gx:coord>
        <when>2026-01-01T00:15:48.1672500Z</when>
        <gx:coord>12.078579 51.546097 255.45667</gx:coord>
        <when>2026-01-01T00:15:51.0882500Z</when>
        <gx:coord>12.080086 51.54572 264.09256</gx:coord>
        <when>2026-01-01T00:15:53.1672500Z</when>
        <gx:coord>12.081095 51.545464 269.83755</gx:coord>
        <when>2026-01-01T00:15:58.1672500Z</when>
        <gx:coord>12.083724 51.54478 278.63446</gx:coord>
        <when>2026-01-01T00:16:00.0892500Z</when>
        <gx:coord>12.084227 51.544598 282.29382</gx:coord>
        <when>2026-01-01T00:16:02.0912500Z</when>
        <gx:coord>12.085156 51.54417 288.00003</gx:coord>
        <when>2026-01-01T00:16:03.1672500Z</when>
        <gx:coord>12.08594 51.543644 291.3682</gx:coord>
        <when>2026-01-01T00:16:04.0882500Z</when>
        <gx:coord>12.08594 51.543644 291.3682</gx:coord>
        <when>2026-01-01T00:16:05.0932500Z</when>
        <gx:coord>12.086278 51.54335 292.19177</gx:coord>
        <when>2026-01-01T00:16:06.0952500Z</when>
        <gx:coord>12.086557 51.54303 293.06955</gx:coord>
        <when>2026-01-01T00:16:07.0882500Z</when>
        <gx:coord>12.08698 51.542347 295.96945</gx:coord>
        <when>2026-01-01T00:16:08.0852500Z</when>
        <gx:coord>12.08698 51.542347 295.96945</gx:coord>
        <when>2026-01-01T00:16:08.1682500Z</when>
        <gx:coord>12.087107 51.541985 297.47882</gx:coord>
        <when>2026-01-01T00:16:10.0792500Z</when>
        <gx:coord>12.08718 51.541615 298.53964</gx:coord>
        <when>2026-01-01T00:16:12.0902500Z</when>
        <gx:coord>12.087177 51.540863 299.78766</gx:coord>
        <when>2026-01-01T00:16:13.1672500Z</when>
        <gx:coord>12.08696 51.540115 300.73737</gx:coord>
        <when>2026-01-01T00:16:15.0962500Z</when>
        <gx:coord>12.0867815 51.539745 301.4086</gx:coord>
        <when>2026-01-01T00:16:18.1672500Z</when>
        <gx:coord>12.085666 51.53834 309.67105</gx:coord>
        <when>2026-01-01T00:16:21.1012500Z</when>
        <gx:coord>12.084789 51.53733 329.8086</gx:coord>
        <when>2026-01-01T00:16:23.1682500Z</when>
        <gx:coord>12.084234 51.5367 345.59488</gx:coord>
        <when>2026-01-01T00:16:26.0902500Z</when>
        <gx:coord>12.083424 51.535797 361.9195</gx:coord>
        <when>2026-01-01T00:16:28.1672500Z</when>
        <gx:coord>12.082872 51.53519 363.17892</gx:coord>
        <when>2026-01-01T00:16:33.1892500Z</when>
        <gx:coord>12.081443 51.533577 366.59122</gx:coord>
        <when>2026-01-01T00:16:38.1682500Z</when>
        <gx:coord>12.079936 51.531925 368.60403</gx:coord>
        <when>2026-01-01T00:16:39.1022500Z</when>
        <gx:coord>12.079936 51.531925 368.60403</gx:coord>
        <when>2026-01-01T00:16:43.1682500Z</when>
        <gx:coord>12.078264 51.530315 368.41278</gx:coord>
        <when>2026-01-01T00:16:44.0902500Z</when>
        <gx:coord>12.078264 51.530315 368.41278</gx:coord>
        <when>2026-01-01T00:16:45.1132500Z</when>
        <gx:coord>12.077395 51.52978 369.0417</gx:coord>
        <when>2026-01-01T00:16:46.0902500Z</when>
        <gx:coord>12.077395 51.52978 370.5845</gx:coord>
        <when>2026-01-01T00:16:48.0912500Z</when>
        <gx:coord>12.0763855 51.529373 372.17947</gx:coord>
        <when>2026-01-01T00:16:48.1682500Z</when>
        <gx:coord>12.075843 51.529213 372.62598</gx:coord>
        <when>2026-01-01T00:16:50.0872500Z</when>
        <gx:coord>12.075274 51.529087 372.35526</gx:coord>
        <when>2026-01-01T00:16:53.0892500Z</when>
        <gx:coord>12.073479 51.52889 369.84818</gx:coord>
        <when>2026-01-01T00:16:53.1682500Z</when>
        <gx:coord>12.072863 51.528877 368.8495</gx:coord>
        <when>2026-01-01T00:16:57.0862500Z</when>
        <gx:coord>12.070992 51.528965 367.61176</gx:coord>
        <when>2026-01-01T00:16:58.1672500Z</when>
        <gx:coord>12.069725 51.529102 362.628</gx:coord>
        <when>2026-01-01T00:17:00.0902500Z</when>
        <gx:coord>12.069081 51.529186 361.57574</gx:coord>
        <when>2026-01-01T00:17:03.1692500Z</when>
        <gx:coord>12.066465 51.529556 357.78104</gx:coord>
        <when>2026-01-01T00:17:08.0882500Z</when>
        <gx:coord>12.063911 51.529984 366.77884</gx:coord>
        <when>2026-01-01T00:17:08.1682500Z</when>
        <gx:coord>12.063306 51.530117 368.9135</gx:coord>
        <when>2026-01-01T00:17:13.1682500Z</when>
        <gx:coord>12.060413 51.53092 369.90677</gx:coord>
        <when>2026-01-01T00:17:18.1682500Z</when>
        <gx:coord>12.057454 51.531754 365.0951</gx:coord>
        <when>2026-01-01T00:17:23.1682500Z</when>
        <gx:coord>12.054449 51.532543 364.27002</gx:coord>
        <when>2026-01-01T00:17:28.1682500Z</when>
        <gx:coord>12.051508 51.53336 367.0933</gx:coord>
        <when>2026-01-01T00:17:29.0932500Z</when>
        <gx:coord>12.050922 51.533524 367.0933</gx:coord>
        <when>2026-01-01T00:17:33.1792500Z</when>
        <gx:coord>12.048551 51.534145 368.2279</gx:coord>
        <when>2026-01-01T00:17:38.1692500Z</when>
        <gx:coord>12.045581 51.534897 377.53967</gx:coord>
        <when>2026-01-01T00:17:43.1682500Z</when>
        <gx:coord>12.042689 51.53573 383.7813</gx:coord>
        <when>2026-01-01T00:17:48.1682500Z</when>
        <gx:coord>12.039844 51.536587 386.63943</gx:coord>
        <when>2026-01-01T00:17:53.1692500Z</when>
        <gx:coord>12.0369625 51.537403 383.64313</gx:coord>
        <when>2026-01-01T00:17:58.1692500Z</when>
        <gx:coord>12.034124 51.538136 381.34128</gx:coord>
        <when>2026-01-01T00:18:00.0942500Z</when>
        <gx:coord>12.033577 51.53827 380.93256</gx:coord>
        <when>2026-01-01T00:18:03.1692500Z</when>
        <gx:coord>12.031458 51.53881 380.58627</gx:coord>
        <when>2026-01-01T00:18:08.1692500Z</when>
        <gx:coord>12.028988 51.539474 385.44135</gx:coord>
        <when>2026-01-01T00:18:13.1692500Z</when>
        <gx:coord>12.026601 51.540123 388.00278</gx:coord>
        <when>2026-01-01T00:18:14.0932500Z</when>
        <gx:coord>12.026127 51.540253 388.00278</gx:coord>
        <when>2026-01-01T00:18:18.1692500Z</when>
        <gx:coord>12.024214 51.540764 386.44217</gx:coord>
        <when>2026-01-01T00:18:23.1692500Z</when>
        <gx:coord>12.02176 51.54137 384.3513</gx:coord>
        <when>2026-01-01T00:18:28.1692500Z</when>
        <gx:coord>12.019312 51.542038 382.13913</gx:coord>
        <when>2026-01-01T00:18:33.1932500Z</when>
        <gx:coord>12.016883 51.54276 376.0718</gx:coord>
        <when>2026-01-01T00:18:38.1682500Z</when>
        <gx:coord>12.014369 51.543446 367.90485</gx:coord>
        <when>2026-01-01T00:18:43.1692500Z</when>
        <gx:coord>12.011758 51.54414 360.82773</gx:coord>
        <when>2026-01-01T00:18:48.1682500Z</when>
        <gx:coord>12.009084 51.544827 359.39478</gx:coord>
        <when>2026-01-01T00:18:52.0892500Z</when>
        <gx:coord>12.007516 51.545273 362.31442</gx:coord>
        <when>2026-01-01T00:18:53.1692500Z</when>
        <gx:coord>12.006604 51.545692 365.96475</gx:coord>
        <when>2026-01-01T00:18:54.0932500Z</when>
        <gx:coord>12.006604 51.545692 365.96475</gx:coord>
        <when>2026-01-01T00:18:56.0892500Z</when>
        <gx:coord>12.005866 51.546223 368.58203</gx:coord>
        <when>2026-01-01T00:18:58.0882500Z</when>
        <gx:coord>12.005301 51.546837 369.61505</gx:coord>
        <when>2026-01-01T00:18:58.1692500Z</when>
        <gx:coord>12.005083 51.54717 369.13232</gx:coord>
        <when>2026-01-01T00:19:01.1102500Z</when>
        <gx:coord>12.004779 51.547867 367.1398</gx:coord>
        <when>2026-01-01T00:19:03.1692500Z</when>
        <gx:coord>12.00458 51.548965 360.76862</gx:coord>
        <when>2026-01-01T00:19:05.0892500Z</when>
        <gx:coord>12.004581 51.549343 359.16293</gx:coord>
        <when>2026-01-01T00:19:07.0962500Z</when>
        <gx:coord>12.004798 51.55048 356.77496</gx:coord>
        <when>2026-01-01T00:19:08.0912500Z</when>
        <gx:coord>12.004798 51.55048 355.2582</gx:coord>
        <when>2026-01-01T00:19:08.1692500Z</when>
        <gx:coord>12.004947 51.550858 353.43738</gx:coord>
        <when>2026-01-01T00:19:13.1692500Z</when>
        <gx:coord>12.006014 51.55269 341.30774</gx:coord>
        <when>2026-01-01T00:19:18.1022500Z</when>
        <gx:coord>12.007115 51.554516 329.9566</gx:coord>
        <when>2026-01-01T00:19:18.1692500Z</when>
        <gx:coord>12.007115 51.554516 329.9566</gx:coord>
        <when>2026-01-01T00:19:23.1682500Z</when>
        <gx:coord>12.008161 51.55632 322</gx:coord>
        <when>2026-01-01T00:19:28.1692500Z</when>
        <gx:coord>12.009215 51.55805 319.32895</gx:coord>
        <when>2026-01-01T00:19:31.0902500Z</when>
        <gx:coord>12.009657 51.558716 320.1605</gx:coord>
        <when>2026-01-01T00:19:33.2222500Z</when>
        <gx:coord>12.010336 51.55966 321.6632</gx:coord>
        <when>2026-01-01T00:19:37.0892500Z</when>
        <gx:coord>12.011141 51.56054 322.6136</gx:coord>
        <when>2026-01-01T00:19:38.1762500Z</when>
        <gx:coord>12.011832 51.56106 321.92014</gx:coord>
        <when>2026-01-01T00:19:40.0882500Z</when>
        <gx:coord>12.012227 51.561295 320.34515</gx:coord>
        <when>2026-01-01T00:19:43.0922500Z</when>
        <gx:coord>12.013584 51.561886 314.259</gx:coord>
        <when>2026-01-01T00:19:43.1692500Z</when>
        <gx:coord>12.014094 51.562027 312.52255</gx:coord>
        <when>2026-01-01T00:19:46.0952500Z</when>
        <gx:coord>12.015157 51.562233 309.3826</gx:coord>
        <when>2026-01-01T00:19:48.1692500Z</when>
        <gx:coord>12.01681 51.562363 302.40472</gx:coord>
        <when>2026-01-01T00:19:49.0882500Z</when>
        <gx:coord>12.01681 51.562363 302.40472</gx:coord>
        <when>2026-01-01T00:19:50.0902500Z</when>
        <gx:coord>12.017932 51.562336 297.23157</gx:coord>
        <when>2026-01-01T00:19:52.0912500Z</when>
        <gx:coord>12.01849 51.56228 294.12833</gx:coord>
        <when>2026-01-01T00:19:53.1692500Z</when>
        <gx:coord>12.019589 51.5621 288.2135</gx:coord>
        <when>2026-01-01T00:19:57.0892500Z</when>
        <gx:coord>12.021209 51.561745 280.058</gx:coord>
        <when>2026-01-01T00:19:58.1692500Z</when>
        <gx:coord>12.022253 51.561466 274.59442</gx:coord>
        <when>2026-01-01T00:20:01.0872500Z</when>
        <gx:coord>12.023793 51.561012 266.14468</gx:coord>
        <when>2026-01-01T00:20:03.1692500Z</when>
        <gx:coord>12.024825 51.560707 260.76715</gx:coord>
        <when>2026-01-01T00:20:07.0942500Z</when>
        <gx:coord>12.026919 51.56015 253.45883</gx:coord>
        <when>2026-01-01T00:20:08.1702500Z</when>
        <gx:coord>12.027434 51.560005 246.81609</gx:coord>
        <when>2026-01-01T00:20:12.0882500Z</when>
        <gx:coord>12.02948 51.559418 233.85875</gx:coord>
        <when>2026-01-01T00:20:13.1702500Z</when>
        <gx:coord>12.029986 51.559273 230.80542</gx:coord>
        <when>2026-01-01T00:20:18.1702500Z</when>
        <gx:coord>12.032482 51.55854 216.92744</gx:coord>
        <when>2026-01-01T00:20:22.0892500Z</when>
        <gx:coord>12.034474 51.55796 202.56497</gx:coord>
        <when>2026-01-01T00:20:23.1702500Z</when>
        <gx:coord>12.034971 51.557816 199.75471</gx:coord>
        <when>2026-01-01T00:20:28.1702500Z</when>
        <gx:coord>12.037398 51.55713 183.58362</gx:coord>
        <when>2026-01-01T00:20:32.0892500Z</when>
        <gx:coord>12.039289 51.556553 170.97946</gx:coord>
        <when>2026-01-01T00:20:33.1852500Z</when>
        <gx:coord>12.039761 51.556416 166.7925</gx:coord>
        <when>2026-01-01T00:20:37.0852500Z</when>
        <gx:coord>12.041151 51.556007 156.31966</gx:coord>
        <when>2026-01-01T00:20:38.1702500Z</when>
        <gx:coord>12.042071 51.55574 148.54976</gx:coord>
        <when>2026-01-01T00:20:41.0922500Z</when>
        <gx:coord>12.04345 51.555347 139.56775</gx:coord>
        <when>2026-01-01T00:20:43.1702500Z</when>
        <gx:coord>12.044357 51.55509 133.14995</gx:coord>
        <when>2026-01-01T00:20:48.1702500Z</when>
        <gx:coord>12.046499 51.554455 119.43851</gx:coord>
        <when>2026-01-01T00:20:52.0882500Z</when>
        <gx:coord>12.047729 51.554104 114.96357</gx:coord>
        <when>2026-01-01T00:20:53.1702500Z</when>
        <gx:coord>12.048507 51.55389 114.177284</gx:coord>
        <when>2026-01-01T00:20:58.1702500Z</when>
        <gx:coord>12.050276 51.55339 112.51015</gx:coord>
        <when>2026-01-01T00:21:00.0892500Z</when>
        <gx:coord>12.050604 51.5533 112.2838</gx:coord>
        <when>2026-01-01T00:21:01.0922500Z</when>
        <gx:coord>12.051256 51.55312 112.003456</gx:coord>
        <when>2026-01-01T00:21:03.1702500Z</when>
        <gx:coord>12.051939 51.55292 111.37748</gx:coord>
        <when>2026-01-01T00:21:06.0872500Z</when>
        <gx:coord>12.052696 51.55271 111.03408</gx:coord>
        <when>2026-01-01T00:21:08.1702500Z</when>
        <gx:coord>12.053954 51.552353 110.47555</gx:coord>
        <when>2026-01-01T00:21:11.0912500Z</when>
        <gx:coord>12.054868 51.552097 111.66809</gx:coord>
        <when>2026-01-01T00:21:13.1702500Z</when>
        <gx:coord>12.056307 51.5517 116.22087</gx:coord>
        <when>2026-01-01T00:21:18.1702500Z</when>
        <gx:coord>12.058778 51.551014 131.47488</gx:coord>
        <when>2026-01-01T00:21:23.1702500Z</when>
        <gx:coord>12.061196 51.550358 155.51549</gx:coord>
        <when>2026-01-01T00:21:27.0882500Z</when>
        <gx:coord>12.06307 51.549873 174.2598</gx:coord>
        <when>2026-01-01T00:21:28.1702500Z</when>
        <gx:coord>12.063531 51.549755 179.00256</gx:coord>
        <when>2026-01-01T00:21:33.1872500Z</when>
        <gx:coord>12.065822 51.549183 197.5495</gx:coord>
        <when>2026-01-01T00:21:38.1702500Z</when>
        <gx:coord>12.068199 51.54862 204.25244</gx:coord>
        <when>2026-01-01T00:21:39.0892500Z</when>
        <gx:coord>12.06869 51.548496 205.62543</gx:coord>
        <when>2026-01-01T00:21:43.1702500Z</when>
        <gx:coord>12.070653 51.547974 214.06937</gx:coord>
        <when>2026-01-01T00:21:48.1702500Z</when>
        <gx:coord>12.073124 51.54729 229.38304</gx:coord>
        <when>2026-01-01T00:21:50.0952500Z</when>
        <gx:coord>12.07409 51.54702 239.25208</gx:coord>
        <when>2026-01-01T00:21:53.1702500Z</when>
        <gx:coord>12.075551 51.546616 249.05061</gx:coord>
        <when>2026-01-01T00:21:54.0932500Z</when>
        <gx:coord>12.076037 51.546486 249.05061</gx:coord>
        <when>2026-01-01T00:21:58.1702500Z</when>
        <gx:coord>12.077978 51.545986 269.50943</gx:coord>
        <when>2026-01-01T00:21:59.0972500Z</when>
        <gx:coord>12.078462 51.545868 273.48087</gx:coord>
        <when>2026-01-01T00:22:03.1732500Z</when>
        <gx:coord>12.080382 51.545376 283.56082</gx:coord>
        <when>2026-01-01T00:22:08.1702500Z</when>
        <gx:coord>12.082877 51.544735 295.49783</gx:coord>
        <when>2026-01-01T00:22:11.0872500Z</when>
        <gx:coord>12.083813 51.544395 301.4302</gx:coord>
        <when>2026-01-01T00:22:12.0872500Z</when>
        <gx:coord>12.084672 51.543987 304.82816</gx:coord>
        <when>2026-01-01T00:22:13.1722500Z</when>
        <gx:coord>12.085067 51.54376 307.09848</gx:coord>
        <when>2026-01-01T00:22:14.0932500Z</when>
        <gx:coord>12.085067 51.54376 307.09848</gx:coord>
        <when>2026-01-01T00:22:17.0912500Z</when>
        <gx:coord>12.0860815 51.542988 315.9125</gx:coord>
        <when>2026-01-01T00:22:18.1702500Z</when>
        <gx:coord>12.086577 51.54242 323.03107</gx:coord>
        <when>2026-01-01T00:22:20.0912500Z</when>
        <gx:coord>12.086781 51.542126 326.2864</gx:coord>
        <when>2026-01-01T00:22:22.0902500Z</when>
        <gx:coord>12.087217 51.54122 337.1464</gx:coord>
        <when>2026-01-01T00:22:23.0852500Z</when>
        <gx:coord>12.087217 51.54122 337.1464</gx:coord>
        <when>2026-01-01T00:22:23.1702500Z</when>
        <gx:coord>12.087294 51.540913 341.545</gx:coord>
        <when>2026-01-01T00:22:26.0922500Z</when>
        <gx:coord>12.087349 51.540295 348.95706</gx:coord>
        <when>2026-01-01T00:22:28.1702500Z</when>
        <gx:coord>12.087178 51.539368 356.83386</gx:coord>
        <when>2026-01-01T00:22:29.0912500Z</when>
        <gx:coord>12.087178 51.539368 356.83386</gx:coord>
        <when>2026-01-01T00:22:32.0892500Z</when>
        <gx:coord>12.086697 51.53848 361.7136</gx:coord>
        <when>2026-01-01T00:22:33.1872500Z</when>
        <gx:coord>12.086233 51.53788 357.95517</gx:coord>
        <when>2026-01-01T00:22:36.0892500Z</when>
        <gx:coord>12.085726 51.537235 352.0868</gx:coord>
        <when>2026-01-01T00:22:38.1702500Z</when>
        <gx:coord>12.084913 51.53621 346.76117</gx:coord>
        <when>2026-01-01T00:22:43.1702500Z</when>
        <gx:coord>12.083466 51.53444 345.57858</gx:coord>
        <when>2026-01-01T00:22:48.1702500Z</when>
        <gx:coord>12.081966 51.53265 349.91702</gx:coord>
        <when>2026-01-01T00:22:53.1712500Z</when>
        <gx:coord>12.080362 51.530914 361.0267</gx:coord>
        <when>2026-01-01T00:22:55.0912500Z</when>
        <gx:coord>12.080012 51.530586 363.14142</gx:coord>
        <when>2026-01-01T00:22:56.1112500Z</when>
        <gx:coord>12.079238 51.52997 366.01114</gx:coord>
        <when>2026-01-01T00:22:56.1112500Z</when>
        <gx:coord>12.079238 51.52997 368.81525</gx:coord>
        <when>2026-01-01T00:22:58.0902500Z</when>
        <gx:coord>12.07881 51.529686 372.2433</gx:coord>
        <when>2026-01-01T00:22:58.1712500Z</when>
        <gx:coord>12.078354 51.529427 374.58725</gx:coord>
        <when>2026-01-01T00:23:01.1092500Z</when>
        <gx:coord>12.077369 51.52896 378.13904</gx:coord>
        <when>2026-01-01T00:23:03.1712500Z</when>
        <gx:coord>12.075732 51.5284 377.2596</gx:coord>
        <when>2026-01-01T00:23:04.0972500Z</when>
        <gx:coord>12.075732 51.5284 377.2596</gx:coord>
        <when>2026-01-01T00:23:07.0952500Z</when>
        <gx:coord>12.073942 51.52804 376.66077</gx:coord>
        <when>2026-01-01T00:23:08.1712500Z</when>
        <gx:coord>12.072693 51.527927 376.74387</gx:coord>
        <when>2026-01-01T00:23:10.0892500Z</when>
        <gx:coord>12.072059 51.52791 376.21005</gx:coord>
        <when>2026-01-01T00:23:13.0932500Z</when>
        <gx:coord>12.070136 51.528 374.04916</gx:coord>
        <when>2026-01-01T00:23:13.1712500Z</when>
        <gx:coord>12.069497 51.528088 373.00082</gx:coord>
        <when>2026-01-01T00:23:17.0912500Z</when>
        <gx:coord>12.067596 51.52847 366.01953</gx:coord>
        <when>2026-01-01T00:23:17.0912500Z</when>
        <gx:coord>12.067596 51.52847 366.01953</gx:coord>
        <when>2026-01-01T00:23:18.1712500Z</when>
        <gx:coord>12.066333 51.528793 359.5518</gx:coord>
        <when>2026-01-01T00:23:23.1712500Z</when>
        <gx:coord>12.063185 51.52965 363.9122</gx:coord>
        <when>2026-01-01T00:23:28.1712500Z</when>
        <gx:coord>12.060201 51.530605 374.36847</gx:coord>
        <when>2026-01-01T00:23:33.1702500Z</when>
        <gx:coord>12.057206 51.531418 380.2867</gx:coord>
        <when>2026-01-01T00:23:38.1712500Z</when>
        <gx:coord>12.054169 51.532154 379.0905</gx:coord>
        <when>2026-01-01T00:23:41.1172500Z</when>
        <gx:coord>12.052338 51.53261 376.22244</gx:coord>
        <when>2026-01-01T00:23:43.1712500Z</when>
        <gx:coord>12.051117 51.53294 374.89447</gx:coord>
        <when>2026-01-01T00:23:48.1712500Z</when>
        <gx:coord>12.048067 51.533794 374.08597</gx:coord>
        <when>2026-01-01T00:23:53.1702500Z</when>
        <gx:coord>12.044997 51.534626 371.8242</gx:coord>
        <when>2026-01-01T00:23:58.1712500Z</when>
        <gx:coord>12.041967 51.535477 372.50293</gx:coord>
        <when>2026-01-01T00:24:03.1712500Z</when>
        <gx:coord>12.038997 51.536346 374.43372</gx:coord>
        <when>2026-01-01T00:24:08.1712500Z</when>
        <gx:coord>12.03606 51.537186 371.38077</gx:coord>
        <when>2026-01-01T00:24:11.1082500Z</when>
        <gx:coord>12.034931 51.537495 369.99127</gx:coord>
        <when>2026-01-01T00:24:13.1712500Z</when>
        <gx:coord>12.033297 51.537903 369.31622</gx:coord>
        <when>2026-01-01T00:24:18.1702500Z</when>
        <gx:coord>12.030732 51.5385 374.40335</gx:coord>
        <when>2026-01-01T00:24:23.1712500Z</when>
        <gx:coord>12.028245 51.539074 379.7083</gx:coord>
        <when>2026-01-01T00:24:24.0972500Z</when>
        <gx:coord>12.02775 51.539192 379.7083</gx:coord>
        <when>2026-01-01T00:24:28.1712500Z</when>
        <gx:coord>12.025793 51.539726 378.3805</gx:coord>
        <when>2026-01-01T00:24:31.0892500Z</when>
        <gx:coord>12.0248375 51.540012 378.09335</gx:coord>
        <when>2026-01-01T00:24:33.2242500Z</when>
        <gx:coord>12.023424 51.540436 377.78952</gx:coord>
        <when>2026-01-01T00:24:38.1712500Z</when>
        <gx:coord>12.021075 51.541103 375.9483</gx:coord>
        <when>2026-01-01T00:24:43.1712500Z</when>
        <gx:coord>12.018696 51.541718 376.99207</gx:coord>
        <when>2026-01-01T00:24:48.1712500Z</when>
        <gx:coord>12.0163 51.542347 373.78995</gx:coord>
        <when>2026-01-01T00:24:53.1712500Z</when>
        <gx:coord>12.013914 51.542965 373.25027</gx:coord>
        <when>2026-01-01T00:24:58.1712500Z</when>
        <gx:coord>12.011499 51.54361 370.86966</gx:coord>
        <when>2026-01-01T00:25:03.1712500Z</when>
        <gx:coord>12.0090475 51.544266 370.2996</gx:coord>
        <when>2026-01-01T00:25:08.0912500Z</when>
        <gx:coord>12.007141 51.544834 374.73306</gx:coord>
        <when>2026-01-01T00:25:08.1702500Z</when>
        <gx:coord>12.006703 51.54502 375.67044</gx:coord>
        <when>2026-01-01T00:25:11.0872500Z</when>
        <gx:coord>12.005906 51.545456 375.99796</gx:coord>
        <when>2026-01-01T00:25:13.0882500Z</when>
        <gx:coord>12.005242 51.545986 375.29062</gx:coord>
        <when>2026-01-01T00:25:13.1712500Z</when>
        <gx:coord>12.00497 51.54628 375.2903</gx:coord>
        <when>2026-01-01T00:25:15.0922500Z</when>
        <gx:coord>12.004743 51.546593 375.4011</gx:coord>
        <when>2026-01-01T00:25:17.0962500Z</when>
        <gx:coord>12.004448 51.547268 376.9328</gx:coord>
        <when>2026-01-01T00:25:17.1002500Z</when>
        <gx:coord>12.004367 51.54762 376.9328</gx:coord>
        <when>2026-01-01T00:25:18.1712500Z</when>
        <gx:coord>12.004334 51.547977 375.673</gx:coord>
        <when>2026-01-01T00:25:19.0882500Z</when>
        <gx:coord>12.004334 51.547977 375.673</gx:coord>
        <when>2026-01-01T00:25:22.1052500Z</when>
        <gx:coord>12.004503 51.549084 376.45737</gx:coord>
        <when>2026-01-01T00:25:23.1712500Z</when>
        <gx:coord>12.004759 51.54981 374.45688</gx:coord>
        <when>2026-01-01T00:25:27.0932500Z</when>
        <gx:coord>12.0053 51.55087 366.50455</gx:coord>
        <when>2026-01-01T00:25:28.1712500Z</when>
        <gx:coord>12.005723 51.551556 361.54935</gx:coord>
        <when>2026-01-01T00:25:33.1882500Z</when>
        <gx:coord>12.006715 51.55328 347.53888</gx:coord>
        <when>2026-01-01T00:25:36.0892500Z</when>
        <gx:coord>12.007155 51.553974 339.62918</gx:coord>
        <when>2026-01-01T00:25:36.0902500Z</when>
        <gx:coord>12.007387 51.55432 336.3957</gx:coord>
        <when>2026-01-01T00:25:38.1702500Z</when>
        <gx:coord>12.007872 51.555008 330.53656</gx:coord>
        <when>2026-01-01T00:25:43.1712500Z</when>
        <gx:coord>12.009123 51.55674 313.63263</gx:coord>
        <when>2026-01-01T00:25:48.1712500Z</when>
        <gx:coord>12.010406 51.55841 313.89743</gx:coord>
        <when>2026-01-01T00:25:53.0922500Z</when>
        <gx:coord>12.011428 51.5596 311.70255</gx:coord>
        <when>2026-01-01T00:25:53.1712500Z</when>
        <gx:coord>12.011719 51.559875 310.5473</gx:coord>
        <when>2026-01-01T00:25:56.0942500Z</when>
        <gx:coord>12.012389 51.560387 307.33176</gx:coord>
        <when>2026-01-01T00:25:56.0942500Z</when>
        <gx:coord>12.012769 51.56062 305.116</gx:coord>
        <when>2026-01-01T00:25:58.1712500Z</when>
        <gx:coord>12.013602 51.561028 300.37708</gx:coord>
        <when>2026-01-01T00:25:59.0982500Z</when>
        <gx:coord>12.013602 51.561028 300.37708</gx:coord>
        <when>2026-01-01T00:26:02.0852500Z</when>
        <gx:coord>12.015021 51.561504 293.17926</gx:coord>
        <when>2026-01-01T00:26:03.1712500Z</when>
        <gx:coord>12.016056 51.561707 288.03262</gx:coord>
        <when>2026-01-01T00:26:05.0902500Z</when>
        <gx:coord>12.016587 51.561775 285.51938</gx:coord>
        <when>2026-01-01T00:26:07.1002500Z</when>
        <gx:coord>12.018209 51.56187 281.18716</gx:coord>
        <when>2026-01-01T00:26:08.0912500Z</when>
        <gx:coord>12.018209 51.56187 278.47717</gx:coord>
        <when>2026-01-01T00:26:08.1712500Z</when>
        <gx:coord>12.018756 51.56186 275.80173</gx:coord>
        <when>2026-01-01T00:26:09.0912500Z</when>
        <gx:coord>12.0192995 51.56182 273.75314</gx:coord>
        <when>2026-01-01T00:26:11.0942500Z</when>
        <gx:coord>12.019835 51.561756 271.10403</gx:coord>
        <when>2026-01-01T00:26:13.1712500Z</when>
        <gx:coord>12.021422 51.56149 263.54373</gx:coord>
        <when>2026-01-01T00:26:18.1712500Z</when>
        <gx:coord>12.024026 51.56091 252.68927</gx:coord>
        <when>2026-01-01T00:26:19.0922500Z</when>
        <gx:coord>12.024026 51.56091 252.68927</gx:coord>
        <when>2026-01-01T00:26:23.0942500Z</when>
        <gx:coord>12.026537 51.56018 242.11525</gx:coord>
        <when>2026-01-01T00:26:23.1712500Z</when>
        <gx:coord>12.026537 51.56018 242.11525</gx:coord>
        <when>2026-01-01T00:26:28.1712500Z</when>
        <gx:coord>12.0290365 51.559452 228.01341</gx:coord>
        <when>2026-01-01T00:26:33.1812500Z</when>
        <gx:coord>12.031563 51.55873 216.40147</gx:coord>
        <when>2026-01-01T00:26:37.0842500Z</when>
        <gx:coord>12.033575 51.558178 209.30005</gx:coord>
        <when>2026-01-01T00:26:38.1722500Z</when>
        <gx:coord>12.034068 51.55804 206.76619</gx:coord>
        <when>2026-01-01T00:26:42.0912500Z</when>
        <gx:coord>12.035515 51.557632 197.42624</gx:coord>
        <when>2026-01-01T00:26:43.1722500Z</when>
        <gx:coord>12.036463 51.557358 190.71028</gx:coord>
        <when>2026-01-01T00:26:48.0902500Z</when>
        <gx:coord>12.038813 51.55668 175.50327</gx:coord>
        <when>2026-01-01T00:26:48.1722500Z</when>
        <gx:coord>12.038813 51.55668 175.50327</gx:coord>
        <when>2026-01-01T00:26:53.1722500Z</when>
        <gx:coord>12.041198 51.556004 158.49918</gx:coord>
        <when>2026-01-01T00:26:57.0992500Z</when>
        <gx:coord>12.043122 51.55545 149.02005</gx:coord>
        <when>2026-01-01T00:26:58.0922500Z</when>
        <gx:coord>12.043602 51.555313 141.71161</gx:coord>
        <when>2026-01-01T00:26:58.1722500Z</when>
        <gx:coord>12.043602 51.555313 141.71161</gx:coord>
        <when>2026-01-01T00:27:03.1722500Z</when>
        <gx:coord>12.045949 51.554626 125.30672</gx:coord>
        <when>2026-01-01T00:27:08.1712500Z</when>
        <gx:coord>12.048164 51.553986 116.298485</gx:coord>
        <when>2026-01-01T00:27:13.1722500Z</when>
        <gx:coord>12.050485 51.553333 114.666855</gx:coord>
        <when>2026-01-01T00:27:18.1712500Z</when>
        <gx:coord>12.052964 51.552635 113.05658</gx:coord>
        <when>2026-01-01T00:27:23.1722500Z</when>
        <gx:coord>12.055568 51.551903 112.399796</gx:coord>
        <when>2026-01-01T00:27:28.1712500Z</when>
        <gx:coord>12.058136 51.55118 129.33144</gx:coord>
        <when>2026-01-01T00:27:33.1732500Z</when>
        <gx:coord>12.060408 51.5506 150.1303</gx:coord>
        <when>2026-01-01T00:27:38.1722500Z</when>
        <gx:coord>12.062682 51.550053 158.84077</gx:coord>
        <when>2026-01-01T00:27:43.1722500Z</when>
        <gx:coord>12.065073 51.549507 165.15219</gx:coord>
        <when>2026-01-01T00:27:48.1712500Z</when>
        <gx:coord>12.067725 51.548958 168.98193</gx:coord>
        <when>2026-01-01T00:27:49.0962500Z</when>
        <gx:coord>12.068275 51.548847 168.98193</gx:coord>
        <when>2026-01-01T00:27:50.0942500Z</when>
        <gx:coord>12.068828 51.548737 174.35599</gx:coord>
        <when>2026-01-01T00:27:53.1722500Z</when>
        <gx:coord>12.070478 51.54841 186.56621</gx:coord>
        <when>2026-01-01T00:27:58.0892500Z</when>
        <gx:coord>12.073199 51.5478 206.15846</gx:coord>
        <when>2026-01-01T00:27:58.1712500Z</when>
        <gx:coord>12.073199 51.5478 206.15846</gx:coord>
        <when>2026-01-01T00:28:03.1722500Z</when>
        <gx:coord>12.075776 51.54713 230.09088</gx:coord>
        <when>2026-01-01T00:28:05.0902500Z</when>
        <gx:coord>12.076783 51.54687 239.35974</gx:coord>
        <when>2026-01-01T00:28:08.1722500Z</when>
        <gx:coord>12.078307 51.546486 249.15662</gx:coord>
        <when>2026-01-01T00:28:13.0912500Z</when>
        <gx:coord>12.08081 51.54586 271.25653</gx:coord>
        <when>2026-01-01T00:28:13.1722500Z</when>
        <gx:coord>12.08081 51.54586 271.25653</gx:coord>
        <when>2026-01-01T00:28:18.1712500Z</when>
        <gx:coord>12.083199 51.545242 296.5068</gx:coord>
        <when>2026-01-01T00:28:21.0872500Z</when>
        <gx:coord>12.0846195 51.544834 304.33682</gx:coord>
        <when>2026-01-01T00:28:23.1722500Z</when>
        <gx:coord>12.0855255 51.544514 310.51022</gx:coord>
        <when>2026-01-01T00:28:24.0942500Z</when>
        <gx:coord>12.0855255 51.544514 310.51022</gx:coord>
        <when>2026-01-01T00:28:26.0932500Z</when>
        <gx:coord>12.086331 51.5441 314.84375</gx:coord>
        <when>2026-01-01T00:28:28.4422500Z</when>
        <gx:coord>12.087008 51.5436 317.49948</gx:coord>
        <when>2026-01-01T00:28:28.4422500Z</when>
        <gx:coord>12.087288 51.543316 318.29822</gx:coord>
        <when>2026-01-01T00:28:30.0922500Z</when>
        <gx:coord>12.087522 51.54302 319.50607</gx:coord>
        <when>2026-01-01T00:28:32.0952500Z</when>
        <gx:coord>12.087851 51.54239 323.04257</gx:coord>
        <when>2026-01-01T00:28:33.1722500Z</when>
        <gx:coord>12.087994 51.54174 327.6748</gx:coord>
        <when>2026-01-01T00:28:35.0912500Z</when>
        <gx:coord>12.087997 51.541412 330.3874</gx:coord>
        <when>2026-01-01T00:28:36.0932500Z</when>
        <gx:coord>12.087833 51.54078 336.37836</gx:coord>
        <when>2026-01-01T00:28:37.0922500Z</when>
        <gx:coord>12.087833 51.54078 336.37836</gx:coord>
        <when>2026-01-01T00:28:38.1722500Z</when>
        <gx:coord>12.087488 51.540165 338.51578</gx:coord>
        <when>2026-01-01T00:28:40.0912500Z</when>
        <gx:coord>12.087263 51.539867 339.93472</gx:coord>
        <when>2026-01-01T00:28:43.1722500Z</when>
        <gx:coord>12.086274 51.53872 353.89447</gx:coord>
        <when>2026-01-01T00:28:48.1972500Z</when>
        <gx:coord>12.084901 51.53726 355.07187</gx:coord>
        <when>2026-01-01T00:28:53.1722500Z</when>
        <gx:coord>12.083432 51.53568 355.3208</gx:coord>
        <when>2026-01-01T00:28:56.0922500Z</when>
        <gx:coord>12.082555 51.534737 355.39093</gx:coord>
        <when>2026-01-01T00:28:58.1722500Z</when>
        <gx:coord>12.08196 51.53411 354.61453</gx:coord>
        <when>2026-01-01T00:29:03.1722500Z</when>
        <gx:coord>12.080458 51.532524 360.80573</gx:coord>
        <when>2026-01-01T00:29:05.0902500Z</when>
        <gx:coord>12.079826 51.53191 366.8764</gx:coord>
        <when>2026-01-01T00:29:08.1722500Z</when>
        <gx:coord>12.078835 51.53101 374.1898</gx:coord>
        <when>2026-01-01T00:29:10.0902500Z</when>
        <gx:coord>12.078495 51.530716 377.3965</gx:coord>
        <when>2026-01-01T00:29:13.1722500Z</when>
        <gx:coord>12.077036 51.529606 380.0382</gx:coord>
        <when>2026-01-01T00:29:16.0922500Z</when>
        <gx:coord>12.076193 51.529095 378.8672</gx:coord>
        <when>2026-01-01T00:29:18.1102500Z</when>
        <gx:coord>12.075223 51.528656 377.23688</gx:coord>
        <when>2026-01-01T00:29:18.1722500Z</when>
        <gx:coord>12.074692 51.528477 376.16187</gx:coord>
        <when>2026-01-01T00:29:19.0902500Z</when>
        <gx:coord>12.074692 51.528477 376.16187</gx:coord>
        <when>2026-01-01T00:29:21.1142500Z</when>
        <gx:coord>12.07355 51.528202 373.5224</gx:coord>
        <when>2026-01-01T00:29:23.1722500Z</when>
        <gx:coord>12.071681 51.52802 370.05032</gx:coord>
        <when>2026-01-01T00:29:24.0912500Z</when>
        <gx:coord>12.071681 51.52802 370.05032</gx:coord>
        <when>2026-01-01T00:29:28.0942500Z</when>
        <gx:coord>12.069052 51.528164 366.89655</gx:coord>
        <when>2026-01-01T00:29:28.1722500Z</when>
        <gx:coord>12.068388 51.528255 366.871</gx:coord>
        <when>2026-01-01T00:29:29.0902500Z</when>
        <gx:coord>12.068388 51.528255 366.871</gx:coord>
        <when>2026-01-01T00:29:32.1132500Z</when>
        <gx:coord>12.066414 51.528664 365.67935</gx:coord>
        <when>2026-01-01T00:29:33.2192500Z</when>
        <gx:coord>12.06512 51.529026 361.25266</gx:coord>
        <when>2026-01-01T00:29:38.1722500Z</when>
        <gx:coord>12.061859 51.529964 358.30026</gx:coord>
        <when>2026-01-01T00:29:43.1722500Z</when>
        <gx:coord>12.0585985 51.53086 363.4492</gx:coord>
        <when>2026-01-01T00:29:47.1162500Z</when>
        <gx:coord>12.056029 51.531593 365.0047</gx:coord>
        <when>2026-01-01T00:29:48.1712500Z</when>
        <gx:coord>12.055394 51.531784 365.3623</gx:coord>
        <when>2026-01-01T00:29:53.1722500Z</when>
        <gx:coord>12.052258 51.532745 370.2401</gx:coord>
        <when>2026-01-01T00:29:58.1722500Z</when>
        <gx:coord>12.049109 51.53361 370.32385</gx:coord>
        <when>2026-01-01T00:30:03.1722500Z</when>
        <gx:coord>12.045969 51.53446 369.59415</gx:coord>
        <when>2026-01-01T00:30:08.1722500Z</when>
        <gx:coord>12.042871 51.53529 375.40027</gx:coord>
        <when>2026-01-01T00:30:13.1722500Z</when>
        <gx:coord>12.039809 51.53611 386.14655</gx:coord>
        <when>2026-01-01T00:30:18.1722500Z</when>
        <gx:coord>12.0368 51.536934 392.83762</gx:coord>
        <when>2026-01-01T00:30:23.1722500Z</when>
        <gx:coord>12.033836 51.537777 386.78876</gx:coord>
        <when>2026-01-01T00:30:27.0932500Z</when>
        <gx:coord>12.032131 51.53826 381.11588</gx:coord>
        <when>2026-01-01T00:30:27.1002500Z</when>
        <gx:coord>12.031578 51.538414 381.11588</gx:coord>
        <when>2026-01-01T00:30:28.1722500Z</when>
        <gx:coord>12.0310335 51.53856 378.94507</gx:coord>
        <when>2026-01-01T00:30:33.1772500Z</when>
        <gx:coord>12.028464 51.53929 373.29324</gx:coord>
        <when>2026-01-01T00:30:38.1732500Z</when>
        <gx:coord>12.026005 51.54 372.5993</gx:coord>
        <when>2026-01-01T00:30:42.0902500Z</when>
        <gx:coord>12.024549 51.54042 371.33157</gx:coord>
        <when>2026-01-01T00:30:43.1732500Z</when>
        <gx:coord>12.023579 51.540684 370.52927</gx:coord>
        <when>2026-01-01T00:30:48.1722500Z</when>
        <gx:coord>12.021178 51.541336 370.40106</gx:coord>
        <when>2026-01-01T00:30:53.1722500Z</when>
        <gx:coord>12.018806 51.54201 368.96112</gx:coord>
        <when>2026-01-01T00:30:58.1732500Z</when>
        <gx:coord>12.016441 51.542698 366.72385</gx:coord>
        <when>2026-01-01T00:31:03.1722500Z</when>
        <gx:coord>12.01407 51.54339 367.34723</gx:coord>
        <when>2026-01-01T00:31:08.1732500Z</when>
        <gx:coord>12.011716 51.544117 368.1337</gx:coord>
        <when>2026-01-01T00:31:13.1732500Z</when>
        <gx:coord>12.00936 51.54487 369.25494</gx:coord>
        <when>2026-01-01T00:31:18.0902500Z</when>
        <gx:coord>12.007503 51.545517 372.36255</gx:coord>
        <when>2026-01-01T00:31:18.0952500Z</when>
        <gx:coord>12.007074 51.54571 372.36255</gx:coord>
        <when>2026-01-01T00:31:18.1732500Z</when>
        <gx:coord>12.007074 51.54571 373.4504</gx:coord>
        <when>2026-01-01T00:31:21.0882500Z</when>
        <gx:coord>12.00628 51.546158 376.55905</gx:coord>
        <when>2026-01-01T00:31:23.0922500Z</when>
        <gx:coord>12.005632 51.546696 378.54736</gx:coord>
        <when>2026-01-01T00:31:23.1732500Z</when>
        <gx:coord>12.005374 51.546997 378.95975</gx:coord>
        <when>2026-01-01T00:31:25.0942500Z</when>
        <gx:coord>12.00516 51.547318 378.78043</gx:coord>
        <when>2026-01-01T00:31:28.0932500Z</when>
        <gx:coord>12.004757 51.548363 378.09995</gx:coord>
        <when>2026-01-01T00:31:28.1732500Z</when>
        <gx:coord>12.004714 51.54873 377.89084</gx:coord>
        <when>2026-01-01T00:31:30.0902500Z</when>
        <gx:coord>12.004724 51.5491 378.6246</gx:coord>
        <when>2026-01-01T00:31:33.0922500Z</when>
        <gx:coord>12.005064 51.550205 378.42435</gx:coord>
        <when>2026-01-01T00:31:33.0932500Z</when>
        <gx:coord>12.005064 51.550205 378.42435</gx:coord>
        <when>2026-01-01T00:31:33.1722500Z</when>
        <gx:coord>12.005283 51.550564 378.0838</gx:coord>
        <when>2026-01-01T00:31:38.1722500Z</when>
        <gx:coord>12.006591 51.552322 369.18655</gx:coord>
        <when>2026-01-01T00:31:43.1732500Z</when>
        <gx:coord>12.007797 51.554047 366.02078</gx:coord>
        <when>2026-01-01T00:31:48.1732500Z</when>
        <gx:coord>12.008861 51.55571 355.39218</gx:coord>
        <when>2026-01-01T00:31:53.1722500Z</when>
        <gx:coord>12.010114 51.55735 347.7762</gx:coord>
        <when>2026-01-01T00:31:58.1732500Z</when>
        <gx:coord>12.011416 51.558887 346.26727</gx:coord>
        <when>2026-01-01T00:32:00.0912500Z</when>
        <gx:coord>12.011667 51.55918 344.61658</gx:coord>
        <when>2026-01-01T00:32:02.0932500Z</when>
        <gx:coord>12.012186 51.55977 340.62872</gx:coord>
        <when>2026-01-01T00:32:03.1742500Z</when>
        <gx:coord>12.012743 51.56035 336.41965</gx:coord>
        <when>2026-01-01T00:32:04.0892500Z</when>
        <gx:coord>12.013045 51.560627 334.1941</gx:coord>
        <when>2026-01-01T00:32:06.0952500Z</when>
        <gx:coord>12.013386 51.560894 332.29288</gx:coord>
        <when>2026-01-01T00:32:08.0922500Z</when>
        <gx:coord>12.014189 51.56137 327.6826</gx:coord>
        <when>2026-01-01T00:32:08.1722500Z</when>
        <gx:coord>12.014647 51.561573 326.26688</gx:coord>
        <when>2026-01-01T00:32:09.0962500Z</when>
        <gx:coord>12.015134 51.561745 326.26688</gx:coord>
        <when>2026-01-01T00:32:10.0872500Z</when>
        <gx:coord>12.015134 51.561745 323.87927</gx:coord>
        <when>2026-01-01T00:32:13.0892500Z</when>
        <gx:coord>12.016727 51.562103 317.42242</gx:coord>
        <when>2026-01-01T00:32:13.1732500Z</when>
        <gx:coord>12.017286 51.56217 315.37234</gx:coord>
        <when>2026-01-01T00:32:15.0902500Z</when>
        <gx:coord>12.017853 51.562187 313.3884</gx:coord>
        <when>2026-01-01T00:32:17.0932500Z</when>
        <gx:coord>12.018984 51.562107 308.11807</gx:coord>
        <when>2026-01-01T00:32:17.0932500Z</when>
        <gx:coord>12.019538 51.562023 303.38016</gx:coord>
        <when>2026-01-01T00:32:18.1732500Z</when>
        <gx:coord>12.020082 51.561913 300.63516</gx:coord>
        <when>2026-01-01T00:32:23.0902500Z</when>
        <gx:coord>12.022216 51.561428 290.25916</gx:coord>
        <when>2026-01-01T00:32:23.1732500Z</when>
        <gx:coord>12.022734 51.5613 287.58502</gx:coord>
        <when>2026-01-01T00:32:28.0932500Z</when>
        <gx:coord>12.025259 51.56059 270.34845</gx:coord>
        <when>2026-01-01T00:32:28.1732500Z</when>
        <gx:coord>12.025259 51.56059 270.34845</gx:coord>
        <when>2026-01-01T00:32:33.1812500Z</when>
        <gx:coord>12.02774 51.55986 255.14679</gx:coord>
        <when>2026-01-01T00:32:38.1732500Z</when>
        <gx:coord>12.030213 51.559166 241.79018</gx:coord>
        <when>2026-01-01T00:32:39.0912500Z</when>
        <gx:coord>12.0307 51.559025 239.02992</gx:coord>
        <when>2026-01-01T00:32:43.1732500Z</when>
        <gx:coord>12.032642 51.55845 226.54572</gx:coord>
        <when>2026-01-01T00:32:48.1732500Z</when>
        <gx:coord>12.035082 51.557777 212.1045</gx:coord>
        <when>2026-01-01T00:32:50.0852500Z</when>
        <gx:coord>12.036028 51.55751 206.77498</gx:coord>
        <when>2026-01-01T00:32:53.1722500Z</when>
        <gx:coord>12.037424 51.557106 197.24158</gx:coord>
        <when>2026-01-01T00:32:58.1732500Z</when>
        <gx:coord>12.03973 51.55644 180.17264</gx:coord>
        <when>2026-01-01T00:33:00.0942500Z</when>
        <gx:coord>12.040644 51.55618 176.32808</gx:coord>
        <when>2026-01-01T00:33:00.0952500Z</when>
        <gx:coord>12.040644 51.55618 172.90788</gx:coord>
        <when>2026-01-01T00:33:03.1732500Z</when>
        <gx:coord>12.042028 51.55577 161.63605</gx:coord>
        <when>2026-01-01T00:33:08.0942500Z</when>
        <gx:coord>12.044363 51.55508 141.06557</gx:coord>
        <when>2026-01-01T00:33:08.1732500Z</when>
        <gx:coord>12.044363 51.55508 141.06557</gx:coord>
        <when>2026-01-01T00:33:13.1732500Z</when>
        <gx:coord>12.046652 51.554417 121.59656</gx:coord>
        <when>2026-01-01T00:33:18.0892500Z</when>
        <gx:coord>12.048404 51.553913 115.60303</gx:coord>
        <when>2026-01-01T00:33:18.1732500Z</when>
        <gx:coord>12.048816 51.5538 114.93618</gx:coord>
        <when>2026-01-01T00:33:23.1732500Z</when>
        <gx:coord>12.050706 51.55327 112.65424</gx:coord>
        <when>2026-01-01T00:33:25.0922500Z</when>
        <gx:coord>12.051056 51.553173 111.9341</gx:coord>
        <when>2026-01-01T00:33:28.1732500Z</when>
        <gx:coord>12.0523615 51.552814 111.15207</gx:coord>
        <when>2026-01-01T00:33:33.0912500Z</when>
        <gx:coord>12.053833 51.552387 110.58129</gx:coord>
        <when>2026-01-01T00:33:33.1812500Z</when>
        <gx:coord>12.053833 51.552387 110.58129</gx:coord>
        <when>2026-01-01T00:33:34.0942500Z</when>
        <gx:coord>12.053833 51.552387 110.58129</gx:coord>
        <when>2026-01-01T00:33:38.1732500Z</when>
        <gx:coord>12.055038 51.55204 109.95062</gx:coord>
        <when>2026-01-01T00:33:40.0892500Z</when>
        <gx:coord>12.055237 51.551983 109.85289</gx:coord>
        <when>2026-01-01T00:33:43.1732500Z</when>
        <gx:coord>12.055832 51.5518 109.58827</gx:coord>
        <when>2026-01-01T00:33:44.0922500Z</when>
        <gx:coord>12.055832 51.5518 109.58827</gx:coord>
        <when>2026-01-01T00:33:45.0892500Z</when>
        <gx:coord>12.055919 51.55177 109.546555</gx:coord>
        <when>2026-01-01T00:33:47.0932500Z</when>
        <gx:coord>12.056008 51.551716 109.44285</gx:coord>
        <when>2026-01-01T00:33:48.0922500Z</when>
        <gx:coord>12.056017 51.551697 109.41008</gx:coord>
        <when>2026-01-01T00:33:48.0932500Z</when>
        <gx:coord>12.056017 51.551697 109.41008</gx:coord>
        <when>2026-01-01T00:33:48.1732500Z</when>
        <gx:coord>12.056006 51.551678 109.34002</gx:coord>
        <when>2026-01-01T00:33:49.0942500Z</when>
        <gx:coord>12.056006 51.551678 109.34002</gx:coord>
        <when>2026-01-01T00:33:50.0942500Z</when>
        <gx:coord>12.055987 51.55165 109.26511</gx:coord>
        <when>2026-01-01T00:33:51.0942500Z</when>
        <gx:coord>12.0559435 51.55163 109.179985</gx:coord>
        <when>2026-01-01T00:33:51.1232500Z</when>
        <gx:coord>12.0559435 51.55163 109.179985</gx:coord>
        <when>2026-01-01T00:33:53.1732500Z</when>
        <gx:coord>12.055793 51.551556 109.23668</gx:coord>
        <when>2026-01-01T00:33:55.0902500Z</when>
        <gx:coord>12.055751 51.55152 109.16584</gx:coord>
        <when>2026-01-01T00:33:58.1732500Z</when>
        <gx:coord>12.055634 51.55138 108.974785</gx:coord>
        <when>2026-01-01T00:34:00.0932500Z</when>
        <gx:coord>12.055616 51.551353 108.92295</gx:coord>
        <when>2026-01-01T00:34:03.1732500Z</when>
        <gx:coord>12.055586 51.551308 108.848145</gx:coord>
        <when>2026-01-01T00:34:08.1732500Z</when>
        <gx:coord>12.055587 51.551308 108.85475</gx:coord>
        <when>2026-01-01T00:34:13.1732500Z</when>
        <gx:coord>12.0555525 51.551254 108.849266</gx:coord>
        <when>2026-01-01T00:34:18.1732500Z</when>
        <gx:coord>12.055426 51.551075 108.696884</gx:coord>
        <when>2026-01-01T00:34:23.1732500Z</when>
        <gx:coord>12.055296 51.55089 108.642624</gx:coord>
        <when>2026-01-01T00:34:24.0992500Z</when>
        <gx:coord>12.055296 51.55089 108.642624</gx:coord>
        <when>2026-01-01T00:34:25.0962500Z</when>
        <gx:coord>12.055294 51.55086 108.60574</gx:coord>
        <when>2026-01-01T00:34:26.0942500Z</when>
        <gx:coord>12.055301 51.55083 108.635735</gx:coord>
        <when>2026-01-01T00:34:27.0892500Z</when>
        <gx:coord>12.055319 51.550804 108.639</gx:coord>
        <when>2026-01-01T00:34:28.0982500Z</when>
        <gx:coord>12.055347 51.550774 108.62412</gx:coord>
        <when>2026-01-01T00:34:28.1732500Z</when>
        <gx:coord>12.055389 51.550743 108.61465</gx:coord>
        <when>2026-01-01T00:34:30.1042500Z</when>
        <gx:coord>12.055441 51.550716 108.57814</gx:coord>
        <when>2026-01-01T00:34:32.0952500Z</when>
        <gx:coord>12.055588 51.550667 108.50131</gx:coord>
        <when>2026-01-01T00:34:33.2262500Z</when>
        <gx:coord>12.055767 51.55062 108.49778</gx:coord>
        <when>2026-01-01T00:34:34.0912500Z</when>
        <gx:coord>12.055767 51.55062 108.49778</gx:coord>
        <when>2026-01-01T00:34:38.1732500Z</when>
        <gx:coord>12.056311 51.550476 108.53641</gx:coord>
        <when>2026-01-01T00:34:43.1732500Z</when>
        <gx:coord>12.056912 51.55031 108.53732</gx:coord>
        <when>2026-01-01T00:34:48.1732500Z</when>
        <gx:coord>12.057397 51.55017 108.602554</gx:coord>
        <when>2026-01-01T00:34:53.1732500Z</when>
        <gx:coord>12.057725 51.550076 108.64048</gx:coord>
        <when>2026-01-01T00:34:58.1732500Z</when>
        <gx:coord>12.058011 51.54999 108.54711</gx:coord>
        <when>2026-01-01T00:35:00.0902500Z</when>
        <gx:coord>12.058056 51.549965 108.485855</gx:coord>
        <when>2026-01-01T00:35:01.0972500Z</when>
        <gx:coord>12.058094 51.549934 108.46663</gx:coord>
        <when>2026-01-01T00:35:02.0972500Z</when>
        <gx:coord>12.05812 51.5499 108.5398</gx:coord>
        <when>2026-01-01T00:35:03.1732500Z</when>
        <gx:coord>12.058136 51.549828 108.62572</gx:coord>
        <when>2026-01-01T00:35:04.0952500Z</when>
        <gx:coord>12.058136 51.549828 108.62572</gx:coord>
        <when>2026-01-01T00:35:06.0892500Z</when>
        <gx:coord>12.058118 51.54975 108.67033</gx:coord>
        <when>2026-01-01T00:35:08.1732500Z</when>
        <gx:coord>12.058048 51.549614 108.57108</gx:coord>
        <when>2026-01-01T00:35:13.1722500Z</when>
        <gx:coord>12.057927 51.54936 108.447205</gx:coord>
        <when>2026-01-01T00:35:18.1732500Z</when>
        <gx:coord>12.057854 51.549164 108.35292</gx:coord>
        <when>2026-01-01T00:35:19.0922500Z</when>
        <gx:coord>12.057854 51.549164 108.35292</gx:coord>
        <when>2026-01-01T00:35:20.0922500Z</when>
        <gx:coord>12.057865 51.54914 108.32855</gx:coord>
        <when>2026-01-01T00:35:21.0922500Z</when>
        <gx:coord>12.057886 51.54911 108.24123</gx:coord>
        <when>2026-01-01T00:35:22.0892500Z</when>
        <gx:coord>12.0579195 51.549088 108.24071</gx:coord>
        <when>2026-01-01T00:35:23.0952500Z</when>
        <gx:coord>12.057964 51.54907 108.30539</gx:coord>
        <when>2026-01-01T00:35:23.1732500Z</when>
        <gx:coord>12.05802 51.549053 108.389565</gx:coord>
        <when>2026-01-01T00:35:25.0992500Z</when>
        <gx:coord>12.058083 51.54904 108.44845</gx:coord>
        <when>2026-01-01T00:35:28.1732500Z</when>
        <gx:coord>12.058292 51.549004 108.3944</gx:coord>
        <when>2026-01-01T00:35:29.0902500Z</when>
        <gx:coord>12.058292 51.549004 108.3944</gx:coord>
        <when>2026-01-01T00:35:30.0892500Z</when>
        <gx:coord>12.058317 51.54899 108.40417</gx:coord>
        <when>2026-01-01T00:35:31.0902500Z</when>
        <gx:coord>12.058334 51.548973 108.39016</gx:coord>
        <when>2026-01-01T00:35:32.0922500Z</when>
        <gx:coord>12.058342 51.54895 108.40319</gx:coord>
        <when>2026-01-01T00:35:33.0902500Z</when>
        <gx:coord>12.058341 51.548923 108.354126</gx:coord>
        <when>2026-01-01T00:35:33.1852500Z</when>
        <gx:coord>12.05833 51.548893 108.36501</gx:coord>
        <when>2026-01-01T00:35:38.0922500Z</when>
        <gx:coord>12.05829 51.548748 108.43754</gx:coord>
        <when>2026-01-01T00:35:38.1732500Z</when>
        <gx:coord>12.058278 51.54871 108.483734</gx:coord>
        <when>2026-01-01T00:35:43.1732500Z</when>
        <gx:coord>12.0582 51.548523 108.5869</gx:coord>
        <when>2026-01-01T00:35:48.0922500Z</when>
        <gx:coord>12.058157 51.54841 108.702484</gx:coord>
        <when>2026-01-01T00:35:48.1732500Z</when>
        <gx:coord>12.058161 51.548397 108.726585</gx:coord>
        <when>2026-01-01T00:35:51.1122500Z</when>
        <gx:coord>12.058198 51.54837 108.74343</gx:coord>
        <when>2026-01-01T00:35:52.4292500Z</when>
        <gx:coord>12.058206 51.54837 108.785965</gx:coord>
        <when>2026-01-01T00:35:53.1692500Z</when>
        <gx:coord>12.058211 51.548363 108.76018</gx:coord>
        <when>2026-01-01T00:35:53.1792500Z</when>
        <gx:coord>12.058211 51.548363 108.76018</gx:coord>
        <when>2026-01-01T00:35:53.6122500Z</when>
        <gx:coord>12.058211 51.548363 108.76018</gx:coord>
        <when>2026-01-01T00:35:53.9692500Z</when>
        <gx:coord>12.058211 51.548363 108.76018</gx:coord>
        <when>2026-01-01T00:35:54.2892500Z</when>
        <gx:coord>12.058214 51.54835 108.76147</gx:coord>
        <when>2026-01-01T00:35:54.6092500Z</when>
        <gx:coord>12.058214 51.54835 108.76147</gx:coord>
        <when>2026-01-01T00:35:54.9292500Z</when>
        <gx:coord>12.058214 51.54835 108.76147</gx:coord>
        <when>2026-01-01T00:35:55.3302500Z</when>
        <gx:coord>12.05821 51.548347 108.77072</gx:coord>
        <when>2026-01-01T00:35:55.7302500Z</when>
        <gx:coord>12.05821 51.548347 108.77072</gx:coord>
        <when>2026-01-01T00:35:56.1302500Z</when>
        <gx:coord>12.058201 51.548344 108.75192</gx:coord>
        <when>2026-01-01T00:35:56.5312500Z</when>
        <gx:coord>12.058201 51.548344 108.75192</gx:coord>
        <when>2026-01-01T00:35:56.9322500Z</when>
        <gx:coord>12.058201 51.548344 108.75192</gx:coord>
        <when>2026-01-01T00:35:57.3932500Z</when>
        <gx:coord>12.05819 51.548344 108.8309</gx:coord>
        <when>2026-01-01T00:35:58.0942500Z</when>
        <gx:coord>12.058179 51.548344 108.8928</gx:coord>
        <when>2026-01-01T00:35:58.1732500Z</when>
        <gx:coord>12.058179 51.548344 108.8928</gx:coord>
        <when>2026-01-01T00:36:03.1732500Z</when>
        <gx:coord>12.058166 51.548347 108.82724</gx:coord>
        <when>2026-01-01T00:36:08.1732500Z</when>
        <gx:coord>12.058165 51.548347 108.64405</gx:coord>
        <when>2026-01-01T00:36:13.1732500Z</when>
        <gx:coord>12.058164 51.548347 108.46558</gx:coord>
        <when>2026-01-01T00:36:18.1732500Z</when>
        <gx:coord>12.058163 51.548347 108.44484</gx:coord>
        <when>2026-01-01T00:36:18.8692500Z</when>
        <gx:coord>12.058163 51.548347 108.44484</gx:coord>
        <coordinates />
      </gx:Track>
    </Placemark>
    <Placemark>
      <name>Takeoff: 2026-01-01</name>
      <styleUrl>#downArrowIcon</styleUrl>
      <Point>
        <altitudeMode>relativeToGround</altitudeMode>
        <coordinates>12.04761,51.55414,20</coordinates>
      </Point>
    </Placemark>
    <Placemark>
      <name>Landing: 2026-01-01</name>
      <styleUrl>#downArrowIcon</styleUrl>
      <Point>
        <altitudeMode>relativeToGround</altitudeMode>
        <coordinates>12.0559435,51.55163,20</coordinates>
      </Point>
    </Placemark>
    <Placemark>
      <name>Log Stop: 2026-01-01</name>
      <styleUrl>#downArrowIcon</styleUrl>
      <Point>
        <altitudeMode>relativeToGround</altitudeMode>
        <coordinates>12.058163,51.548347,20</coordinates>
      </Point>
    </Placemark>
  </Document>
</kml>
